exist_flag_gt,exist_flag_response,restaurant,restaurant_before_map,address_llm_judge,address_llm_judge_eval_msg,address_query,address_response,maincuisinestyle_llm_judge,maincuisinestyle_llm_judge_eval_msg,maincuisinestyle_query,maincuisinestyle_response,restaurant_exact_match,restaurant_exact_match_eval_msg
,,allénoparisaupavillonledoyen,Alléno Paris au Pavillon Ledoyen,0.0,"Let's analyze each pair using the criterion:  
""It is sufficient if the semantics are approximately the same as the reference answer or if they point to the same entity.""

---

**idx_0**:  
- Response: ""25avenuedeschamps-élysées,75008paris""  
- Target: ""8av.dutuit,75008paris""  
- Analysis: Different street names and numbers, although same postal code 75008Paris. Different locations, so not approximately the same.  
- Score: 0

**idx_1**:  
- Response: ""17ruedufaubourgsaint-honoré,75008paris""  
- Target: ""84ruedevarenne,75007paris""  
- Analysis: Different street and postal code (75008 vs 75007), different addresses, different locations. Not approximately the same.  
- Score: 0

**idx_2**:  
- Response: ""2ruedelapaix,75008paris""  
- Target: ""5ruecoqhéron,75001paris""  
- Analysis: Different streets and postal codes. Different locations.  
- Score: 0

**idx_3**:  
- Response: ""12ruedelapaix,75008paris""  
- Target: ""9placedesvosges,75004paris""  
- Analysis: Different streets and postal codes. Different locations.  
- Score: 0

**idx_4**:  
- Response: ""12rueroyale,75003paris""  
- Target: ""31av.georgev,75008paris""  
- Analysis: Different streets and postal codes. Not same location.  
- Score: 0

**idx_5**:  
- Response: ""2ruedel'université,75006paris""  
- Target: ""42av.gabriel,75008paris""  
- Analysis: Different street and postal code. Not same location.  
- Score: 0

**idx_6**:  
- Response: ""8quaidulouvre,75001paris""  
- Target: ""8quaidulouvre,75001paris(chevalblancparishotel)""  
- Analysis: The response and the target have the exact same address ""8quaidulouvre,75001paris"". The difference is the added ""(chevalblancparishotel)"" in target, but the entity is the same. So this matches semantically.  
- Score: 1

**idx_7**:  
- Response: ""14boulevardsaint-germain,75006paris""  
- Target: ""112ruedufaubourgsaint-honoré,75008paris""  
- Analysis: Different street names and postal codes. Different locations.  
- Score: 0

---

### Final scores:

```json
{
  ""idx_0"": 0,
  ""idx_1"": 0,
  ""idx_2"": 0,
  ""idx_3"": 0,
  ""idx_4"": 0,
  ""idx_5"": 0,
  ""idx_6"": 1,
  ""idx_7"": 0
}
```","8av.dutuit,75008paris","25avenuedeschamps-élysées,75008paris",1.0,"Let's analyze each pair step-by-step based on the criterion:

Criterion:  
- Semantics approx. same or pointing to the same entity is sufficient.  
- No need for exact word match.  
- Relevance of content matters.

---

**idx_0**  
Response: ""french""  
Target: ""refined french classic with modern techniques""  
Analysis: The target indicates a specific style within French cuisine, but using ""french"" generally covers the domain and points to the same entity (French cuisine). The criterion accepts approximate semantics.  
Score: 1

---

**idx_1**  
Response: ""french""  
Target: ""vegetable-forward, garden-inspired french""  
Analysis: The target clarifies a style within French cuisine. ""French"" indicates the same cuisine. This is relevant and semantically consistent.  
Score: 1

---

**idx_2**  
Response: ""japanese""  
Target: ""franco-japanese fusion""  
Analysis: The target points to a mix of French and Japanese, but the response only names ""japanese."" This is a partial match but loses the French half of the fusion. The response is not relevant enough to the target as it omits the French component.  
Score: 0

---

**idx_3**  
Response: ""french""  
Target: ""timeless french haute cuisine""  
Analysis: ""French"" aligns with ""French haute cuisine,"" the latter is a style of French cooking. The response matches the main entity.  
Score: 1

---

**idx_4**  
Response: ""french""  
Target: ""contemporary french""  
Analysis: ""French"" broadly matches ""contemporary French,"" so it is aligned and relevant.  
Score: 1

---

**idx_5**  
Response: ""french""  
Target: ""french with global inspirations""  
Analysis: Response identifies the base cuisine as ""french,"" same entity as the target.  
Score: 1

---

**idx_6**  
Response: ""french""  
Target: ""artistic french with sauce-centric dishes""  
Analysis: The response indicates ""French,"" which matches the cuisine target, although the descriptor is missing. However, the criterion allows approximate semantics pointing to the same entity.  
Score: 1

---

**idx_7**  
Response: ""french""  
Target: ""haute french (traditional with innovative twists)""  
Analysis: ""french"" is the same entity as ""haute french,"" which is a refined style of French cuisine.  
Score: 1

---

### Final Scores (JSON):

```json
{
    ""idx_0"": 1,
    ""idx_1"": 1,
    ""idx_2"": 0,
    ""idx_3"": 1,
    ""idx_4"": 1,
    ""idx_5"": 1,
    ""idx_6"": 1,
    ""idx_7"": 1
}
```",refinedfrenchclassicwithmorderntechniques,french,1.0,key_match
,,arpège,Arpège,0.0,"Let's analyze each pair using the criterion:  
""It is sufficient if the semantics are approximately the same as the reference answer or if they point to the same entity.""

---

**idx_0**:  
- Response: ""25avenuedeschamps-élysées,75008paris""  
- Target: ""8av.dutuit,75008paris""  
- Analysis: Different street names and numbers, although same postal code 75008Paris. Different locations, so not approximately the same.  
- Score: 0

**idx_1**:  
- Response: ""17ruedufaubourgsaint-honoré,75008paris""  
- Target: ""84ruedevarenne,75007paris""  
- Analysis: Different street and postal code (75008 vs 75007), different addresses, different locations. Not approximately the same.  
- Score: 0

**idx_2**:  
- Response: ""2ruedelapaix,75008paris""  
- Target: ""5ruecoqhéron,75001paris""  
- Analysis: Different streets and postal codes. Different locations.  
- Score: 0

**idx_3**:  
- Response: ""12ruedelapaix,75008paris""  
- Target: ""9placedesvosges,75004paris""  
- Analysis: Different streets and postal codes. Different locations.  
- Score: 0

**idx_4**:  
- Response: ""12rueroyale,75003paris""  
- Target: ""31av.georgev,75008paris""  
- Analysis: Different streets and postal codes. Not same location.  
- Score: 0

**idx_5**:  
- Response: ""2ruedel'université,75006paris""  
- Target: ""42av.gabriel,75008paris""  
- Analysis: Different street and postal code. Not same location.  
- Score: 0

**idx_6**:  
- Response: ""8quaidulouvre,75001paris""  
- Target: ""8quaidulouvre,75001paris(chevalblancparishotel)""  
- Analysis: The response and the target have the exact same address ""8quaidulouvre,75001paris"". The difference is the added ""(chevalblancparishotel)"" in target, but the entity is the same. So this matches semantically.  
- Score: 1

**idx_7**:  
- Response: ""14boulevardsaint-germain,75006paris""  
- Target: ""112ruedufaubourgsaint-honoré,75008paris""  
- Analysis: Different street names and postal codes. Different locations.  
- Score: 0

---

### Final scores:

```json
{
  ""idx_0"": 0,
  ""idx_1"": 0,
  ""idx_2"": 0,
  ""idx_3"": 0,
  ""idx_4"": 0,
  ""idx_5"": 0,
  ""idx_6"": 1,
  ""idx_7"": 0
}
```","84ruedevarenne,75007paris","17ruedufaubourgsaint-honoré,75008paris",1.0,"Let's analyze each pair step-by-step based on the criterion:

Criterion:  
- Semantics approx. same or pointing to the same entity is sufficient.  
- No need for exact word match.  
- Relevance of content matters.

---

**idx_0**  
Response: ""french""  
Target: ""refined french classic with modern techniques""  
Analysis: The target indicates a specific style within French cuisine, but using ""french"" generally covers the domain and points to the same entity (French cuisine). The criterion accepts approximate semantics.  
Score: 1

---

**idx_1**  
Response: ""french""  
Target: ""vegetable-forward, garden-inspired french""  
Analysis: The target clarifies a style within French cuisine. ""French"" indicates the same cuisine. This is relevant and semantically consistent.  
Score: 1

---

**idx_2**  
Response: ""japanese""  
Target: ""franco-japanese fusion""  
Analysis: The target points to a mix of French and Japanese, but the response only names ""japanese."" This is a partial match but loses the French half of the fusion. The response is not relevant enough to the target as it omits the French component.  
Score: 0

---

**idx_3**  
Response: ""french""  
Target: ""timeless french haute cuisine""  
Analysis: ""French"" aligns with ""French haute cuisine,"" the latter is a style of French cooking. The response matches the main entity.  
Score: 1

---

**idx_4**  
Response: ""french""  
Target: ""contemporary french""  
Analysis: ""French"" broadly matches ""contemporary French,"" so it is aligned and relevant.  
Score: 1

---

**idx_5**  
Response: ""french""  
Target: ""french with global inspirations""  
Analysis: Response identifies the base cuisine as ""french,"" same entity as the target.  
Score: 1

---

**idx_6**  
Response: ""french""  
Target: ""artistic french with sauce-centric dishes""  
Analysis: The response indicates ""French,"" which matches the cuisine target, although the descriptor is missing. However, the criterion allows approximate semantics pointing to the same entity.  
Score: 1

---

**idx_7**  
Response: ""french""  
Target: ""haute french (traditional with innovative twists)""  
Analysis: ""french"" is the same entity as ""haute french,"" which is a refined style of French cuisine.  
Score: 1

---

### Final Scores (JSON):

```json
{
    ""idx_0"": 1,
    ""idx_1"": 1,
    ""idx_2"": 0,
    ""idx_3"": 1,
    ""idx_4"": 1,
    ""idx_5"": 1,
    ""idx_6"": 1,
    ""idx_7"": 1
}
```",vegetable-forward，garden-inspiredfrench,french,1.0,key_match
,,kei,Kei,0.0,"Let's analyze each pair using the criterion:  
""It is sufficient if the semantics are approximately the same as the reference answer or if they point to the same entity.""

---

**idx_0**:  
- Response: ""25avenuedeschamps-élysées,75008paris""  
- Target: ""8av.dutuit,75008paris""  
- Analysis: Different street names and numbers, although same postal code 75008Paris. Different locations, so not approximately the same.  
- Score: 0

**idx_1**:  
- Response: ""17ruedufaubourgsaint-honoré,75008paris""  
- Target: ""84ruedevarenne,75007paris""  
- Analysis: Different street and postal code (75008 vs 75007), different addresses, different locations. Not approximately the same.  
- Score: 0

**idx_2**:  
- Response: ""2ruedelapaix,75008paris""  
- Target: ""5ruecoqhéron,75001paris""  
- Analysis: Different streets and postal codes. Different locations.  
- Score: 0

**idx_3**:  
- Response: ""12ruedelapaix,75008paris""  
- Target: ""9placedesvosges,75004paris""  
- Analysis: Different streets and postal codes. Different locations.  
- Score: 0

**idx_4**:  
- Response: ""12rueroyale,75003paris""  
- Target: ""31av.georgev,75008paris""  
- Analysis: Different streets and postal codes. Not same location.  
- Score: 0

**idx_5**:  
- Response: ""2ruedel'université,75006paris""  
- Target: ""42av.gabriel,75008paris""  
- Analysis: Different street and postal code. Not same location.  
- Score: 0

**idx_6**:  
- Response: ""8quaidulouvre,75001paris""  
- Target: ""8quaidulouvre,75001paris(chevalblancparishotel)""  
- Analysis: The response and the target have the exact same address ""8quaidulouvre,75001paris"". The difference is the added ""(chevalblancparishotel)"" in target, but the entity is the same. So this matches semantically.  
- Score: 1

**idx_7**:  
- Response: ""14boulevardsaint-germain,75006paris""  
- Target: ""112ruedufaubourgsaint-honoré,75008paris""  
- Analysis: Different street names and postal codes. Different locations.  
- Score: 0

---

### Final scores:

```json
{
  ""idx_0"": 0,
  ""idx_1"": 0,
  ""idx_2"": 0,
  ""idx_3"": 0,
  ""idx_4"": 0,
  ""idx_5"": 0,
  ""idx_6"": 1,
  ""idx_7"": 0
}
```","5ruecoqhéron,75001paris","2ruedelapaix,75008paris",0.0,"Let's analyze each pair step-by-step based on the criterion:

Criterion:  
- Semantics approx. same or pointing to the same entity is sufficient.  
- No need for exact word match.  
- Relevance of content matters.

---

**idx_0**  
Response: ""french""  
Target: ""refined french classic with modern techniques""  
Analysis: The target indicates a specific style within French cuisine, but using ""french"" generally covers the domain and points to the same entity (French cuisine). The criterion accepts approximate semantics.  
Score: 1

---

**idx_1**  
Response: ""french""  
Target: ""vegetable-forward, garden-inspired french""  
Analysis: The target clarifies a style within French cuisine. ""French"" indicates the same cuisine. This is relevant and semantically consistent.  
Score: 1

---

**idx_2**  
Response: ""japanese""  
Target: ""franco-japanese fusion""  
Analysis: The target points to a mix of French and Japanese, but the response only names ""japanese."" This is a partial match but loses the French half of the fusion. The response is not relevant enough to the target as it omits the French component.  
Score: 0

---

**idx_3**  
Response: ""french""  
Target: ""timeless french haute cuisine""  
Analysis: ""French"" aligns with ""French haute cuisine,"" the latter is a style of French cooking. The response matches the main entity.  
Score: 1

---

**idx_4**  
Response: ""french""  
Target: ""contemporary french""  
Analysis: ""French"" broadly matches ""contemporary French,"" so it is aligned and relevant.  
Score: 1

---

**idx_5**  
Response: ""french""  
Target: ""french with global inspirations""  
Analysis: Response identifies the base cuisine as ""french,"" same entity as the target.  
Score: 1

---

**idx_6**  
Response: ""french""  
Target: ""artistic french with sauce-centric dishes""  
Analysis: The response indicates ""French,"" which matches the cuisine target, although the descriptor is missing. However, the criterion allows approximate semantics pointing to the same entity.  
Score: 1

---

**idx_7**  
Response: ""french""  
Target: ""haute french (traditional with innovative twists)""  
Analysis: ""french"" is the same entity as ""haute french,"" which is a refined style of French cuisine.  
Score: 1

---

### Final Scores (JSON):

```json
{
    ""idx_0"": 1,
    ""idx_1"": 1,
    ""idx_2"": 0,
    ""idx_3"": 1,
    ""idx_4"": 1,
    ""idx_5"": 1,
    ""idx_6"": 1,
    ""idx_7"": 1
}
```",franco-japanesefusion,japanese,1.0,key_match
,,l'ambroisie,L'Ambroisie,0.0,"Let's analyze each pair using the criterion:  
""It is sufficient if the semantics are approximately the same as the reference answer or if they point to the same entity.""

---

**idx_0**:  
- Response: ""25avenuedeschamps-élysées,75008paris""  
- Target: ""8av.dutuit,75008paris""  
- Analysis: Different street names and numbers, although same postal code 75008Paris. Different locations, so not approximately the same.  
- Score: 0

**idx_1**:  
- Response: ""17ruedufaubourgsaint-honoré,75008paris""  
- Target: ""84ruedevarenne,75007paris""  
- Analysis: Different street and postal code (75008 vs 75007), different addresses, different locations. Not approximately the same.  
- Score: 0

**idx_2**:  
- Response: ""2ruedelapaix,75008paris""  
- Target: ""5ruecoqhéron,75001paris""  
- Analysis: Different streets and postal codes. Different locations.  
- Score: 0

**idx_3**:  
- Response: ""12ruedelapaix,75008paris""  
- Target: ""9placedesvosges,75004paris""  
- Analysis: Different streets and postal codes. Different locations.  
- Score: 0

**idx_4**:  
- Response: ""12rueroyale,75003paris""  
- Target: ""31av.georgev,75008paris""  
- Analysis: Different streets and postal codes. Not same location.  
- Score: 0

**idx_5**:  
- Response: ""2ruedel'université,75006paris""  
- Target: ""42av.gabriel,75008paris""  
- Analysis: Different street and postal code. Not same location.  
- Score: 0

**idx_6**:  
- Response: ""8quaidulouvre,75001paris""  
- Target: ""8quaidulouvre,75001paris(chevalblancparishotel)""  
- Analysis: The response and the target have the exact same address ""8quaidulouvre,75001paris"". The difference is the added ""(chevalblancparishotel)"" in target, but the entity is the same. So this matches semantically.  
- Score: 1

**idx_7**:  
- Response: ""14boulevardsaint-germain,75006paris""  
- Target: ""112ruedufaubourgsaint-honoré,75008paris""  
- Analysis: Different street names and postal codes. Different locations.  
- Score: 0

---

### Final scores:

```json
{
  ""idx_0"": 0,
  ""idx_1"": 0,
  ""idx_2"": 0,
  ""idx_3"": 0,
  ""idx_4"": 0,
  ""idx_5"": 0,
  ""idx_6"": 1,
  ""idx_7"": 0
}
```","9placedesvosges,75004paris","12ruedelapaix,75008paris",1.0,"Let's analyze each pair step-by-step based on the criterion:

Criterion:  
- Semantics approx. same or pointing to the same entity is sufficient.  
- No need for exact word match.  
- Relevance of content matters.

---

**idx_0**  
Response: ""french""  
Target: ""refined french classic with modern techniques""  
Analysis: The target indicates a specific style within French cuisine, but using ""french"" generally covers the domain and points to the same entity (French cuisine). The criterion accepts approximate semantics.  
Score: 1

---

**idx_1**  
Response: ""french""  
Target: ""vegetable-forward, garden-inspired french""  
Analysis: The target clarifies a style within French cuisine. ""French"" indicates the same cuisine. This is relevant and semantically consistent.  
Score: 1

---

**idx_2**  
Response: ""japanese""  
Target: ""franco-japanese fusion""  
Analysis: The target points to a mix of French and Japanese, but the response only names ""japanese."" This is a partial match but loses the French half of the fusion. The response is not relevant enough to the target as it omits the French component.  
Score: 0

---

**idx_3**  
Response: ""french""  
Target: ""timeless french haute cuisine""  
Analysis: ""French"" aligns with ""French haute cuisine,"" the latter is a style of French cooking. The response matches the main entity.  
Score: 1

---

**idx_4**  
Response: ""french""  
Target: ""contemporary french""  
Analysis: ""French"" broadly matches ""contemporary French,"" so it is aligned and relevant.  
Score: 1

---

**idx_5**  
Response: ""french""  
Target: ""french with global inspirations""  
Analysis: Response identifies the base cuisine as ""french,"" same entity as the target.  
Score: 1

---

**idx_6**  
Response: ""french""  
Target: ""artistic french with sauce-centric dishes""  
Analysis: The response indicates ""French,"" which matches the cuisine target, although the descriptor is missing. However, the criterion allows approximate semantics pointing to the same entity.  
Score: 1

---

**idx_7**  
Response: ""french""  
Target: ""haute french (traditional with innovative twists)""  
Analysis: ""french"" is the same entity as ""haute french,"" which is a refined style of French cuisine.  
Score: 1

---

### Final Scores (JSON):

```json
{
    ""idx_0"": 1,
    ""idx_1"": 1,
    ""idx_2"": 0,
    ""idx_3"": 1,
    ""idx_4"": 1,
    ""idx_5"": 1,
    ""idx_6"": 1,
    ""idx_7"": 1
}
```",timelessfrenchhautecuisine,french,1.0,key_match
,,lecinq,Le Cinq,0.0,"Let's analyze each pair using the criterion:  
""It is sufficient if the semantics are approximately the same as the reference answer or if they point to the same entity.""

---

**idx_0**:  
- Response: ""25avenuedeschamps-élysées,75008paris""  
- Target: ""8av.dutuit,75008paris""  
- Analysis: Different street names and numbers, although same postal code 75008Paris. Different locations, so not approximately the same.  
- Score: 0

**idx_1**:  
- Response: ""17ruedufaubourgsaint-honoré,75008paris""  
- Target: ""84ruedevarenne,75007paris""  
- Analysis: Different street and postal code (75008 vs 75007), different addresses, different locations. Not approximately the same.  
- Score: 0

**idx_2**:  
- Response: ""2ruedelapaix,75008paris""  
- Target: ""5ruecoqhéron,75001paris""  
- Analysis: Different streets and postal codes. Different locations.  
- Score: 0

**idx_3**:  
- Response: ""12ruedelapaix,75008paris""  
- Target: ""9placedesvosges,75004paris""  
- Analysis: Different streets and postal codes. Different locations.  
- Score: 0

**idx_4**:  
- Response: ""12rueroyale,75003paris""  
- Target: ""31av.georgev,75008paris""  
- Analysis: Different streets and postal codes. Not same location.  
- Score: 0

**idx_5**:  
- Response: ""2ruedel'université,75006paris""  
- Target: ""42av.gabriel,75008paris""  
- Analysis: Different street and postal code. Not same location.  
- Score: 0

**idx_6**:  
- Response: ""8quaidulouvre,75001paris""  
- Target: ""8quaidulouvre,75001paris(chevalblancparishotel)""  
- Analysis: The response and the target have the exact same address ""8quaidulouvre,75001paris"". The difference is the added ""(chevalblancparishotel)"" in target, but the entity is the same. So this matches semantically.  
- Score: 1

**idx_7**:  
- Response: ""14boulevardsaint-germain,75006paris""  
- Target: ""112ruedufaubourgsaint-honoré,75008paris""  
- Analysis: Different street names and postal codes. Different locations.  
- Score: 0

---

### Final scores:

```json
{
  ""idx_0"": 0,
  ""idx_1"": 0,
  ""idx_2"": 0,
  ""idx_3"": 0,
  ""idx_4"": 0,
  ""idx_5"": 0,
  ""idx_6"": 1,
  ""idx_7"": 0
}
```","31av.georgev,75008paris","12rueroyale,75003paris",1.0,"Let's analyze each pair step-by-step based on the criterion:

Criterion:  
- Semantics approx. same or pointing to the same entity is sufficient.  
- No need for exact word match.  
- Relevance of content matters.

---

**idx_0**  
Response: ""french""  
Target: ""refined french classic with modern techniques""  
Analysis: The target indicates a specific style within French cuisine, but using ""french"" generally covers the domain and points to the same entity (French cuisine). The criterion accepts approximate semantics.  
Score: 1

---

**idx_1**  
Response: ""french""  
Target: ""vegetable-forward, garden-inspired french""  
Analysis: The target clarifies a style within French cuisine. ""French"" indicates the same cuisine. This is relevant and semantically consistent.  
Score: 1

---

**idx_2**  
Response: ""japanese""  
Target: ""franco-japanese fusion""  
Analysis: The target points to a mix of French and Japanese, but the response only names ""japanese."" This is a partial match but loses the French half of the fusion. The response is not relevant enough to the target as it omits the French component.  
Score: 0

---

**idx_3**  
Response: ""french""  
Target: ""timeless french haute cuisine""  
Analysis: ""French"" aligns with ""French haute cuisine,"" the latter is a style of French cooking. The response matches the main entity.  
Score: 1

---

**idx_4**  
Response: ""french""  
Target: ""contemporary french""  
Analysis: ""French"" broadly matches ""contemporary French,"" so it is aligned and relevant.  
Score: 1

---

**idx_5**  
Response: ""french""  
Target: ""french with global inspirations""  
Analysis: Response identifies the base cuisine as ""french,"" same entity as the target.  
Score: 1

---

**idx_6**  
Response: ""french""  
Target: ""artistic french with sauce-centric dishes""  
Analysis: The response indicates ""French,"" which matches the cuisine target, although the descriptor is missing. However, the criterion allows approximate semantics pointing to the same entity.  
Score: 1

---

**idx_7**  
Response: ""french""  
Target: ""haute french (traditional with innovative twists)""  
Analysis: ""french"" is the same entity as ""haute french,"" which is a refined style of French cuisine.  
Score: 1

---

### Final Scores (JSON):

```json
{
    ""idx_0"": 1,
    ""idx_1"": 1,
    ""idx_2"": 0,
    ""idx_3"": 1,
    ""idx_4"": 1,
    ""idx_5"": 1,
    ""idx_6"": 1,
    ""idx_7"": 1
}
```",contemporaryfrench,french,1.0,key_match
,,legabriel-lareserveparis,Le Gabriel - La Réserve Paris,0.0,"Let's analyze each pair using the criterion:  
""It is sufficient if the semantics are approximately the same as the reference answer or if they point to the same entity.""

---

**idx_0**:  
- Response: ""25avenuedeschamps-élysées,75008paris""  
- Target: ""8av.dutuit,75008paris""  
- Analysis: Different street names and numbers, although same postal code 75008Paris. Different locations, so not approximately the same.  
- Score: 0

**idx_1**:  
- Response: ""17ruedufaubourgsaint-honoré,75008paris""  
- Target: ""84ruedevarenne,75007paris""  
- Analysis: Different street and postal code (75008 vs 75007), different addresses, different locations. Not approximately the same.  
- Score: 0

**idx_2**:  
- Response: ""2ruedelapaix,75008paris""  
- Target: ""5ruecoqhéron,75001paris""  
- Analysis: Different streets and postal codes. Different locations.  
- Score: 0

**idx_3**:  
- Response: ""12ruedelapaix,75008paris""  
- Target: ""9placedesvosges,75004paris""  
- Analysis: Different streets and postal codes. Different locations.  
- Score: 0

**idx_4**:  
- Response: ""12rueroyale,75003paris""  
- Target: ""31av.georgev,75008paris""  
- Analysis: Different streets and postal codes. Not same location.  
- Score: 0

**idx_5**:  
- Response: ""2ruedel'université,75006paris""  
- Target: ""42av.gabriel,75008paris""  
- Analysis: Different street and postal code. Not same location.  
- Score: 0

**idx_6**:  
- Response: ""8quaidulouvre,75001paris""  
- Target: ""8quaidulouvre,75001paris(chevalblancparishotel)""  
- Analysis: The response and the target have the exact same address ""8quaidulouvre,75001paris"". The difference is the added ""(chevalblancparishotel)"" in target, but the entity is the same. So this matches semantically.  
- Score: 1

**idx_7**:  
- Response: ""14boulevardsaint-germain,75006paris""  
- Target: ""112ruedufaubourgsaint-honoré,75008paris""  
- Analysis: Different street names and postal codes. Different locations.  
- Score: 0

---

### Final scores:

```json
{
  ""idx_0"": 0,
  ""idx_1"": 0,
  ""idx_2"": 0,
  ""idx_3"": 0,
  ""idx_4"": 0,
  ""idx_5"": 0,
  ""idx_6"": 1,
  ""idx_7"": 0
}
```","42av.gabriel,75008paris","2ruedel'université,75006paris",1.0,"Let's analyze each pair step-by-step based on the criterion:

Criterion:  
- Semantics approx. same or pointing to the same entity is sufficient.  
- No need for exact word match.  
- Relevance of content matters.

---

**idx_0**  
Response: ""french""  
Target: ""refined french classic with modern techniques""  
Analysis: The target indicates a specific style within French cuisine, but using ""french"" generally covers the domain and points to the same entity (French cuisine). The criterion accepts approximate semantics.  
Score: 1

---

**idx_1**  
Response: ""french""  
Target: ""vegetable-forward, garden-inspired french""  
Analysis: The target clarifies a style within French cuisine. ""French"" indicates the same cuisine. This is relevant and semantically consistent.  
Score: 1

---

**idx_2**  
Response: ""japanese""  
Target: ""franco-japanese fusion""  
Analysis: The target points to a mix of French and Japanese, but the response only names ""japanese."" This is a partial match but loses the French half of the fusion. The response is not relevant enough to the target as it omits the French component.  
Score: 0

---

**idx_3**  
Response: ""french""  
Target: ""timeless french haute cuisine""  
Analysis: ""French"" aligns with ""French haute cuisine,"" the latter is a style of French cooking. The response matches the main entity.  
Score: 1

---

**idx_4**  
Response: ""french""  
Target: ""contemporary french""  
Analysis: ""French"" broadly matches ""contemporary French,"" so it is aligned and relevant.  
Score: 1

---

**idx_5**  
Response: ""french""  
Target: ""french with global inspirations""  
Analysis: Response identifies the base cuisine as ""french,"" same entity as the target.  
Score: 1

---

**idx_6**  
Response: ""french""  
Target: ""artistic french with sauce-centric dishes""  
Analysis: The response indicates ""French,"" which matches the cuisine target, although the descriptor is missing. However, the criterion allows approximate semantics pointing to the same entity.  
Score: 1

---

**idx_7**  
Response: ""french""  
Target: ""haute french (traditional with innovative twists)""  
Analysis: ""french"" is the same entity as ""haute french,"" which is a refined style of French cuisine.  
Score: 1

---

### Final Scores (JSON):

```json
{
    ""idx_0"": 1,
    ""idx_1"": 1,
    ""idx_2"": 0,
    ""idx_3"": 1,
    ""idx_4"": 1,
    ""idx_5"": 1,
    ""idx_6"": 1,
    ""idx_7"": 1
}
```",frenchwithglobalinspirations,french,1.0,key_match
,,plénitude,Plénitude - Cheval Blanc Paris,1.0,"Let's analyze each pair using the criterion:  
""It is sufficient if the semantics are approximately the same as the reference answer or if they point to the same entity.""

---

**idx_0**:  
- Response: ""25avenuedeschamps-élysées,75008paris""  
- Target: ""8av.dutuit,75008paris""  
- Analysis: Different street names and numbers, although same postal code 75008Paris. Different locations, so not approximately the same.  
- Score: 0

**idx_1**:  
- Response: ""17ruedufaubourgsaint-honoré,75008paris""  
- Target: ""84ruedevarenne,75007paris""  
- Analysis: Different street and postal code (75008 vs 75007), different addresses, different locations. Not approximately the same.  
- Score: 0

**idx_2**:  
- Response: ""2ruedelapaix,75008paris""  
- Target: ""5ruecoqhéron,75001paris""  
- Analysis: Different streets and postal codes. Different locations.  
- Score: 0

**idx_3**:  
- Response: ""12ruedelapaix,75008paris""  
- Target: ""9placedesvosges,75004paris""  
- Analysis: Different streets and postal codes. Different locations.  
- Score: 0

**idx_4**:  
- Response: ""12rueroyale,75003paris""  
- Target: ""31av.georgev,75008paris""  
- Analysis: Different streets and postal codes. Not same location.  
- Score: 0

**idx_5**:  
- Response: ""2ruedel'université,75006paris""  
- Target: ""42av.gabriel,75008paris""  
- Analysis: Different street and postal code. Not same location.  
- Score: 0

**idx_6**:  
- Response: ""8quaidulouvre,75001paris""  
- Target: ""8quaidulouvre,75001paris(chevalblancparishotel)""  
- Analysis: The response and the target have the exact same address ""8quaidulouvre,75001paris"". The difference is the added ""(chevalblancparishotel)"" in target, but the entity is the same. So this matches semantically.  
- Score: 1

**idx_7**:  
- Response: ""14boulevardsaint-germain,75006paris""  
- Target: ""112ruedufaubourgsaint-honoré,75008paris""  
- Analysis: Different street names and postal codes. Different locations.  
- Score: 0

---

### Final scores:

```json
{
  ""idx_0"": 0,
  ""idx_1"": 0,
  ""idx_2"": 0,
  ""idx_3"": 0,
  ""idx_4"": 0,
  ""idx_5"": 0,
  ""idx_6"": 1,
  ""idx_7"": 0
}
```","8quaidulouvre,75001paris(chevalblancparishotel)","8quaidulouvre,75001paris",1.0,"Let's analyze each pair step-by-step based on the criterion:

Criterion:  
- Semantics approx. same or pointing to the same entity is sufficient.  
- No need for exact word match.  
- Relevance of content matters.

---

**idx_0**  
Response: ""french""  
Target: ""refined french classic with modern techniques""  
Analysis: The target indicates a specific style within French cuisine, but using ""french"" generally covers the domain and points to the same entity (French cuisine). The criterion accepts approximate semantics.  
Score: 1

---

**idx_1**  
Response: ""french""  
Target: ""vegetable-forward, garden-inspired french""  
Analysis: The target clarifies a style within French cuisine. ""French"" indicates the same cuisine. This is relevant and semantically consistent.  
Score: 1

---

**idx_2**  
Response: ""japanese""  
Target: ""franco-japanese fusion""  
Analysis: The target points to a mix of French and Japanese, but the response only names ""japanese."" This is a partial match but loses the French half of the fusion. The response is not relevant enough to the target as it omits the French component.  
Score: 0

---

**idx_3**  
Response: ""french""  
Target: ""timeless french haute cuisine""  
Analysis: ""French"" aligns with ""French haute cuisine,"" the latter is a style of French cooking. The response matches the main entity.  
Score: 1

---

**idx_4**  
Response: ""french""  
Target: ""contemporary french""  
Analysis: ""French"" broadly matches ""contemporary French,"" so it is aligned and relevant.  
Score: 1

---

**idx_5**  
Response: ""french""  
Target: ""french with global inspirations""  
Analysis: Response identifies the base cuisine as ""french,"" same entity as the target.  
Score: 1

---

**idx_6**  
Response: ""french""  
Target: ""artistic french with sauce-centric dishes""  
Analysis: The response indicates ""French,"" which matches the cuisine target, although the descriptor is missing. However, the criterion allows approximate semantics pointing to the same entity.  
Score: 1

---

**idx_7**  
Response: ""french""  
Target: ""haute french (traditional with innovative twists)""  
Analysis: ""french"" is the same entity as ""haute french,"" which is a refined style of French cuisine.  
Score: 1

---

### Final Scores (JSON):

```json
{
    ""idx_0"": 1,
    ""idx_1"": 1,
    ""idx_2"": 0,
    ""idx_3"": 1,
    ""idx_4"": 1,
    ""idx_5"": 1,
    ""idx_6"": 1,
    ""idx_7"": 1
}
```",artisticfrenchwithsauce-centricdishes,french,1.0,key_match
,,épicure,Épicure,0.0,"Let's analyze each pair using the criterion:  
""It is sufficient if the semantics are approximately the same as the reference answer or if they point to the same entity.""

---

**idx_0**:  
- Response: ""25avenuedeschamps-élysées,75008paris""  
- Target: ""8av.dutuit,75008paris""  
- Analysis: Different street names and numbers, although same postal code 75008Paris. Different locations, so not approximately the same.  
- Score: 0

**idx_1**:  
- Response: ""17ruedufaubourgsaint-honoré,75008paris""  
- Target: ""84ruedevarenne,75007paris""  
- Analysis: Different street and postal code (75008 vs 75007), different addresses, different locations. Not approximately the same.  
- Score: 0

**idx_2**:  
- Response: ""2ruedelapaix,75008paris""  
- Target: ""5ruecoqhéron,75001paris""  
- Analysis: Different streets and postal codes. Different locations.  
- Score: 0

**idx_3**:  
- Response: ""12ruedelapaix,75008paris""  
- Target: ""9placedesvosges,75004paris""  
- Analysis: Different streets and postal codes. Different locations.  
- Score: 0

**idx_4**:  
- Response: ""12rueroyale,75003paris""  
- Target: ""31av.georgev,75008paris""  
- Analysis: Different streets and postal codes. Not same location.  
- Score: 0

**idx_5**:  
- Response: ""2ruedel'université,75006paris""  
- Target: ""42av.gabriel,75008paris""  
- Analysis: Different street and postal code. Not same location.  
- Score: 0

**idx_6**:  
- Response: ""8quaidulouvre,75001paris""  
- Target: ""8quaidulouvre,75001paris(chevalblancparishotel)""  
- Analysis: The response and the target have the exact same address ""8quaidulouvre,75001paris"". The difference is the added ""(chevalblancparishotel)"" in target, but the entity is the same. So this matches semantically.  
- Score: 1

**idx_7**:  
- Response: ""14boulevardsaint-germain,75006paris""  
- Target: ""112ruedufaubourgsaint-honoré,75008paris""  
- Analysis: Different street names and postal codes. Different locations.  
- Score: 0

---

### Final scores:

```json
{
  ""idx_0"": 0,
  ""idx_1"": 0,
  ""idx_2"": 0,
  ""idx_3"": 0,
  ""idx_4"": 0,
  ""idx_5"": 0,
  ""idx_6"": 1,
  ""idx_7"": 0
}
```","112ruedufaubourgsaint-honoré,75008paris","14boulevardsaint-germain,75006paris",1.0,"Let's analyze each pair step-by-step based on the criterion:

Criterion:  
- Semantics approx. same or pointing to the same entity is sufficient.  
- No need for exact word match.  
- Relevance of content matters.

---

**idx_0**  
Response: ""french""  
Target: ""refined french classic with modern techniques""  
Analysis: The target indicates a specific style within French cuisine, but using ""french"" generally covers the domain and points to the same entity (French cuisine). The criterion accepts approximate semantics.  
Score: 1

---

**idx_1**  
Response: ""french""  
Target: ""vegetable-forward, garden-inspired french""  
Analysis: The target clarifies a style within French cuisine. ""French"" indicates the same cuisine. This is relevant and semantically consistent.  
Score: 1

---

**idx_2**  
Response: ""japanese""  
Target: ""franco-japanese fusion""  
Analysis: The target points to a mix of French and Japanese, but the response only names ""japanese."" This is a partial match but loses the French half of the fusion. The response is not relevant enough to the target as it omits the French component.  
Score: 0

---

**idx_3**  
Response: ""french""  
Target: ""timeless french haute cuisine""  
Analysis: ""French"" aligns with ""French haute cuisine,"" the latter is a style of French cooking. The response matches the main entity.  
Score: 1

---

**idx_4**  
Response: ""french""  
Target: ""contemporary french""  
Analysis: ""French"" broadly matches ""contemporary French,"" so it is aligned and relevant.  
Score: 1

---

**idx_5**  
Response: ""french""  
Target: ""french with global inspirations""  
Analysis: Response identifies the base cuisine as ""french,"" same entity as the target.  
Score: 1

---

**idx_6**  
Response: ""french""  
Target: ""artistic french with sauce-centric dishes""  
Analysis: The response indicates ""French,"" which matches the cuisine target, although the descriptor is missing. However, the criterion allows approximate semantics pointing to the same entity.  
Score: 1

---

**idx_7**  
Response: ""french""  
Target: ""haute french (traditional with innovative twists)""  
Analysis: ""french"" is the same entity as ""haute french,"" which is a refined style of French cuisine.  
Score: 1

---

### Final Scores (JSON):

```json
{
    ""idx_0"": 1,
    ""idx_1"": 1,
    ""idx_2"": 0,
    ""idx_3"": 1,
    ""idx_4"": 1,
    ""idx_5"": 1,
    ""idx_6"": 1,
    ""idx_7"": 1
}
```",hautefrench(traditionalwithinnovativetwists),french,1.0,key_match
1.0,,leprécatelan,,,,"routedesuresnes–boisdeboulogne,75016paris",,,,"creative,contemporary",,,
1.0,,pierregagnaire,,,,"6ruebalzac,75008paris",,,,avant-gardefrench,,,
