exist_flag_gt,exist_flag_response,restaurant,restaurant_before_map,address_llm_judge,address_llm_judge_eval_msg,address_query,address_response,maincuisinestyle_llm_judge,maincuisinestyle_llm_judge_eval_msg,maincuisinestyle_query,maincuisinestyle_response,restaurant_exact_match,restaurant_exact_match_eval_msg
,,l'ambroisie,L'Ambroisie,1.0,"Analyzing the provided pair:

- Target answer: ""9placedesvosges,75004paris""
- Response: ""9placedesvosges,75004paris""

Step-by-step analysis:
- The response exactly matches the target answer.
- The semantics are identical.
- No wording difference or error.
- According to the criterion, a semantic match is sufficient, and here it's exact.

Final scoring: 1

```json
{
    ""idx_0"": 1
}
```","9placedesvosges,75004paris","9placedesvosges,75004paris",1.0,"Let's analyze the response against the target according to the criteria:

- Target: ""timelessfrenchhautecuisine""  
- Response: ""french""

Step-by-step analysis:  
1. The reference answer points to a specific concept or style: “timeless french haute cuisine.”  
2. The response gives the general category: “french.”  
3. According to the grading criterion, it's sufficient if the semantics are approximately the same or point to the same entity.  
4. ""French"" Cuisine is the core entity or category of the target phrase. Though the target is more specific, the response captures the main concept.  
5. The response is relevant and points to the same entity (French cuisine) even though it is less specific.

Conclusion: The response meets the criterion by roughly matching the semantics and entity, so it gets a full score.

```json
{
  ""idx_0"": 1
}
```",timelessfrenchhautecuisine,french,1.0,key_match
1.0,,allénoparisaupavillonledoyen,,,,"8av.dutuit,75008paris",,,,refinedfrenchclassicwithmorderntechniques,,,
1.0,,arpège,,,,"84ruedevarenne,75007paris",,,,vegetable-forward，garden-inspiredfrench,,,
1.0,,kei,,,,"5ruecoqhéron,75001paris",,,,franco-japanesefusion,,,
1.0,,lecinq,,,,"31av.georgev,75008paris",,,,contemporaryfrench,,,
1.0,,legabriel-lareserveparis,,,,"42av.gabriel,75008paris",,,,frenchwithglobalinspirations,,,
1.0,,leprécatelan,,,,"routedesuresnes–boisdeboulogne,75016paris",,,,"creative,contemporary",,,
1.0,,pierregagnaire,,,,"6ruebalzac,75008paris",,,,avant-gardefrench,,,
1.0,,plénitude,,,,"8quaidulouvre,75001paris(chevalblancparishotel)",,,,artisticfrenchwithsauce-centricdishes,,,
1.0,,épicure,,,,"112ruedufaubourgsaint-honoré,75008paris",,,,hautefrench(traditionalwithinnovativetwists),,,
