exist_flag_gt,exist_flag_response,restaurant,restaurant_before_map,address_llm_judge,address_llm_judge_eval_msg,address_query,address_response,maincuisinestyle_llm_judge,maincuisinestyle_llm_judge_eval_msg,maincuisinestyle_query,maincuisinestyle_response,restaurant_exact_match,restaurant_exact_match_eval_msg
,,allénoparisaupavillonledoyen,Alléno Paris,0.0,"Let's analyze each response against its target according to the grading criterion:

Criterion: It is sufficient if the semantics are approximately the same as the reference answer or if they point to the same entity. No need for exact word-for-word match.

---

**idx_0**  
- Response: ""pavillonledoyen""  
- Target: ""8av.dutuit,75008paris""  
Analysis: The response gives a name (""pavillonledoyen"") while the target is an address. The semantics do not match; the response does not refer to the location or address in the target. The response and target do not indicate the same entity.  
Score: 0

---

**idx_1**  
- Response: ""paris""  
- Target: ""84ruedevarenne,75007paris""  
Analysis: Target is an address located in Paris. The response ""paris"" correctly identifies the city of the target. Since the criterion accepts approximate matching or pointing to the same entity, ""paris"" corresponds well enough.  
Score: 1

---

**idx_2**  
- Response: ""paris""  
- Target: ""5ruecoqhéron,75001paris""  
Analysis: Same as idx_1. The response ""paris"" corresponds to the city of the target address.  
Score: 1

---

**idx_3**  
- Response: ""paris""  
- Target: ""9placedesvosges,75004paris""  
Analysis: Same reasoning as above.  
Score: 1

---

**idx_4**  
- Response: ""paris""  
- Target: ""routedesuresnes–boisdeboulogne,75016paris""  
Analysis: Again, the response corresponds to the same city.  
Score: 1

---

**idx_5**  
- Response: ""paris""  
- Target: ""31av.georgev,75008paris""  
Analysis: Same as above.  
Score: 1

---

**idx_6**  
- Response: ""paris""  
- Target: ""42av.gabriel,75008paris""  
Analysis: Same as above.  
Score: 1

---

**idx_7**  
- Response: ""paris""  
- Target: ""6ruebalzac,75008paris""  
Analysis: Same as above.  
Score: 1

---

**idx_8**  
- Response: ""chevalblancparis""  
- Target: ""8quaidulouvre,75001paris(chevalblancparishotel)""  
Analysis: The response ""chevalblancparis"" clearly points to the same entity as in the target (Cheval Blanc Paris Hotel). The target address includes ""chevalblancparishotel"" and the response gives the name. According to the criterion, this is acceptable.  
Score: 1

---

**idx_9**  
- Response: ""paris""  
- Target: ""112ruedufaubourgsaint-honoré,75008paris""  
Analysis: Same reasoning as idx_1 to idx_7.  
Score: 1

---

### Final scores:
```json
{
    ""idx_0"": 0,
    ""idx_1"": 1,
    ""idx_2"": 1,
    ""idx_3"": 1,
    ""idx_4"": 1,
    ""idx_5"": 1,
    ""idx_6"": 1,
    ""idx_7"": 1,
    ""idx_8"": 1,
    ""idx_9"": 1
}
```","8av.dutuit,75008paris",pavillonledoyen,1.0,"Let's analyze each pair according to the grading criteria:

Criterion:  
- Semantics approximately the same or point to the same entity.  
- No need for exact word matching.  
- Content relevance suffices.

All responses are ""frenchcuisine"" and targets are more detailed variants or sub-styles of French cuisine.

Analysis per idx:

- idx_0: target ""refined french classic with modern techniques""  
  Response: ""frenchcuisine""  
  Reasoning: Response is a broad term encompassing the target; target is a kind of French cuisine. Matches semantically, sufficient as per criterion. Score: 1

- idx_1: ""vegetable-forward, garden-inspired french""  
  Response: ""frenchcuisine""  
  Same logic as above, vegetable-forward French cuisine is a subtype of French cuisine. Response is relevant. Score: 1

- idx_2: ""franco-japanese fusion""  
  Response: ""frenchcuisine""  
  Fusion cuisine involving French is generally considered under French culinary influence but is broadened. The response only states ""frenchcuisine,"" not fusion. However, as per criteria about approximate semantics or same entity, ""frenchcuisine"" generally covers the fusion or the entity referenced. Score: 1

- idx_3: ""timeless french haute cuisine""  
  Response: ""frenchcuisine""  
  Specific kind of French cuisine. General term suffices. Score: 1

- idx_4: ""creative, contemporary"" (no direct mention of French)  
  Response: ""frenchcuisine""  
  Target does not specify ""french,"" but clues suggest it could be contemporary French (uncertain). Target is incomplete or vague but is presumably a style within French cuisine (given pattern). The response covers French cuisine generally. Given the criterion focus on approximate semantics and relevance, it's acceptable. Score: 1

- idx_5: ""contemporary french""  
  Response: ""frenchcuisine""  
  As above, broad response suffices. Score: 1

- idx_6: ""french with global inspirations""  
  Response: ""frenchcuisine""  
  Correct, the global inspirations are part of French cuisine variations. Score: 1

- idx_7: ""avant-garde french""  
  Response: ""frenchcuisine""  
  Substyle of French cuisine. Score: 1

- idx_8: ""artistic french with sauce-centric dishes""  
  Response: ""frenchcuisine""  
  Specific aspect of French cuisine but contained under the umbrella term. Score: 1

- idx_9: ""haute french (traditional with innovative twists)""  
  Response: ""frenchcuisine""  
  Clearly included in French cuisine umbrella. Score: 1

Conclusion: all responses are sufficiently relevant to target answers per the criterion.

Final scores: all 1

```json
{
  ""idx_0"": 1,
  ""idx_1"": 1,
  ""idx_2"": 1,
  ""idx_3"": 1,
  ""idx_4"": 1,
  ""idx_5"": 1,
  ""idx_6"": 1,
  ""idx_7"": 1,
  ""idx_8"": 1,
  ""idx_9"": 1
}
```",refinedfrenchclassicwithmorderntechniques,frenchcuisine,1.0,key_match
,,arpège,Arpège,1.0,"Let's analyze each response against its target according to the grading criterion:

Criterion: It is sufficient if the semantics are approximately the same as the reference answer or if they point to the same entity. No need for exact word-for-word match.

---

**idx_0**  
- Response: ""pavillonledoyen""  
- Target: ""8av.dutuit,75008paris""  
Analysis: The response gives a name (""pavillonledoyen"") while the target is an address. The semantics do not match; the response does not refer to the location or address in the target. The response and target do not indicate the same entity.  
Score: 0

---

**idx_1**  
- Response: ""paris""  
- Target: ""84ruedevarenne,75007paris""  
Analysis: Target is an address located in Paris. The response ""paris"" correctly identifies the city of the target. Since the criterion accepts approximate matching or pointing to the same entity, ""paris"" corresponds well enough.  
Score: 1

---

**idx_2**  
- Response: ""paris""  
- Target: ""5ruecoqhéron,75001paris""  
Analysis: Same as idx_1. The response ""paris"" corresponds to the city of the target address.  
Score: 1

---

**idx_3**  
- Response: ""paris""  
- Target: ""9placedesvosges,75004paris""  
Analysis: Same reasoning as above.  
Score: 1

---

**idx_4**  
- Response: ""paris""  
- Target: ""routedesuresnes–boisdeboulogne,75016paris""  
Analysis: Again, the response corresponds to the same city.  
Score: 1

---

**idx_5**  
- Response: ""paris""  
- Target: ""31av.georgev,75008paris""  
Analysis: Same as above.  
Score: 1

---

**idx_6**  
- Response: ""paris""  
- Target: ""42av.gabriel,75008paris""  
Analysis: Same as above.  
Score: 1

---

**idx_7**  
- Response: ""paris""  
- Target: ""6ruebalzac,75008paris""  
Analysis: Same as above.  
Score: 1

---

**idx_8**  
- Response: ""chevalblancparis""  
- Target: ""8quaidulouvre,75001paris(chevalblancparishotel)""  
Analysis: The response ""chevalblancparis"" clearly points to the same entity as in the target (Cheval Blanc Paris Hotel). The target address includes ""chevalblancparishotel"" and the response gives the name. According to the criterion, this is acceptable.  
Score: 1

---

**idx_9**  
- Response: ""paris""  
- Target: ""112ruedufaubourgsaint-honoré,75008paris""  
Analysis: Same reasoning as idx_1 to idx_7.  
Score: 1

---

### Final scores:
```json
{
    ""idx_0"": 0,
    ""idx_1"": 1,
    ""idx_2"": 1,
    ""idx_3"": 1,
    ""idx_4"": 1,
    ""idx_5"": 1,
    ""idx_6"": 1,
    ""idx_7"": 1,
    ""idx_8"": 1,
    ""idx_9"": 1
}
```","84ruedevarenne,75007paris",paris,1.0,"Let's analyze each pair according to the grading criteria:

Criterion:  
- Semantics approximately the same or point to the same entity.  
- No need for exact word matching.  
- Content relevance suffices.

All responses are ""frenchcuisine"" and targets are more detailed variants or sub-styles of French cuisine.

Analysis per idx:

- idx_0: target ""refined french classic with modern techniques""  
  Response: ""frenchcuisine""  
  Reasoning: Response is a broad term encompassing the target; target is a kind of French cuisine. Matches semantically, sufficient as per criterion. Score: 1

- idx_1: ""vegetable-forward, garden-inspired french""  
  Response: ""frenchcuisine""  
  Same logic as above, vegetable-forward French cuisine is a subtype of French cuisine. Response is relevant. Score: 1

- idx_2: ""franco-japanese fusion""  
  Response: ""frenchcuisine""  
  Fusion cuisine involving French is generally considered under French culinary influence but is broadened. The response only states ""frenchcuisine,"" not fusion. However, as per criteria about approximate semantics or same entity, ""frenchcuisine"" generally covers the fusion or the entity referenced. Score: 1

- idx_3: ""timeless french haute cuisine""  
  Response: ""frenchcuisine""  
  Specific kind of French cuisine. General term suffices. Score: 1

- idx_4: ""creative, contemporary"" (no direct mention of French)  
  Response: ""frenchcuisine""  
  Target does not specify ""french,"" but clues suggest it could be contemporary French (uncertain). Target is incomplete or vague but is presumably a style within French cuisine (given pattern). The response covers French cuisine generally. Given the criterion focus on approximate semantics and relevance, it's acceptable. Score: 1

- idx_5: ""contemporary french""  
  Response: ""frenchcuisine""  
  As above, broad response suffices. Score: 1

- idx_6: ""french with global inspirations""  
  Response: ""frenchcuisine""  
  Correct, the global inspirations are part of French cuisine variations. Score: 1

- idx_7: ""avant-garde french""  
  Response: ""frenchcuisine""  
  Substyle of French cuisine. Score: 1

- idx_8: ""artistic french with sauce-centric dishes""  
  Response: ""frenchcuisine""  
  Specific aspect of French cuisine but contained under the umbrella term. Score: 1

- idx_9: ""haute french (traditional with innovative twists)""  
  Response: ""frenchcuisine""  
  Clearly included in French cuisine umbrella. Score: 1

Conclusion: all responses are sufficiently relevant to target answers per the criterion.

Final scores: all 1

```json
{
  ""idx_0"": 1,
  ""idx_1"": 1,
  ""idx_2"": 1,
  ""idx_3"": 1,
  ""idx_4"": 1,
  ""idx_5"": 1,
  ""idx_6"": 1,
  ""idx_7"": 1,
  ""idx_8"": 1,
  ""idx_9"": 1
}
```",vegetable-forward，garden-inspiredfrench,frenchcuisine,1.0,key_match
,,kei,Kei,1.0,"Let's analyze each response against its target according to the grading criterion:

Criterion: It is sufficient if the semantics are approximately the same as the reference answer or if they point to the same entity. No need for exact word-for-word match.

---

**idx_0**  
- Response: ""pavillonledoyen""  
- Target: ""8av.dutuit,75008paris""  
Analysis: The response gives a name (""pavillonledoyen"") while the target is an address. The semantics do not match; the response does not refer to the location or address in the target. The response and target do not indicate the same entity.  
Score: 0

---

**idx_1**  
- Response: ""paris""  
- Target: ""84ruedevarenne,75007paris""  
Analysis: Target is an address located in Paris. The response ""paris"" correctly identifies the city of the target. Since the criterion accepts approximate matching or pointing to the same entity, ""paris"" corresponds well enough.  
Score: 1

---

**idx_2**  
- Response: ""paris""  
- Target: ""5ruecoqhéron,75001paris""  
Analysis: Same as idx_1. The response ""paris"" corresponds to the city of the target address.  
Score: 1

---

**idx_3**  
- Response: ""paris""  
- Target: ""9placedesvosges,75004paris""  
Analysis: Same reasoning as above.  
Score: 1

---

**idx_4**  
- Response: ""paris""  
- Target: ""routedesuresnes–boisdeboulogne,75016paris""  
Analysis: Again, the response corresponds to the same city.  
Score: 1

---

**idx_5**  
- Response: ""paris""  
- Target: ""31av.georgev,75008paris""  
Analysis: Same as above.  
Score: 1

---

**idx_6**  
- Response: ""paris""  
- Target: ""42av.gabriel,75008paris""  
Analysis: Same as above.  
Score: 1

---

**idx_7**  
- Response: ""paris""  
- Target: ""6ruebalzac,75008paris""  
Analysis: Same as above.  
Score: 1

---

**idx_8**  
- Response: ""chevalblancparis""  
- Target: ""8quaidulouvre,75001paris(chevalblancparishotel)""  
Analysis: The response ""chevalblancparis"" clearly points to the same entity as in the target (Cheval Blanc Paris Hotel). The target address includes ""chevalblancparishotel"" and the response gives the name. According to the criterion, this is acceptable.  
Score: 1

---

**idx_9**  
- Response: ""paris""  
- Target: ""112ruedufaubourgsaint-honoré,75008paris""  
Analysis: Same reasoning as idx_1 to idx_7.  
Score: 1

---

### Final scores:
```json
{
    ""idx_0"": 0,
    ""idx_1"": 1,
    ""idx_2"": 1,
    ""idx_3"": 1,
    ""idx_4"": 1,
    ""idx_5"": 1,
    ""idx_6"": 1,
    ""idx_7"": 1,
    ""idx_8"": 1,
    ""idx_9"": 1
}
```","5ruecoqhéron,75001paris",paris,1.0,"Let's analyze each pair according to the grading criteria:

Criterion:  
- Semantics approximately the same or point to the same entity.  
- No need for exact word matching.  
- Content relevance suffices.

All responses are ""frenchcuisine"" and targets are more detailed variants or sub-styles of French cuisine.

Analysis per idx:

- idx_0: target ""refined french classic with modern techniques""  
  Response: ""frenchcuisine""  
  Reasoning: Response is a broad term encompassing the target; target is a kind of French cuisine. Matches semantically, sufficient as per criterion. Score: 1

- idx_1: ""vegetable-forward, garden-inspired french""  
  Response: ""frenchcuisine""  
  Same logic as above, vegetable-forward French cuisine is a subtype of French cuisine. Response is relevant. Score: 1

- idx_2: ""franco-japanese fusion""  
  Response: ""frenchcuisine""  
  Fusion cuisine involving French is generally considered under French culinary influence but is broadened. The response only states ""frenchcuisine,"" not fusion. However, as per criteria about approximate semantics or same entity, ""frenchcuisine"" generally covers the fusion or the entity referenced. Score: 1

- idx_3: ""timeless french haute cuisine""  
  Response: ""frenchcuisine""  
  Specific kind of French cuisine. General term suffices. Score: 1

- idx_4: ""creative, contemporary"" (no direct mention of French)  
  Response: ""frenchcuisine""  
  Target does not specify ""french,"" but clues suggest it could be contemporary French (uncertain). Target is incomplete or vague but is presumably a style within French cuisine (given pattern). The response covers French cuisine generally. Given the criterion focus on approximate semantics and relevance, it's acceptable. Score: 1

- idx_5: ""contemporary french""  
  Response: ""frenchcuisine""  
  As above, broad response suffices. Score: 1

- idx_6: ""french with global inspirations""  
  Response: ""frenchcuisine""  
  Correct, the global inspirations are part of French cuisine variations. Score: 1

- idx_7: ""avant-garde french""  
  Response: ""frenchcuisine""  
  Substyle of French cuisine. Score: 1

- idx_8: ""artistic french with sauce-centric dishes""  
  Response: ""frenchcuisine""  
  Specific aspect of French cuisine but contained under the umbrella term. Score: 1

- idx_9: ""haute french (traditional with innovative twists)""  
  Response: ""frenchcuisine""  
  Clearly included in French cuisine umbrella. Score: 1

Conclusion: all responses are sufficiently relevant to target answers per the criterion.

Final scores: all 1

```json
{
  ""idx_0"": 1,
  ""idx_1"": 1,
  ""idx_2"": 1,
  ""idx_3"": 1,
  ""idx_4"": 1,
  ""idx_5"": 1,
  ""idx_6"": 1,
  ""idx_7"": 1,
  ""idx_8"": 1,
  ""idx_9"": 1
}
```",franco-japanesefusion,frenchcuisine,1.0,key_match
,,l'ambroisie,L'Ambroisie,1.0,"Let's analyze each response against its target according to the grading criterion:

Criterion: It is sufficient if the semantics are approximately the same as the reference answer or if they point to the same entity. No need for exact word-for-word match.

---

**idx_0**  
- Response: ""pavillonledoyen""  
- Target: ""8av.dutuit,75008paris""  
Analysis: The response gives a name (""pavillonledoyen"") while the target is an address. The semantics do not match; the response does not refer to the location or address in the target. The response and target do not indicate the same entity.  
Score: 0

---

**idx_1**  
- Response: ""paris""  
- Target: ""84ruedevarenne,75007paris""  
Analysis: Target is an address located in Paris. The response ""paris"" correctly identifies the city of the target. Since the criterion accepts approximate matching or pointing to the same entity, ""paris"" corresponds well enough.  
Score: 1

---

**idx_2**  
- Response: ""paris""  
- Target: ""5ruecoqhéron,75001paris""  
Analysis: Same as idx_1. The response ""paris"" corresponds to the city of the target address.  
Score: 1

---

**idx_3**  
- Response: ""paris""  
- Target: ""9placedesvosges,75004paris""  
Analysis: Same reasoning as above.  
Score: 1

---

**idx_4**  
- Response: ""paris""  
- Target: ""routedesuresnes–boisdeboulogne,75016paris""  
Analysis: Again, the response corresponds to the same city.  
Score: 1

---

**idx_5**  
- Response: ""paris""  
- Target: ""31av.georgev,75008paris""  
Analysis: Same as above.  
Score: 1

---

**idx_6**  
- Response: ""paris""  
- Target: ""42av.gabriel,75008paris""  
Analysis: Same as above.  
Score: 1

---

**idx_7**  
- Response: ""paris""  
- Target: ""6ruebalzac,75008paris""  
Analysis: Same as above.  
Score: 1

---

**idx_8**  
- Response: ""chevalblancparis""  
- Target: ""8quaidulouvre,75001paris(chevalblancparishotel)""  
Analysis: The response ""chevalblancparis"" clearly points to the same entity as in the target (Cheval Blanc Paris Hotel). The target address includes ""chevalblancparishotel"" and the response gives the name. According to the criterion, this is acceptable.  
Score: 1

---

**idx_9**  
- Response: ""paris""  
- Target: ""112ruedufaubourgsaint-honoré,75008paris""  
Analysis: Same reasoning as idx_1 to idx_7.  
Score: 1

---

### Final scores:
```json
{
    ""idx_0"": 0,
    ""idx_1"": 1,
    ""idx_2"": 1,
    ""idx_3"": 1,
    ""idx_4"": 1,
    ""idx_5"": 1,
    ""idx_6"": 1,
    ""idx_7"": 1,
    ""idx_8"": 1,
    ""idx_9"": 1
}
```","9placedesvosges,75004paris",paris,1.0,"Let's analyze each pair according to the grading criteria:

Criterion:  
- Semantics approximately the same or point to the same entity.  
- No need for exact word matching.  
- Content relevance suffices.

All responses are ""frenchcuisine"" and targets are more detailed variants or sub-styles of French cuisine.

Analysis per idx:

- idx_0: target ""refined french classic with modern techniques""  
  Response: ""frenchcuisine""  
  Reasoning: Response is a broad term encompassing the target; target is a kind of French cuisine. Matches semantically, sufficient as per criterion. Score: 1

- idx_1: ""vegetable-forward, garden-inspired french""  
  Response: ""frenchcuisine""  
  Same logic as above, vegetable-forward French cuisine is a subtype of French cuisine. Response is relevant. Score: 1

- idx_2: ""franco-japanese fusion""  
  Response: ""frenchcuisine""  
  Fusion cuisine involving French is generally considered under French culinary influence but is broadened. The response only states ""frenchcuisine,"" not fusion. However, as per criteria about approximate semantics or same entity, ""frenchcuisine"" generally covers the fusion or the entity referenced. Score: 1

- idx_3: ""timeless french haute cuisine""  
  Response: ""frenchcuisine""  
  Specific kind of French cuisine. General term suffices. Score: 1

- idx_4: ""creative, contemporary"" (no direct mention of French)  
  Response: ""frenchcuisine""  
  Target does not specify ""french,"" but clues suggest it could be contemporary French (uncertain). Target is incomplete or vague but is presumably a style within French cuisine (given pattern). The response covers French cuisine generally. Given the criterion focus on approximate semantics and relevance, it's acceptable. Score: 1

- idx_5: ""contemporary french""  
  Response: ""frenchcuisine""  
  As above, broad response suffices. Score: 1

- idx_6: ""french with global inspirations""  
  Response: ""frenchcuisine""  
  Correct, the global inspirations are part of French cuisine variations. Score: 1

- idx_7: ""avant-garde french""  
  Response: ""frenchcuisine""  
  Substyle of French cuisine. Score: 1

- idx_8: ""artistic french with sauce-centric dishes""  
  Response: ""frenchcuisine""  
  Specific aspect of French cuisine but contained under the umbrella term. Score: 1

- idx_9: ""haute french (traditional with innovative twists)""  
  Response: ""frenchcuisine""  
  Clearly included in French cuisine umbrella. Score: 1

Conclusion: all responses are sufficiently relevant to target answers per the criterion.

Final scores: all 1

```json
{
  ""idx_0"": 1,
  ""idx_1"": 1,
  ""idx_2"": 1,
  ""idx_3"": 1,
  ""idx_4"": 1,
  ""idx_5"": 1,
  ""idx_6"": 1,
  ""idx_7"": 1,
  ""idx_8"": 1,
  ""idx_9"": 1
}
```",timelessfrenchhautecuisine,frenchcuisine,1.0,key_match
,,leprécatelan,Le Pré Catelan,1.0,"Let's analyze each response against its target according to the grading criterion:

Criterion: It is sufficient if the semantics are approximately the same as the reference answer or if they point to the same entity. No need for exact word-for-word match.

---

**idx_0**  
- Response: ""pavillonledoyen""  
- Target: ""8av.dutuit,75008paris""  
Analysis: The response gives a name (""pavillonledoyen"") while the target is an address. The semantics do not match; the response does not refer to the location or address in the target. The response and target do not indicate the same entity.  
Score: 0

---

**idx_1**  
- Response: ""paris""  
- Target: ""84ruedevarenne,75007paris""  
Analysis: Target is an address located in Paris. The response ""paris"" correctly identifies the city of the target. Since the criterion accepts approximate matching or pointing to the same entity, ""paris"" corresponds well enough.  
Score: 1

---

**idx_2**  
- Response: ""paris""  
- Target: ""5ruecoqhéron,75001paris""  
Analysis: Same as idx_1. The response ""paris"" corresponds to the city of the target address.  
Score: 1

---

**idx_3**  
- Response: ""paris""  
- Target: ""9placedesvosges,75004paris""  
Analysis: Same reasoning as above.  
Score: 1

---

**idx_4**  
- Response: ""paris""  
- Target: ""routedesuresnes–boisdeboulogne,75016paris""  
Analysis: Again, the response corresponds to the same city.  
Score: 1

---

**idx_5**  
- Response: ""paris""  
- Target: ""31av.georgev,75008paris""  
Analysis: Same as above.  
Score: 1

---

**idx_6**  
- Response: ""paris""  
- Target: ""42av.gabriel,75008paris""  
Analysis: Same as above.  
Score: 1

---

**idx_7**  
- Response: ""paris""  
- Target: ""6ruebalzac,75008paris""  
Analysis: Same as above.  
Score: 1

---

**idx_8**  
- Response: ""chevalblancparis""  
- Target: ""8quaidulouvre,75001paris(chevalblancparishotel)""  
Analysis: The response ""chevalblancparis"" clearly points to the same entity as in the target (Cheval Blanc Paris Hotel). The target address includes ""chevalblancparishotel"" and the response gives the name. According to the criterion, this is acceptable.  
Score: 1

---

**idx_9**  
- Response: ""paris""  
- Target: ""112ruedufaubourgsaint-honoré,75008paris""  
Analysis: Same reasoning as idx_1 to idx_7.  
Score: 1

---

### Final scores:
```json
{
    ""idx_0"": 0,
    ""idx_1"": 1,
    ""idx_2"": 1,
    ""idx_3"": 1,
    ""idx_4"": 1,
    ""idx_5"": 1,
    ""idx_6"": 1,
    ""idx_7"": 1,
    ""idx_8"": 1,
    ""idx_9"": 1
}
```","routedesuresnes–boisdeboulogne,75016paris",paris,1.0,"Let's analyze each pair according to the grading criteria:

Criterion:  
- Semantics approximately the same or point to the same entity.  
- No need for exact word matching.  
- Content relevance suffices.

All responses are ""frenchcuisine"" and targets are more detailed variants or sub-styles of French cuisine.

Analysis per idx:

- idx_0: target ""refined french classic with modern techniques""  
  Response: ""frenchcuisine""  
  Reasoning: Response is a broad term encompassing the target; target is a kind of French cuisine. Matches semantically, sufficient as per criterion. Score: 1

- idx_1: ""vegetable-forward, garden-inspired french""  
  Response: ""frenchcuisine""  
  Same logic as above, vegetable-forward French cuisine is a subtype of French cuisine. Response is relevant. Score: 1

- idx_2: ""franco-japanese fusion""  
  Response: ""frenchcuisine""  
  Fusion cuisine involving French is generally considered under French culinary influence but is broadened. The response only states ""frenchcuisine,"" not fusion. However, as per criteria about approximate semantics or same entity, ""frenchcuisine"" generally covers the fusion or the entity referenced. Score: 1

- idx_3: ""timeless french haute cuisine""  
  Response: ""frenchcuisine""  
  Specific kind of French cuisine. General term suffices. Score: 1

- idx_4: ""creative, contemporary"" (no direct mention of French)  
  Response: ""frenchcuisine""  
  Target does not specify ""french,"" but clues suggest it could be contemporary French (uncertain). Target is incomplete or vague but is presumably a style within French cuisine (given pattern). The response covers French cuisine generally. Given the criterion focus on approximate semantics and relevance, it's acceptable. Score: 1

- idx_5: ""contemporary french""  
  Response: ""frenchcuisine""  
  As above, broad response suffices. Score: 1

- idx_6: ""french with global inspirations""  
  Response: ""frenchcuisine""  
  Correct, the global inspirations are part of French cuisine variations. Score: 1

- idx_7: ""avant-garde french""  
  Response: ""frenchcuisine""  
  Substyle of French cuisine. Score: 1

- idx_8: ""artistic french with sauce-centric dishes""  
  Response: ""frenchcuisine""  
  Specific aspect of French cuisine but contained under the umbrella term. Score: 1

- idx_9: ""haute french (traditional with innovative twists)""  
  Response: ""frenchcuisine""  
  Clearly included in French cuisine umbrella. Score: 1

Conclusion: all responses are sufficiently relevant to target answers per the criterion.

Final scores: all 1

```json
{
  ""idx_0"": 1,
  ""idx_1"": 1,
  ""idx_2"": 1,
  ""idx_3"": 1,
  ""idx_4"": 1,
  ""idx_5"": 1,
  ""idx_6"": 1,
  ""idx_7"": 1,
  ""idx_8"": 1,
  ""idx_9"": 1
}
```","creative,contemporary",frenchcuisine,1.0,key_match
,,lecinq,Le Cinq,1.0,"Let's analyze each response against its target according to the grading criterion:

Criterion: It is sufficient if the semantics are approximately the same as the reference answer or if they point to the same entity. No need for exact word-for-word match.

---

**idx_0**  
- Response: ""pavillonledoyen""  
- Target: ""8av.dutuit,75008paris""  
Analysis: The response gives a name (""pavillonledoyen"") while the target is an address. The semantics do not match; the response does not refer to the location or address in the target. The response and target do not indicate the same entity.  
Score: 0

---

**idx_1**  
- Response: ""paris""  
- Target: ""84ruedevarenne,75007paris""  
Analysis: Target is an address located in Paris. The response ""paris"" correctly identifies the city of the target. Since the criterion accepts approximate matching or pointing to the same entity, ""paris"" corresponds well enough.  
Score: 1

---

**idx_2**  
- Response: ""paris""  
- Target: ""5ruecoqhéron,75001paris""  
Analysis: Same as idx_1. The response ""paris"" corresponds to the city of the target address.  
Score: 1

---

**idx_3**  
- Response: ""paris""  
- Target: ""9placedesvosges,75004paris""  
Analysis: Same reasoning as above.  
Score: 1

---

**idx_4**  
- Response: ""paris""  
- Target: ""routedesuresnes–boisdeboulogne,75016paris""  
Analysis: Again, the response corresponds to the same city.  
Score: 1

---

**idx_5**  
- Response: ""paris""  
- Target: ""31av.georgev,75008paris""  
Analysis: Same as above.  
Score: 1

---

**idx_6**  
- Response: ""paris""  
- Target: ""42av.gabriel,75008paris""  
Analysis: Same as above.  
Score: 1

---

**idx_7**  
- Response: ""paris""  
- Target: ""6ruebalzac,75008paris""  
Analysis: Same as above.  
Score: 1

---

**idx_8**  
- Response: ""chevalblancparis""  
- Target: ""8quaidulouvre,75001paris(chevalblancparishotel)""  
Analysis: The response ""chevalblancparis"" clearly points to the same entity as in the target (Cheval Blanc Paris Hotel). The target address includes ""chevalblancparishotel"" and the response gives the name. According to the criterion, this is acceptable.  
Score: 1

---

**idx_9**  
- Response: ""paris""  
- Target: ""112ruedufaubourgsaint-honoré,75008paris""  
Analysis: Same reasoning as idx_1 to idx_7.  
Score: 1

---

### Final scores:
```json
{
    ""idx_0"": 0,
    ""idx_1"": 1,
    ""idx_2"": 1,
    ""idx_3"": 1,
    ""idx_4"": 1,
    ""idx_5"": 1,
    ""idx_6"": 1,
    ""idx_7"": 1,
    ""idx_8"": 1,
    ""idx_9"": 1
}
```","31av.georgev,75008paris",paris,1.0,"Let's analyze each pair according to the grading criteria:

Criterion:  
- Semantics approximately the same or point to the same entity.  
- No need for exact word matching.  
- Content relevance suffices.

All responses are ""frenchcuisine"" and targets are more detailed variants or sub-styles of French cuisine.

Analysis per idx:

- idx_0: target ""refined french classic with modern techniques""  
  Response: ""frenchcuisine""  
  Reasoning: Response is a broad term encompassing the target; target is a kind of French cuisine. Matches semantically, sufficient as per criterion. Score: 1

- idx_1: ""vegetable-forward, garden-inspired french""  
  Response: ""frenchcuisine""  
  Same logic as above, vegetable-forward French cuisine is a subtype of French cuisine. Response is relevant. Score: 1

- idx_2: ""franco-japanese fusion""  
  Response: ""frenchcuisine""  
  Fusion cuisine involving French is generally considered under French culinary influence but is broadened. The response only states ""frenchcuisine,"" not fusion. However, as per criteria about approximate semantics or same entity, ""frenchcuisine"" generally covers the fusion or the entity referenced. Score: 1

- idx_3: ""timeless french haute cuisine""  
  Response: ""frenchcuisine""  
  Specific kind of French cuisine. General term suffices. Score: 1

- idx_4: ""creative, contemporary"" (no direct mention of French)  
  Response: ""frenchcuisine""  
  Target does not specify ""french,"" but clues suggest it could be contemporary French (uncertain). Target is incomplete or vague but is presumably a style within French cuisine (given pattern). The response covers French cuisine generally. Given the criterion focus on approximate semantics and relevance, it's acceptable. Score: 1

- idx_5: ""contemporary french""  
  Response: ""frenchcuisine""  
  As above, broad response suffices. Score: 1

- idx_6: ""french with global inspirations""  
  Response: ""frenchcuisine""  
  Correct, the global inspirations are part of French cuisine variations. Score: 1

- idx_7: ""avant-garde french""  
  Response: ""frenchcuisine""  
  Substyle of French cuisine. Score: 1

- idx_8: ""artistic french with sauce-centric dishes""  
  Response: ""frenchcuisine""  
  Specific aspect of French cuisine but contained under the umbrella term. Score: 1

- idx_9: ""haute french (traditional with innovative twists)""  
  Response: ""frenchcuisine""  
  Clearly included in French cuisine umbrella. Score: 1

Conclusion: all responses are sufficiently relevant to target answers per the criterion.

Final scores: all 1

```json
{
  ""idx_0"": 1,
  ""idx_1"": 1,
  ""idx_2"": 1,
  ""idx_3"": 1,
  ""idx_4"": 1,
  ""idx_5"": 1,
  ""idx_6"": 1,
  ""idx_7"": 1,
  ""idx_8"": 1,
  ""idx_9"": 1
}
```",contemporaryfrench,frenchcuisine,1.0,key_match
,,legabriel-lareserveparis,Le Gabriel - La Réserve,1.0,"Let's analyze each response against its target according to the grading criterion:

Criterion: It is sufficient if the semantics are approximately the same as the reference answer or if they point to the same entity. No need for exact word-for-word match.

---

**idx_0**  
- Response: ""pavillonledoyen""  
- Target: ""8av.dutuit,75008paris""  
Analysis: The response gives a name (""pavillonledoyen"") while the target is an address. The semantics do not match; the response does not refer to the location or address in the target. The response and target do not indicate the same entity.  
Score: 0

---

**idx_1**  
- Response: ""paris""  
- Target: ""84ruedevarenne,75007paris""  
Analysis: Target is an address located in Paris. The response ""paris"" correctly identifies the city of the target. Since the criterion accepts approximate matching or pointing to the same entity, ""paris"" corresponds well enough.  
Score: 1

---

**idx_2**  
- Response: ""paris""  
- Target: ""5ruecoqhéron,75001paris""  
Analysis: Same as idx_1. The response ""paris"" corresponds to the city of the target address.  
Score: 1

---

**idx_3**  
- Response: ""paris""  
- Target: ""9placedesvosges,75004paris""  
Analysis: Same reasoning as above.  
Score: 1

---

**idx_4**  
- Response: ""paris""  
- Target: ""routedesuresnes–boisdeboulogne,75016paris""  
Analysis: Again, the response corresponds to the same city.  
Score: 1

---

**idx_5**  
- Response: ""paris""  
- Target: ""31av.georgev,75008paris""  
Analysis: Same as above.  
Score: 1

---

**idx_6**  
- Response: ""paris""  
- Target: ""42av.gabriel,75008paris""  
Analysis: Same as above.  
Score: 1

---

**idx_7**  
- Response: ""paris""  
- Target: ""6ruebalzac,75008paris""  
Analysis: Same as above.  
Score: 1

---

**idx_8**  
- Response: ""chevalblancparis""  
- Target: ""8quaidulouvre,75001paris(chevalblancparishotel)""  
Analysis: The response ""chevalblancparis"" clearly points to the same entity as in the target (Cheval Blanc Paris Hotel). The target address includes ""chevalblancparishotel"" and the response gives the name. According to the criterion, this is acceptable.  
Score: 1

---

**idx_9**  
- Response: ""paris""  
- Target: ""112ruedufaubourgsaint-honoré,75008paris""  
Analysis: Same reasoning as idx_1 to idx_7.  
Score: 1

---

### Final scores:
```json
{
    ""idx_0"": 0,
    ""idx_1"": 1,
    ""idx_2"": 1,
    ""idx_3"": 1,
    ""idx_4"": 1,
    ""idx_5"": 1,
    ""idx_6"": 1,
    ""idx_7"": 1,
    ""idx_8"": 1,
    ""idx_9"": 1
}
```","42av.gabriel,75008paris",paris,1.0,"Let's analyze each pair according to the grading criteria:

Criterion:  
- Semantics approximately the same or point to the same entity.  
- No need for exact word matching.  
- Content relevance suffices.

All responses are ""frenchcuisine"" and targets are more detailed variants or sub-styles of French cuisine.

Analysis per idx:

- idx_0: target ""refined french classic with modern techniques""  
  Response: ""frenchcuisine""  
  Reasoning: Response is a broad term encompassing the target; target is a kind of French cuisine. Matches semantically, sufficient as per criterion. Score: 1

- idx_1: ""vegetable-forward, garden-inspired french""  
  Response: ""frenchcuisine""  
  Same logic as above, vegetable-forward French cuisine is a subtype of French cuisine. Response is relevant. Score: 1

- idx_2: ""franco-japanese fusion""  
  Response: ""frenchcuisine""  
  Fusion cuisine involving French is generally considered under French culinary influence but is broadened. The response only states ""frenchcuisine,"" not fusion. However, as per criteria about approximate semantics or same entity, ""frenchcuisine"" generally covers the fusion or the entity referenced. Score: 1

- idx_3: ""timeless french haute cuisine""  
  Response: ""frenchcuisine""  
  Specific kind of French cuisine. General term suffices. Score: 1

- idx_4: ""creative, contemporary"" (no direct mention of French)  
  Response: ""frenchcuisine""  
  Target does not specify ""french,"" but clues suggest it could be contemporary French (uncertain). Target is incomplete or vague but is presumably a style within French cuisine (given pattern). The response covers French cuisine generally. Given the criterion focus on approximate semantics and relevance, it's acceptable. Score: 1

- idx_5: ""contemporary french""  
  Response: ""frenchcuisine""  
  As above, broad response suffices. Score: 1

- idx_6: ""french with global inspirations""  
  Response: ""frenchcuisine""  
  Correct, the global inspirations are part of French cuisine variations. Score: 1

- idx_7: ""avant-garde french""  
  Response: ""frenchcuisine""  
  Substyle of French cuisine. Score: 1

- idx_8: ""artistic french with sauce-centric dishes""  
  Response: ""frenchcuisine""  
  Specific aspect of French cuisine but contained under the umbrella term. Score: 1

- idx_9: ""haute french (traditional with innovative twists)""  
  Response: ""frenchcuisine""  
  Clearly included in French cuisine umbrella. Score: 1

Conclusion: all responses are sufficiently relevant to target answers per the criterion.

Final scores: all 1

```json
{
  ""idx_0"": 1,
  ""idx_1"": 1,
  ""idx_2"": 1,
  ""idx_3"": 1,
  ""idx_4"": 1,
  ""idx_5"": 1,
  ""idx_6"": 1,
  ""idx_7"": 1,
  ""idx_8"": 1,
  ""idx_9"": 1
}
```",frenchwithglobalinspirations,frenchcuisine,1.0,key_match
,,pierregagnaire,Pierre Gagnaire,1.0,"Let's analyze each response against its target according to the grading criterion:

Criterion: It is sufficient if the semantics are approximately the same as the reference answer or if they point to the same entity. No need for exact word-for-word match.

---

**idx_0**  
- Response: ""pavillonledoyen""  
- Target: ""8av.dutuit,75008paris""  
Analysis: The response gives a name (""pavillonledoyen"") while the target is an address. The semantics do not match; the response does not refer to the location or address in the target. The response and target do not indicate the same entity.  
Score: 0

---

**idx_1**  
- Response: ""paris""  
- Target: ""84ruedevarenne,75007paris""  
Analysis: Target is an address located in Paris. The response ""paris"" correctly identifies the city of the target. Since the criterion accepts approximate matching or pointing to the same entity, ""paris"" corresponds well enough.  
Score: 1

---

**idx_2**  
- Response: ""paris""  
- Target: ""5ruecoqhéron,75001paris""  
Analysis: Same as idx_1. The response ""paris"" corresponds to the city of the target address.  
Score: 1

---

**idx_3**  
- Response: ""paris""  
- Target: ""9placedesvosges,75004paris""  
Analysis: Same reasoning as above.  
Score: 1

---

**idx_4**  
- Response: ""paris""  
- Target: ""routedesuresnes–boisdeboulogne,75016paris""  
Analysis: Again, the response corresponds to the same city.  
Score: 1

---

**idx_5**  
- Response: ""paris""  
- Target: ""31av.georgev,75008paris""  
Analysis: Same as above.  
Score: 1

---

**idx_6**  
- Response: ""paris""  
- Target: ""42av.gabriel,75008paris""  
Analysis: Same as above.  
Score: 1

---

**idx_7**  
- Response: ""paris""  
- Target: ""6ruebalzac,75008paris""  
Analysis: Same as above.  
Score: 1

---

**idx_8**  
- Response: ""chevalblancparis""  
- Target: ""8quaidulouvre,75001paris(chevalblancparishotel)""  
Analysis: The response ""chevalblancparis"" clearly points to the same entity as in the target (Cheval Blanc Paris Hotel). The target address includes ""chevalblancparishotel"" and the response gives the name. According to the criterion, this is acceptable.  
Score: 1

---

**idx_9**  
- Response: ""paris""  
- Target: ""112ruedufaubourgsaint-honoré,75008paris""  
Analysis: Same reasoning as idx_1 to idx_7.  
Score: 1

---

### Final scores:
```json
{
    ""idx_0"": 0,
    ""idx_1"": 1,
    ""idx_2"": 1,
    ""idx_3"": 1,
    ""idx_4"": 1,
    ""idx_5"": 1,
    ""idx_6"": 1,
    ""idx_7"": 1,
    ""idx_8"": 1,
    ""idx_9"": 1
}
```","6ruebalzac,75008paris",paris,1.0,"Let's analyze each pair according to the grading criteria:

Criterion:  
- Semantics approximately the same or point to the same entity.  
- No need for exact word matching.  
- Content relevance suffices.

All responses are ""frenchcuisine"" and targets are more detailed variants or sub-styles of French cuisine.

Analysis per idx:

- idx_0: target ""refined french classic with modern techniques""  
  Response: ""frenchcuisine""  
  Reasoning: Response is a broad term encompassing the target; target is a kind of French cuisine. Matches semantically, sufficient as per criterion. Score: 1

- idx_1: ""vegetable-forward, garden-inspired french""  
  Response: ""frenchcuisine""  
  Same logic as above, vegetable-forward French cuisine is a subtype of French cuisine. Response is relevant. Score: 1

- idx_2: ""franco-japanese fusion""  
  Response: ""frenchcuisine""  
  Fusion cuisine involving French is generally considered under French culinary influence but is broadened. The response only states ""frenchcuisine,"" not fusion. However, as per criteria about approximate semantics or same entity, ""frenchcuisine"" generally covers the fusion or the entity referenced. Score: 1

- idx_3: ""timeless french haute cuisine""  
  Response: ""frenchcuisine""  
  Specific kind of French cuisine. General term suffices. Score: 1

- idx_4: ""creative, contemporary"" (no direct mention of French)  
  Response: ""frenchcuisine""  
  Target does not specify ""french,"" but clues suggest it could be contemporary French (uncertain). Target is incomplete or vague but is presumably a style within French cuisine (given pattern). The response covers French cuisine generally. Given the criterion focus on approximate semantics and relevance, it's acceptable. Score: 1

- idx_5: ""contemporary french""  
  Response: ""frenchcuisine""  
  As above, broad response suffices. Score: 1

- idx_6: ""french with global inspirations""  
  Response: ""frenchcuisine""  
  Correct, the global inspirations are part of French cuisine variations. Score: 1

- idx_7: ""avant-garde french""  
  Response: ""frenchcuisine""  
  Substyle of French cuisine. Score: 1

- idx_8: ""artistic french with sauce-centric dishes""  
  Response: ""frenchcuisine""  
  Specific aspect of French cuisine but contained under the umbrella term. Score: 1

- idx_9: ""haute french (traditional with innovative twists)""  
  Response: ""frenchcuisine""  
  Clearly included in French cuisine umbrella. Score: 1

Conclusion: all responses are sufficiently relevant to target answers per the criterion.

Final scores: all 1

```json
{
  ""idx_0"": 1,
  ""idx_1"": 1,
  ""idx_2"": 1,
  ""idx_3"": 1,
  ""idx_4"": 1,
  ""idx_5"": 1,
  ""idx_6"": 1,
  ""idx_7"": 1,
  ""idx_8"": 1,
  ""idx_9"": 1
}
```",avant-gardefrench,frenchcuisine,1.0,key_match
,,plénitude,Plénitude,1.0,"Let's analyze each response against its target according to the grading criterion:

Criterion: It is sufficient if the semantics are approximately the same as the reference answer or if they point to the same entity. No need for exact word-for-word match.

---

**idx_0**  
- Response: ""pavillonledoyen""  
- Target: ""8av.dutuit,75008paris""  
Analysis: The response gives a name (""pavillonledoyen"") while the target is an address. The semantics do not match; the response does not refer to the location or address in the target. The response and target do not indicate the same entity.  
Score: 0

---

**idx_1**  
- Response: ""paris""  
- Target: ""84ruedevarenne,75007paris""  
Analysis: Target is an address located in Paris. The response ""paris"" correctly identifies the city of the target. Since the criterion accepts approximate matching or pointing to the same entity, ""paris"" corresponds well enough.  
Score: 1

---

**idx_2**  
- Response: ""paris""  
- Target: ""5ruecoqhéron,75001paris""  
Analysis: Same as idx_1. The response ""paris"" corresponds to the city of the target address.  
Score: 1

---

**idx_3**  
- Response: ""paris""  
- Target: ""9placedesvosges,75004paris""  
Analysis: Same reasoning as above.  
Score: 1

---

**idx_4**  
- Response: ""paris""  
- Target: ""routedesuresnes–boisdeboulogne,75016paris""  
Analysis: Again, the response corresponds to the same city.  
Score: 1

---

**idx_5**  
- Response: ""paris""  
- Target: ""31av.georgev,75008paris""  
Analysis: Same as above.  
Score: 1

---

**idx_6**  
- Response: ""paris""  
- Target: ""42av.gabriel,75008paris""  
Analysis: Same as above.  
Score: 1

---

**idx_7**  
- Response: ""paris""  
- Target: ""6ruebalzac,75008paris""  
Analysis: Same as above.  
Score: 1

---

**idx_8**  
- Response: ""chevalblancparis""  
- Target: ""8quaidulouvre,75001paris(chevalblancparishotel)""  
Analysis: The response ""chevalblancparis"" clearly points to the same entity as in the target (Cheval Blanc Paris Hotel). The target address includes ""chevalblancparishotel"" and the response gives the name. According to the criterion, this is acceptable.  
Score: 1

---

**idx_9**  
- Response: ""paris""  
- Target: ""112ruedufaubourgsaint-honoré,75008paris""  
Analysis: Same reasoning as idx_1 to idx_7.  
Score: 1

---

### Final scores:
```json
{
    ""idx_0"": 0,
    ""idx_1"": 1,
    ""idx_2"": 1,
    ""idx_3"": 1,
    ""idx_4"": 1,
    ""idx_5"": 1,
    ""idx_6"": 1,
    ""idx_7"": 1,
    ""idx_8"": 1,
    ""idx_9"": 1
}
```","8quaidulouvre,75001paris(chevalblancparishotel)",chevalblancparis,1.0,"Let's analyze each pair according to the grading criteria:

Criterion:  
- Semantics approximately the same or point to the same entity.  
- No need for exact word matching.  
- Content relevance suffices.

All responses are ""frenchcuisine"" and targets are more detailed variants or sub-styles of French cuisine.

Analysis per idx:

- idx_0: target ""refined french classic with modern techniques""  
  Response: ""frenchcuisine""  
  Reasoning: Response is a broad term encompassing the target; target is a kind of French cuisine. Matches semantically, sufficient as per criterion. Score: 1

- idx_1: ""vegetable-forward, garden-inspired french""  
  Response: ""frenchcuisine""  
  Same logic as above, vegetable-forward French cuisine is a subtype of French cuisine. Response is relevant. Score: 1

- idx_2: ""franco-japanese fusion""  
  Response: ""frenchcuisine""  
  Fusion cuisine involving French is generally considered under French culinary influence but is broadened. The response only states ""frenchcuisine,"" not fusion. However, as per criteria about approximate semantics or same entity, ""frenchcuisine"" generally covers the fusion or the entity referenced. Score: 1

- idx_3: ""timeless french haute cuisine""  
  Response: ""frenchcuisine""  
  Specific kind of French cuisine. General term suffices. Score: 1

- idx_4: ""creative, contemporary"" (no direct mention of French)  
  Response: ""frenchcuisine""  
  Target does not specify ""french,"" but clues suggest it could be contemporary French (uncertain). Target is incomplete or vague but is presumably a style within French cuisine (given pattern). The response covers French cuisine generally. Given the criterion focus on approximate semantics and relevance, it's acceptable. Score: 1

- idx_5: ""contemporary french""  
  Response: ""frenchcuisine""  
  As above, broad response suffices. Score: 1

- idx_6: ""french with global inspirations""  
  Response: ""frenchcuisine""  
  Correct, the global inspirations are part of French cuisine variations. Score: 1

- idx_7: ""avant-garde french""  
  Response: ""frenchcuisine""  
  Substyle of French cuisine. Score: 1

- idx_8: ""artistic french with sauce-centric dishes""  
  Response: ""frenchcuisine""  
  Specific aspect of French cuisine but contained under the umbrella term. Score: 1

- idx_9: ""haute french (traditional with innovative twists)""  
  Response: ""frenchcuisine""  
  Clearly included in French cuisine umbrella. Score: 1

Conclusion: all responses are sufficiently relevant to target answers per the criterion.

Final scores: all 1

```json
{
  ""idx_0"": 1,
  ""idx_1"": 1,
  ""idx_2"": 1,
  ""idx_3"": 1,
  ""idx_4"": 1,
  ""idx_5"": 1,
  ""idx_6"": 1,
  ""idx_7"": 1,
  ""idx_8"": 1,
  ""idx_9"": 1
}
```",artisticfrenchwithsauce-centricdishes,frenchcuisine,1.0,key_match
,,épicure,Épicure,1.0,"Let's analyze each response against its target according to the grading criterion:

Criterion: It is sufficient if the semantics are approximately the same as the reference answer or if they point to the same entity. No need for exact word-for-word match.

---

**idx_0**  
- Response: ""pavillonledoyen""  
- Target: ""8av.dutuit,75008paris""  
Analysis: The response gives a name (""pavillonledoyen"") while the target is an address. The semantics do not match; the response does not refer to the location or address in the target. The response and target do not indicate the same entity.  
Score: 0

---

**idx_1**  
- Response: ""paris""  
- Target: ""84ruedevarenne,75007paris""  
Analysis: Target is an address located in Paris. The response ""paris"" correctly identifies the city of the target. Since the criterion accepts approximate matching or pointing to the same entity, ""paris"" corresponds well enough.  
Score: 1

---

**idx_2**  
- Response: ""paris""  
- Target: ""5ruecoqhéron,75001paris""  
Analysis: Same as idx_1. The response ""paris"" corresponds to the city of the target address.  
Score: 1

---

**idx_3**  
- Response: ""paris""  
- Target: ""9placedesvosges,75004paris""  
Analysis: Same reasoning as above.  
Score: 1

---

**idx_4**  
- Response: ""paris""  
- Target: ""routedesuresnes–boisdeboulogne,75016paris""  
Analysis: Again, the response corresponds to the same city.  
Score: 1

---

**idx_5**  
- Response: ""paris""  
- Target: ""31av.georgev,75008paris""  
Analysis: Same as above.  
Score: 1

---

**idx_6**  
- Response: ""paris""  
- Target: ""42av.gabriel,75008paris""  
Analysis: Same as above.  
Score: 1

---

**idx_7**  
- Response: ""paris""  
- Target: ""6ruebalzac,75008paris""  
Analysis: Same as above.  
Score: 1

---

**idx_8**  
- Response: ""chevalblancparis""  
- Target: ""8quaidulouvre,75001paris(chevalblancparishotel)""  
Analysis: The response ""chevalblancparis"" clearly points to the same entity as in the target (Cheval Blanc Paris Hotel). The target address includes ""chevalblancparishotel"" and the response gives the name. According to the criterion, this is acceptable.  
Score: 1

---

**idx_9**  
- Response: ""paris""  
- Target: ""112ruedufaubourgsaint-honoré,75008paris""  
Analysis: Same reasoning as idx_1 to idx_7.  
Score: 1

---

### Final scores:
```json
{
    ""idx_0"": 0,
    ""idx_1"": 1,
    ""idx_2"": 1,
    ""idx_3"": 1,
    ""idx_4"": 1,
    ""idx_5"": 1,
    ""idx_6"": 1,
    ""idx_7"": 1,
    ""idx_8"": 1,
    ""idx_9"": 1
}
```","112ruedufaubourgsaint-honoré,75008paris",paris,1.0,"Let's analyze each pair according to the grading criteria:

Criterion:  
- Semantics approximately the same or point to the same entity.  
- No need for exact word matching.  
- Content relevance suffices.

All responses are ""frenchcuisine"" and targets are more detailed variants or sub-styles of French cuisine.

Analysis per idx:

- idx_0: target ""refined french classic with modern techniques""  
  Response: ""frenchcuisine""  
  Reasoning: Response is a broad term encompassing the target; target is a kind of French cuisine. Matches semantically, sufficient as per criterion. Score: 1

- idx_1: ""vegetable-forward, garden-inspired french""  
  Response: ""frenchcuisine""  
  Same logic as above, vegetable-forward French cuisine is a subtype of French cuisine. Response is relevant. Score: 1

- idx_2: ""franco-japanese fusion""  
  Response: ""frenchcuisine""  
  Fusion cuisine involving French is generally considered under French culinary influence but is broadened. The response only states ""frenchcuisine,"" not fusion. However, as per criteria about approximate semantics or same entity, ""frenchcuisine"" generally covers the fusion or the entity referenced. Score: 1

- idx_3: ""timeless french haute cuisine""  
  Response: ""frenchcuisine""  
  Specific kind of French cuisine. General term suffices. Score: 1

- idx_4: ""creative, contemporary"" (no direct mention of French)  
  Response: ""frenchcuisine""  
  Target does not specify ""french,"" but clues suggest it could be contemporary French (uncertain). Target is incomplete or vague but is presumably a style within French cuisine (given pattern). The response covers French cuisine generally. Given the criterion focus on approximate semantics and relevance, it's acceptable. Score: 1

- idx_5: ""contemporary french""  
  Response: ""frenchcuisine""  
  As above, broad response suffices. Score: 1

- idx_6: ""french with global inspirations""  
  Response: ""frenchcuisine""  
  Correct, the global inspirations are part of French cuisine variations. Score: 1

- idx_7: ""avant-garde french""  
  Response: ""frenchcuisine""  
  Substyle of French cuisine. Score: 1

- idx_8: ""artistic french with sauce-centric dishes""  
  Response: ""frenchcuisine""  
  Specific aspect of French cuisine but contained under the umbrella term. Score: 1

- idx_9: ""haute french (traditional with innovative twists)""  
  Response: ""frenchcuisine""  
  Clearly included in French cuisine umbrella. Score: 1

Conclusion: all responses are sufficiently relevant to target answers per the criterion.

Final scores: all 1

```json
{
  ""idx_0"": 1,
  ""idx_1"": 1,
  ""idx_2"": 1,
  ""idx_3"": 1,
  ""idx_4"": 1,
  ""idx_5"": 1,
  ""idx_6"": 1,
  ""idx_7"": 1,
  ""idx_8"": 1,
  ""idx_9"": 1
}
```",hautefrench(traditionalwithinnovativetwists),frenchcuisine,1.0,key_match
