exist_flag_gt,exist_flag_response,restaurant,restaurant_before_map,address_llm_judge,address_llm_judge_eval_msg,address_query,address_response,maincuisinestyle_llm_judge,maincuisinestyle_llm_judge_eval_msg,maincuisinestyle_query,maincuisinestyle_response,restaurant_exact_match,restaurant_exact_match_eval_msg
,,allénoparisaupavillonledoyen,Alléno Paris au Pavillon,0.0,"Let's analyze each pair step by step according to the criterion:

**Criterion:**  
It is sufficient if the semantics are approximately the same as the reference answer or if they point to the same entity. No need for exact word matching.

---

### idx_0  
- Response: ""2placevendôme,75001paris""  
- Target: ""8av.dutuit,75008paris""  

Analysis:  
- Different street names: Place Vendôme vs Av. Dutuit.  
- Different house numbers: 2 vs 8.  
- Different postal codes: 75001 vs 75008.  
- They are clearly different locations.  
=> Score: 0

---

### idx_1  
- Response: ""12ruedetournon,75001paris""  
- Target: ""84ruedevarenne,75007paris""  

Analysis:  
- Different streets: Rue de Tournon vs Rue de Varenne.  
- Different numbers: 12 vs 84.  
- Different postal codes: 75001 vs 75007.  
- Different locations.  
=> Score: 0

---

### idx_2  
- Response: ""17ruedetournon,75001paris""  
- Target: ""5ruecoqhéron,75001paris""  

Analysis:  
- Different street names: Rue de Tournon vs Rue Coq Héron.  
- Different numbers: 17 vs 5.  
- Postal code same: 75001 (good).  
- But different streets/addresses imply different locations.  
=> Score: 0

---

### idx_3  
- Response: ""17ruedevarenne,75007paris""  
- Target: ""9placedesvosges,75004paris""  

Analysis:  
- Different streets: Rue de Varenne vs Place des Vosges.  
- Different postal codes: 75007 vs 75004.  
- Different locations.  
=> Score: 0

---

### idx_4  
- Response: ""18avenuemontaigne,75008paris""  
- Target: ""31av.georgev,75008paris""  

Analysis:  
- Different streets: Avenue Montaigne vs Avenue George V.  
- Same postal code 75008.  
- Different addresses, different entities.  
- No semantic equivalence.  
=> Score: 0

---

### idx_5  
- Response: ""1placevendôme,75001paris""  
- Target: ""42av.gabriel,75008paris""  

Analysis:  
- Different streets: Place Vendôme vs Avenue Gabriel.  
- Different postal codes: 75001 vs 75008.  
- Different locations.  
=> Score: 0

---

### idx_6  
- Response: ""45avenuemontaigne,75008paris""  
- Target: ""8quaidulouvre,75001paris(chevalblancparishotel)""  

Analysis:  
- Different streets: Avenue Montaigne vs Quai du Louvre.  
- Different postal codes: 75008 vs 75001.  
- Different addresses/not semantically equal despite possible similar area.  
=> Score: 0

---

### idx_7  
- Response: ""12avenuemontaigne,75008paris""  
- Target: ""112ruedufaubourgsaint-honoré,75008paris""  

Analysis:  
- Different streets: Avenue Montaigne vs Rue du Faubourg Saint-Honoré.  
- Different numbers: 12 vs 112.  
- Same postal code (75008).  
- Different addresses, no semantic equivalence.  
=> Score: 0

---

### Final scoring JSON:

```json
{
    ""idx_0"": 0,
    ""idx_1"": 0,
    ""idx_2"": 0,
    ""idx_3"": 0,
    ""idx_4"": 0,
    ""idx_5"": 0,
    ""idx_6"": 0,
    ""idx_7"": 0
}
```","8av.dutuit,75008paris","2placevendôme,75001paris",1.0,"Let's first analyze each pair based on the criterion:  
- Semantics approximately same or pointing to the same entity is sufficient.  
- No need for word-for-word.  
- Content relevance is key.

---

### idx_0  
- response: ""french""  
- target: ""refined french classic with modern techniques""  
Analysis: The target is a specific kind of French cuisine described as refined, classic, modern techniques. The response simply says ""french,"" which is somewhat broader but still points to the same entity (French cuisine). Per criterion, approximate semantics suffice.  
Score: 1

### idx_1  
- response: ""contemporary french""  
- target: ""vegetable-forward, garden-inspired french""  
Analysis: Target emphasizes vegetable-forward, garden-inspired, which are attributes of a modern style of French cuisine. Response says contemporary French, which could encompass vegetable-forward approaches. Similar enough.  
Score: 1

### idx_2  
- response: ""japanese""  
- target: ""franco-japanese fusion""  
Analysis: Target implies fusion of French and Japanese. Response only says ""japanese,"" missing the French part and fusion aspect. Response does not fully capture target meaning. Response is only partially related. According to criterion, rough semantic equivalence or pointing to same entity is needed. Here the target points to fusion cuisine; response indicates only Japanese. They are not approximately the same.  
Score: 0

### idx_3  
- response: ""traditional french""  
- target: ""timeless french haute cuisine""  
Analysis: Both refer to French haute cuisine, ""traditional"" and ""timeless"" are semantically similar, and haute cuisine links them. Response is relevant and approximately same.  
Score: 1

### idx_4  
- response: ""modern french""  
- target: ""contemporary french""  
Analysis: ""modern"" and ""contemporary"" are practically synonyms here. Same entity.  
Score: 1

### idx_5   
- response: ""french""  
- target: ""french with global inspirations""  
Analysis: Response is broad ""french,"" target is French cuisine influenced globally. Response covers main entity, lack of detail about global inspirations but per criterion, approximate semantic match suffices. Related well enough.  
Score: 1

### idx_6  
- response: ""contemporary french""  
- target: ""artistic french with sauce-centric dishes""  
Analysis: Target is French cuisine specified as artistic and sauce-centric, a refined style. Response says ""contemporary French,"" which is a broader term but still overlaps with artistic style. Per criterion approximate semantic match is fine. This can count as correct.  
Score: 1

### idx_7  
- response: ""french""  
- target: ""haute french (traditional with innovative twists)""  
Analysis: Target is haute French cuisine which is traditional plus innovative. Response just says ""french,"" generalizing the entity. But since approximate semantic coverage suffices, ""french"" covers the main entity.  
Score: 1

---

## Final scores:

```json
{
  ""idx_0"": 1,
  ""idx_1"": 1,
  ""idx_2"": 0,
  ""idx_3"": 1,
  ""idx_4"": 1,
  ""idx_5"": 1,
  ""idx_6"": 1,
  ""idx_7"": 1
}
```",refinedfrenchclassicwithmorderntechniques,french,1.0,key_match
,,arpège,Arpège,0.0,"Let's analyze each pair step by step according to the criterion:

**Criterion:**  
It is sufficient if the semantics are approximately the same as the reference answer or if they point to the same entity. No need for exact word matching.

---

### idx_0  
- Response: ""2placevendôme,75001paris""  
- Target: ""8av.dutuit,75008paris""  

Analysis:  
- Different street names: Place Vendôme vs Av. Dutuit.  
- Different house numbers: 2 vs 8.  
- Different postal codes: 75001 vs 75008.  
- They are clearly different locations.  
=> Score: 0

---

### idx_1  
- Response: ""12ruedetournon,75001paris""  
- Target: ""84ruedevarenne,75007paris""  

Analysis:  
- Different streets: Rue de Tournon vs Rue de Varenne.  
- Different numbers: 12 vs 84.  
- Different postal codes: 75001 vs 75007.  
- Different locations.  
=> Score: 0

---

### idx_2  
- Response: ""17ruedetournon,75001paris""  
- Target: ""5ruecoqhéron,75001paris""  

Analysis:  
- Different street names: Rue de Tournon vs Rue Coq Héron.  
- Different numbers: 17 vs 5.  
- Postal code same: 75001 (good).  
- But different streets/addresses imply different locations.  
=> Score: 0

---

### idx_3  
- Response: ""17ruedevarenne,75007paris""  
- Target: ""9placedesvosges,75004paris""  

Analysis:  
- Different streets: Rue de Varenne vs Place des Vosges.  
- Different postal codes: 75007 vs 75004.  
- Different locations.  
=> Score: 0

---

### idx_4  
- Response: ""18avenuemontaigne,75008paris""  
- Target: ""31av.georgev,75008paris""  

Analysis:  
- Different streets: Avenue Montaigne vs Avenue George V.  
- Same postal code 75008.  
- Different addresses, different entities.  
- No semantic equivalence.  
=> Score: 0

---

### idx_5  
- Response: ""1placevendôme,75001paris""  
- Target: ""42av.gabriel,75008paris""  

Analysis:  
- Different streets: Place Vendôme vs Avenue Gabriel.  
- Different postal codes: 75001 vs 75008.  
- Different locations.  
=> Score: 0

---

### idx_6  
- Response: ""45avenuemontaigne,75008paris""  
- Target: ""8quaidulouvre,75001paris(chevalblancparishotel)""  

Analysis:  
- Different streets: Avenue Montaigne vs Quai du Louvre.  
- Different postal codes: 75008 vs 75001.  
- Different addresses/not semantically equal despite possible similar area.  
=> Score: 0

---

### idx_7  
- Response: ""12avenuemontaigne,75008paris""  
- Target: ""112ruedufaubourgsaint-honoré,75008paris""  

Analysis:  
- Different streets: Avenue Montaigne vs Rue du Faubourg Saint-Honoré.  
- Different numbers: 12 vs 112.  
- Same postal code (75008).  
- Different addresses, no semantic equivalence.  
=> Score: 0

---

### Final scoring JSON:

```json
{
    ""idx_0"": 0,
    ""idx_1"": 0,
    ""idx_2"": 0,
    ""idx_3"": 0,
    ""idx_4"": 0,
    ""idx_5"": 0,
    ""idx_6"": 0,
    ""idx_7"": 0
}
```","84ruedevarenne,75007paris","12ruedetournon,75001paris",1.0,"Let's first analyze each pair based on the criterion:  
- Semantics approximately same or pointing to the same entity is sufficient.  
- No need for word-for-word.  
- Content relevance is key.

---

### idx_0  
- response: ""french""  
- target: ""refined french classic with modern techniques""  
Analysis: The target is a specific kind of French cuisine described as refined, classic, modern techniques. The response simply says ""french,"" which is somewhat broader but still points to the same entity (French cuisine). Per criterion, approximate semantics suffice.  
Score: 1

### idx_1  
- response: ""contemporary french""  
- target: ""vegetable-forward, garden-inspired french""  
Analysis: Target emphasizes vegetable-forward, garden-inspired, which are attributes of a modern style of French cuisine. Response says contemporary French, which could encompass vegetable-forward approaches. Similar enough.  
Score: 1

### idx_2  
- response: ""japanese""  
- target: ""franco-japanese fusion""  
Analysis: Target implies fusion of French and Japanese. Response only says ""japanese,"" missing the French part and fusion aspect. Response does not fully capture target meaning. Response is only partially related. According to criterion, rough semantic equivalence or pointing to same entity is needed. Here the target points to fusion cuisine; response indicates only Japanese. They are not approximately the same.  
Score: 0

### idx_3  
- response: ""traditional french""  
- target: ""timeless french haute cuisine""  
Analysis: Both refer to French haute cuisine, ""traditional"" and ""timeless"" are semantically similar, and haute cuisine links them. Response is relevant and approximately same.  
Score: 1

### idx_4  
- response: ""modern french""  
- target: ""contemporary french""  
Analysis: ""modern"" and ""contemporary"" are practically synonyms here. Same entity.  
Score: 1

### idx_5   
- response: ""french""  
- target: ""french with global inspirations""  
Analysis: Response is broad ""french,"" target is French cuisine influenced globally. Response covers main entity, lack of detail about global inspirations but per criterion, approximate semantic match suffices. Related well enough.  
Score: 1

### idx_6  
- response: ""contemporary french""  
- target: ""artistic french with sauce-centric dishes""  
Analysis: Target is French cuisine specified as artistic and sauce-centric, a refined style. Response says ""contemporary French,"" which is a broader term but still overlaps with artistic style. Per criterion approximate semantic match is fine. This can count as correct.  
Score: 1

### idx_7  
- response: ""french""  
- target: ""haute french (traditional with innovative twists)""  
Analysis: Target is haute French cuisine which is traditional plus innovative. Response just says ""french,"" generalizing the entity. But since approximate semantic coverage suffices, ""french"" covers the main entity.  
Score: 1

---

## Final scores:

```json
{
  ""idx_0"": 1,
  ""idx_1"": 1,
  ""idx_2"": 0,
  ""idx_3"": 1,
  ""idx_4"": 1,
  ""idx_5"": 1,
  ""idx_6"": 1,
  ""idx_7"": 1
}
```",vegetable-forward，garden-inspiredfrench,contemporaryfrench,1.0,key_match
,,kei,Kei,0.0,"Let's analyze each pair step by step according to the criterion:

**Criterion:**  
It is sufficient if the semantics are approximately the same as the reference answer or if they point to the same entity. No need for exact word matching.

---

### idx_0  
- Response: ""2placevendôme,75001paris""  
- Target: ""8av.dutuit,75008paris""  

Analysis:  
- Different street names: Place Vendôme vs Av. Dutuit.  
- Different house numbers: 2 vs 8.  
- Different postal codes: 75001 vs 75008.  
- They are clearly different locations.  
=> Score: 0

---

### idx_1  
- Response: ""12ruedetournon,75001paris""  
- Target: ""84ruedevarenne,75007paris""  

Analysis:  
- Different streets: Rue de Tournon vs Rue de Varenne.  
- Different numbers: 12 vs 84.  
- Different postal codes: 75001 vs 75007.  
- Different locations.  
=> Score: 0

---

### idx_2  
- Response: ""17ruedetournon,75001paris""  
- Target: ""5ruecoqhéron,75001paris""  

Analysis:  
- Different street names: Rue de Tournon vs Rue Coq Héron.  
- Different numbers: 17 vs 5.  
- Postal code same: 75001 (good).  
- But different streets/addresses imply different locations.  
=> Score: 0

---

### idx_3  
- Response: ""17ruedevarenne,75007paris""  
- Target: ""9placedesvosges,75004paris""  

Analysis:  
- Different streets: Rue de Varenne vs Place des Vosges.  
- Different postal codes: 75007 vs 75004.  
- Different locations.  
=> Score: 0

---

### idx_4  
- Response: ""18avenuemontaigne,75008paris""  
- Target: ""31av.georgev,75008paris""  

Analysis:  
- Different streets: Avenue Montaigne vs Avenue George V.  
- Same postal code 75008.  
- Different addresses, different entities.  
- No semantic equivalence.  
=> Score: 0

---

### idx_5  
- Response: ""1placevendôme,75001paris""  
- Target: ""42av.gabriel,75008paris""  

Analysis:  
- Different streets: Place Vendôme vs Avenue Gabriel.  
- Different postal codes: 75001 vs 75008.  
- Different locations.  
=> Score: 0

---

### idx_6  
- Response: ""45avenuemontaigne,75008paris""  
- Target: ""8quaidulouvre,75001paris(chevalblancparishotel)""  

Analysis:  
- Different streets: Avenue Montaigne vs Quai du Louvre.  
- Different postal codes: 75008 vs 75001.  
- Different addresses/not semantically equal despite possible similar area.  
=> Score: 0

---

### idx_7  
- Response: ""12avenuemontaigne,75008paris""  
- Target: ""112ruedufaubourgsaint-honoré,75008paris""  

Analysis:  
- Different streets: Avenue Montaigne vs Rue du Faubourg Saint-Honoré.  
- Different numbers: 12 vs 112.  
- Same postal code (75008).  
- Different addresses, no semantic equivalence.  
=> Score: 0

---

### Final scoring JSON:

```json
{
    ""idx_0"": 0,
    ""idx_1"": 0,
    ""idx_2"": 0,
    ""idx_3"": 0,
    ""idx_4"": 0,
    ""idx_5"": 0,
    ""idx_6"": 0,
    ""idx_7"": 0
}
```","5ruecoqhéron,75001paris","17ruedetournon,75001paris",0.0,"Let's first analyze each pair based on the criterion:  
- Semantics approximately same or pointing to the same entity is sufficient.  
- No need for word-for-word.  
- Content relevance is key.

---

### idx_0  
- response: ""french""  
- target: ""refined french classic with modern techniques""  
Analysis: The target is a specific kind of French cuisine described as refined, classic, modern techniques. The response simply says ""french,"" which is somewhat broader but still points to the same entity (French cuisine). Per criterion, approximate semantics suffice.  
Score: 1

### idx_1  
- response: ""contemporary french""  
- target: ""vegetable-forward, garden-inspired french""  
Analysis: Target emphasizes vegetable-forward, garden-inspired, which are attributes of a modern style of French cuisine. Response says contemporary French, which could encompass vegetable-forward approaches. Similar enough.  
Score: 1

### idx_2  
- response: ""japanese""  
- target: ""franco-japanese fusion""  
Analysis: Target implies fusion of French and Japanese. Response only says ""japanese,"" missing the French part and fusion aspect. Response does not fully capture target meaning. Response is only partially related. According to criterion, rough semantic equivalence or pointing to same entity is needed. Here the target points to fusion cuisine; response indicates only Japanese. They are not approximately the same.  
Score: 0

### idx_3  
- response: ""traditional french""  
- target: ""timeless french haute cuisine""  
Analysis: Both refer to French haute cuisine, ""traditional"" and ""timeless"" are semantically similar, and haute cuisine links them. Response is relevant and approximately same.  
Score: 1

### idx_4  
- response: ""modern french""  
- target: ""contemporary french""  
Analysis: ""modern"" and ""contemporary"" are practically synonyms here. Same entity.  
Score: 1

### idx_5   
- response: ""french""  
- target: ""french with global inspirations""  
Analysis: Response is broad ""french,"" target is French cuisine influenced globally. Response covers main entity, lack of detail about global inspirations but per criterion, approximate semantic match suffices. Related well enough.  
Score: 1

### idx_6  
- response: ""contemporary french""  
- target: ""artistic french with sauce-centric dishes""  
Analysis: Target is French cuisine specified as artistic and sauce-centric, a refined style. Response says ""contemporary French,"" which is a broader term but still overlaps with artistic style. Per criterion approximate semantic match is fine. This can count as correct.  
Score: 1

### idx_7  
- response: ""french""  
- target: ""haute french (traditional with innovative twists)""  
Analysis: Target is haute French cuisine which is traditional plus innovative. Response just says ""french,"" generalizing the entity. But since approximate semantic coverage suffices, ""french"" covers the main entity.  
Score: 1

---

## Final scores:

```json
{
  ""idx_0"": 1,
  ""idx_1"": 1,
  ""idx_2"": 0,
  ""idx_3"": 1,
  ""idx_4"": 1,
  ""idx_5"": 1,
  ""idx_6"": 1,
  ""idx_7"": 1
}
```",franco-japanesefusion,japanese,1.0,key_match
,,l'ambroisie,L'Ambroisie,0.0,"Let's analyze each pair step by step according to the criterion:

**Criterion:**  
It is sufficient if the semantics are approximately the same as the reference answer or if they point to the same entity. No need for exact word matching.

---

### idx_0  
- Response: ""2placevendôme,75001paris""  
- Target: ""8av.dutuit,75008paris""  

Analysis:  
- Different street names: Place Vendôme vs Av. Dutuit.  
- Different house numbers: 2 vs 8.  
- Different postal codes: 75001 vs 75008.  
- They are clearly different locations.  
=> Score: 0

---

### idx_1  
- Response: ""12ruedetournon,75001paris""  
- Target: ""84ruedevarenne,75007paris""  

Analysis:  
- Different streets: Rue de Tournon vs Rue de Varenne.  
- Different numbers: 12 vs 84.  
- Different postal codes: 75001 vs 75007.  
- Different locations.  
=> Score: 0

---

### idx_2  
- Response: ""17ruedetournon,75001paris""  
- Target: ""5ruecoqhéron,75001paris""  

Analysis:  
- Different street names: Rue de Tournon vs Rue Coq Héron.  
- Different numbers: 17 vs 5.  
- Postal code same: 75001 (good).  
- But different streets/addresses imply different locations.  
=> Score: 0

---

### idx_3  
- Response: ""17ruedevarenne,75007paris""  
- Target: ""9placedesvosges,75004paris""  

Analysis:  
- Different streets: Rue de Varenne vs Place des Vosges.  
- Different postal codes: 75007 vs 75004.  
- Different locations.  
=> Score: 0

---

### idx_4  
- Response: ""18avenuemontaigne,75008paris""  
- Target: ""31av.georgev,75008paris""  

Analysis:  
- Different streets: Avenue Montaigne vs Avenue George V.  
- Same postal code 75008.  
- Different addresses, different entities.  
- No semantic equivalence.  
=> Score: 0

---

### idx_5  
- Response: ""1placevendôme,75001paris""  
- Target: ""42av.gabriel,75008paris""  

Analysis:  
- Different streets: Place Vendôme vs Avenue Gabriel.  
- Different postal codes: 75001 vs 75008.  
- Different locations.  
=> Score: 0

---

### idx_6  
- Response: ""45avenuemontaigne,75008paris""  
- Target: ""8quaidulouvre,75001paris(chevalblancparishotel)""  

Analysis:  
- Different streets: Avenue Montaigne vs Quai du Louvre.  
- Different postal codes: 75008 vs 75001.  
- Different addresses/not semantically equal despite possible similar area.  
=> Score: 0

---

### idx_7  
- Response: ""12avenuemontaigne,75008paris""  
- Target: ""112ruedufaubourgsaint-honoré,75008paris""  

Analysis:  
- Different streets: Avenue Montaigne vs Rue du Faubourg Saint-Honoré.  
- Different numbers: 12 vs 112.  
- Same postal code (75008).  
- Different addresses, no semantic equivalence.  
=> Score: 0

---

### Final scoring JSON:

```json
{
    ""idx_0"": 0,
    ""idx_1"": 0,
    ""idx_2"": 0,
    ""idx_3"": 0,
    ""idx_4"": 0,
    ""idx_5"": 0,
    ""idx_6"": 0,
    ""idx_7"": 0
}
```","9placedesvosges,75004paris","17ruedevarenne,75007paris",1.0,"Let's first analyze each pair based on the criterion:  
- Semantics approximately same or pointing to the same entity is sufficient.  
- No need for word-for-word.  
- Content relevance is key.

---

### idx_0  
- response: ""french""  
- target: ""refined french classic with modern techniques""  
Analysis: The target is a specific kind of French cuisine described as refined, classic, modern techniques. The response simply says ""french,"" which is somewhat broader but still points to the same entity (French cuisine). Per criterion, approximate semantics suffice.  
Score: 1

### idx_1  
- response: ""contemporary french""  
- target: ""vegetable-forward, garden-inspired french""  
Analysis: Target emphasizes vegetable-forward, garden-inspired, which are attributes of a modern style of French cuisine. Response says contemporary French, which could encompass vegetable-forward approaches. Similar enough.  
Score: 1

### idx_2  
- response: ""japanese""  
- target: ""franco-japanese fusion""  
Analysis: Target implies fusion of French and Japanese. Response only says ""japanese,"" missing the French part and fusion aspect. Response does not fully capture target meaning. Response is only partially related. According to criterion, rough semantic equivalence or pointing to same entity is needed. Here the target points to fusion cuisine; response indicates only Japanese. They are not approximately the same.  
Score: 0

### idx_3  
- response: ""traditional french""  
- target: ""timeless french haute cuisine""  
Analysis: Both refer to French haute cuisine, ""traditional"" and ""timeless"" are semantically similar, and haute cuisine links them. Response is relevant and approximately same.  
Score: 1

### idx_4  
- response: ""modern french""  
- target: ""contemporary french""  
Analysis: ""modern"" and ""contemporary"" are practically synonyms here. Same entity.  
Score: 1

### idx_5   
- response: ""french""  
- target: ""french with global inspirations""  
Analysis: Response is broad ""french,"" target is French cuisine influenced globally. Response covers main entity, lack of detail about global inspirations but per criterion, approximate semantic match suffices. Related well enough.  
Score: 1

### idx_6  
- response: ""contemporary french""  
- target: ""artistic french with sauce-centric dishes""  
Analysis: Target is French cuisine specified as artistic and sauce-centric, a refined style. Response says ""contemporary French,"" which is a broader term but still overlaps with artistic style. Per criterion approximate semantic match is fine. This can count as correct.  
Score: 1

### idx_7  
- response: ""french""  
- target: ""haute french (traditional with innovative twists)""  
Analysis: Target is haute French cuisine which is traditional plus innovative. Response just says ""french,"" generalizing the entity. But since approximate semantic coverage suffices, ""french"" covers the main entity.  
Score: 1

---

## Final scores:

```json
{
  ""idx_0"": 1,
  ""idx_1"": 1,
  ""idx_2"": 0,
  ""idx_3"": 1,
  ""idx_4"": 1,
  ""idx_5"": 1,
  ""idx_6"": 1,
  ""idx_7"": 1
}
```",timelessfrenchhautecuisine,traditionalfrench,1.0,key_match
,,lecinq,Le Cinq,0.0,"Let's analyze each pair step by step according to the criterion:

**Criterion:**  
It is sufficient if the semantics are approximately the same as the reference answer or if they point to the same entity. No need for exact word matching.

---

### idx_0  
- Response: ""2placevendôme,75001paris""  
- Target: ""8av.dutuit,75008paris""  

Analysis:  
- Different street names: Place Vendôme vs Av. Dutuit.  
- Different house numbers: 2 vs 8.  
- Different postal codes: 75001 vs 75008.  
- They are clearly different locations.  
=> Score: 0

---

### idx_1  
- Response: ""12ruedetournon,75001paris""  
- Target: ""84ruedevarenne,75007paris""  

Analysis:  
- Different streets: Rue de Tournon vs Rue de Varenne.  
- Different numbers: 12 vs 84.  
- Different postal codes: 75001 vs 75007.  
- Different locations.  
=> Score: 0

---

### idx_2  
- Response: ""17ruedetournon,75001paris""  
- Target: ""5ruecoqhéron,75001paris""  

Analysis:  
- Different street names: Rue de Tournon vs Rue Coq Héron.  
- Different numbers: 17 vs 5.  
- Postal code same: 75001 (good).  
- But different streets/addresses imply different locations.  
=> Score: 0

---

### idx_3  
- Response: ""17ruedevarenne,75007paris""  
- Target: ""9placedesvosges,75004paris""  

Analysis:  
- Different streets: Rue de Varenne vs Place des Vosges.  
- Different postal codes: 75007 vs 75004.  
- Different locations.  
=> Score: 0

---

### idx_4  
- Response: ""18avenuemontaigne,75008paris""  
- Target: ""31av.georgev,75008paris""  

Analysis:  
- Different streets: Avenue Montaigne vs Avenue George V.  
- Same postal code 75008.  
- Different addresses, different entities.  
- No semantic equivalence.  
=> Score: 0

---

### idx_5  
- Response: ""1placevendôme,75001paris""  
- Target: ""42av.gabriel,75008paris""  

Analysis:  
- Different streets: Place Vendôme vs Avenue Gabriel.  
- Different postal codes: 75001 vs 75008.  
- Different locations.  
=> Score: 0

---

### idx_6  
- Response: ""45avenuemontaigne,75008paris""  
- Target: ""8quaidulouvre,75001paris(chevalblancparishotel)""  

Analysis:  
- Different streets: Avenue Montaigne vs Quai du Louvre.  
- Different postal codes: 75008 vs 75001.  
- Different addresses/not semantically equal despite possible similar area.  
=> Score: 0

---

### idx_7  
- Response: ""12avenuemontaigne,75008paris""  
- Target: ""112ruedufaubourgsaint-honoré,75008paris""  

Analysis:  
- Different streets: Avenue Montaigne vs Rue du Faubourg Saint-Honoré.  
- Different numbers: 12 vs 112.  
- Same postal code (75008).  
- Different addresses, no semantic equivalence.  
=> Score: 0

---

### Final scoring JSON:

```json
{
    ""idx_0"": 0,
    ""idx_1"": 0,
    ""idx_2"": 0,
    ""idx_3"": 0,
    ""idx_4"": 0,
    ""idx_5"": 0,
    ""idx_6"": 0,
    ""idx_7"": 0
}
```","31av.georgev,75008paris","18avenuemontaigne,75008paris",1.0,"Let's first analyze each pair based on the criterion:  
- Semantics approximately same or pointing to the same entity is sufficient.  
- No need for word-for-word.  
- Content relevance is key.

---

### idx_0  
- response: ""french""  
- target: ""refined french classic with modern techniques""  
Analysis: The target is a specific kind of French cuisine described as refined, classic, modern techniques. The response simply says ""french,"" which is somewhat broader but still points to the same entity (French cuisine). Per criterion, approximate semantics suffice.  
Score: 1

### idx_1  
- response: ""contemporary french""  
- target: ""vegetable-forward, garden-inspired french""  
Analysis: Target emphasizes vegetable-forward, garden-inspired, which are attributes of a modern style of French cuisine. Response says contemporary French, which could encompass vegetable-forward approaches. Similar enough.  
Score: 1

### idx_2  
- response: ""japanese""  
- target: ""franco-japanese fusion""  
Analysis: Target implies fusion of French and Japanese. Response only says ""japanese,"" missing the French part and fusion aspect. Response does not fully capture target meaning. Response is only partially related. According to criterion, rough semantic equivalence or pointing to same entity is needed. Here the target points to fusion cuisine; response indicates only Japanese. They are not approximately the same.  
Score: 0

### idx_3  
- response: ""traditional french""  
- target: ""timeless french haute cuisine""  
Analysis: Both refer to French haute cuisine, ""traditional"" and ""timeless"" are semantically similar, and haute cuisine links them. Response is relevant and approximately same.  
Score: 1

### idx_4  
- response: ""modern french""  
- target: ""contemporary french""  
Analysis: ""modern"" and ""contemporary"" are practically synonyms here. Same entity.  
Score: 1

### idx_5   
- response: ""french""  
- target: ""french with global inspirations""  
Analysis: Response is broad ""french,"" target is French cuisine influenced globally. Response covers main entity, lack of detail about global inspirations but per criterion, approximate semantic match suffices. Related well enough.  
Score: 1

### idx_6  
- response: ""contemporary french""  
- target: ""artistic french with sauce-centric dishes""  
Analysis: Target is French cuisine specified as artistic and sauce-centric, a refined style. Response says ""contemporary French,"" which is a broader term but still overlaps with artistic style. Per criterion approximate semantic match is fine. This can count as correct.  
Score: 1

### idx_7  
- response: ""french""  
- target: ""haute french (traditional with innovative twists)""  
Analysis: Target is haute French cuisine which is traditional plus innovative. Response just says ""french,"" generalizing the entity. But since approximate semantic coverage suffices, ""french"" covers the main entity.  
Score: 1

---

## Final scores:

```json
{
  ""idx_0"": 1,
  ""idx_1"": 1,
  ""idx_2"": 0,
  ""idx_3"": 1,
  ""idx_4"": 1,
  ""idx_5"": 1,
  ""idx_6"": 1,
  ""idx_7"": 1
}
```",contemporaryfrench,modernfrench,1.0,key_match
,,legabriel-lareserveparis,Le Gabriel - La Réserve,0.0,"Let's analyze each pair step by step according to the criterion:

**Criterion:**  
It is sufficient if the semantics are approximately the same as the reference answer or if they point to the same entity. No need for exact word matching.

---

### idx_0  
- Response: ""2placevendôme,75001paris""  
- Target: ""8av.dutuit,75008paris""  

Analysis:  
- Different street names: Place Vendôme vs Av. Dutuit.  
- Different house numbers: 2 vs 8.  
- Different postal codes: 75001 vs 75008.  
- They are clearly different locations.  
=> Score: 0

---

### idx_1  
- Response: ""12ruedetournon,75001paris""  
- Target: ""84ruedevarenne,75007paris""  

Analysis:  
- Different streets: Rue de Tournon vs Rue de Varenne.  
- Different numbers: 12 vs 84.  
- Different postal codes: 75001 vs 75007.  
- Different locations.  
=> Score: 0

---

### idx_2  
- Response: ""17ruedetournon,75001paris""  
- Target: ""5ruecoqhéron,75001paris""  

Analysis:  
- Different street names: Rue de Tournon vs Rue Coq Héron.  
- Different numbers: 17 vs 5.  
- Postal code same: 75001 (good).  
- But different streets/addresses imply different locations.  
=> Score: 0

---

### idx_3  
- Response: ""17ruedevarenne,75007paris""  
- Target: ""9placedesvosges,75004paris""  

Analysis:  
- Different streets: Rue de Varenne vs Place des Vosges.  
- Different postal codes: 75007 vs 75004.  
- Different locations.  
=> Score: 0

---

### idx_4  
- Response: ""18avenuemontaigne,75008paris""  
- Target: ""31av.georgev,75008paris""  

Analysis:  
- Different streets: Avenue Montaigne vs Avenue George V.  
- Same postal code 75008.  
- Different addresses, different entities.  
- No semantic equivalence.  
=> Score: 0

---

### idx_5  
- Response: ""1placevendôme,75001paris""  
- Target: ""42av.gabriel,75008paris""  

Analysis:  
- Different streets: Place Vendôme vs Avenue Gabriel.  
- Different postal codes: 75001 vs 75008.  
- Different locations.  
=> Score: 0

---

### idx_6  
- Response: ""45avenuemontaigne,75008paris""  
- Target: ""8quaidulouvre,75001paris(chevalblancparishotel)""  

Analysis:  
- Different streets: Avenue Montaigne vs Quai du Louvre.  
- Different postal codes: 75008 vs 75001.  
- Different addresses/not semantically equal despite possible similar area.  
=> Score: 0

---

### idx_7  
- Response: ""12avenuemontaigne,75008paris""  
- Target: ""112ruedufaubourgsaint-honoré,75008paris""  

Analysis:  
- Different streets: Avenue Montaigne vs Rue du Faubourg Saint-Honoré.  
- Different numbers: 12 vs 112.  
- Same postal code (75008).  
- Different addresses, no semantic equivalence.  
=> Score: 0

---

### Final scoring JSON:

```json
{
    ""idx_0"": 0,
    ""idx_1"": 0,
    ""idx_2"": 0,
    ""idx_3"": 0,
    ""idx_4"": 0,
    ""idx_5"": 0,
    ""idx_6"": 0,
    ""idx_7"": 0
}
```","42av.gabriel,75008paris","1placevendôme,75001paris",1.0,"Let's first analyze each pair based on the criterion:  
- Semantics approximately same or pointing to the same entity is sufficient.  
- No need for word-for-word.  
- Content relevance is key.

---

### idx_0  
- response: ""french""  
- target: ""refined french classic with modern techniques""  
Analysis: The target is a specific kind of French cuisine described as refined, classic, modern techniques. The response simply says ""french,"" which is somewhat broader but still points to the same entity (French cuisine). Per criterion, approximate semantics suffice.  
Score: 1

### idx_1  
- response: ""contemporary french""  
- target: ""vegetable-forward, garden-inspired french""  
Analysis: Target emphasizes vegetable-forward, garden-inspired, which are attributes of a modern style of French cuisine. Response says contemporary French, which could encompass vegetable-forward approaches. Similar enough.  
Score: 1

### idx_2  
- response: ""japanese""  
- target: ""franco-japanese fusion""  
Analysis: Target implies fusion of French and Japanese. Response only says ""japanese,"" missing the French part and fusion aspect. Response does not fully capture target meaning. Response is only partially related. According to criterion, rough semantic equivalence or pointing to same entity is needed. Here the target points to fusion cuisine; response indicates only Japanese. They are not approximately the same.  
Score: 0

### idx_3  
- response: ""traditional french""  
- target: ""timeless french haute cuisine""  
Analysis: Both refer to French haute cuisine, ""traditional"" and ""timeless"" are semantically similar, and haute cuisine links them. Response is relevant and approximately same.  
Score: 1

### idx_4  
- response: ""modern french""  
- target: ""contemporary french""  
Analysis: ""modern"" and ""contemporary"" are practically synonyms here. Same entity.  
Score: 1

### idx_5   
- response: ""french""  
- target: ""french with global inspirations""  
Analysis: Response is broad ""french,"" target is French cuisine influenced globally. Response covers main entity, lack of detail about global inspirations but per criterion, approximate semantic match suffices. Related well enough.  
Score: 1

### idx_6  
- response: ""contemporary french""  
- target: ""artistic french with sauce-centric dishes""  
Analysis: Target is French cuisine specified as artistic and sauce-centric, a refined style. Response says ""contemporary French,"" which is a broader term but still overlaps with artistic style. Per criterion approximate semantic match is fine. This can count as correct.  
Score: 1

### idx_7  
- response: ""french""  
- target: ""haute french (traditional with innovative twists)""  
Analysis: Target is haute French cuisine which is traditional plus innovative. Response just says ""french,"" generalizing the entity. But since approximate semantic coverage suffices, ""french"" covers the main entity.  
Score: 1

---

## Final scores:

```json
{
  ""idx_0"": 1,
  ""idx_1"": 1,
  ""idx_2"": 0,
  ""idx_3"": 1,
  ""idx_4"": 1,
  ""idx_5"": 1,
  ""idx_6"": 1,
  ""idx_7"": 1
}
```",frenchwithglobalinspirations,french,1.0,key_match
,,plénitude,Plénitude - Cheval Blanc,0.0,"Let's analyze each pair step by step according to the criterion:

**Criterion:**  
It is sufficient if the semantics are approximately the same as the reference answer or if they point to the same entity. No need for exact word matching.

---

### idx_0  
- Response: ""2placevendôme,75001paris""  
- Target: ""8av.dutuit,75008paris""  

Analysis:  
- Different street names: Place Vendôme vs Av. Dutuit.  
- Different house numbers: 2 vs 8.  
- Different postal codes: 75001 vs 75008.  
- They are clearly different locations.  
=> Score: 0

---

### idx_1  
- Response: ""12ruedetournon,75001paris""  
- Target: ""84ruedevarenne,75007paris""  

Analysis:  
- Different streets: Rue de Tournon vs Rue de Varenne.  
- Different numbers: 12 vs 84.  
- Different postal codes: 75001 vs 75007.  
- Different locations.  
=> Score: 0

---

### idx_2  
- Response: ""17ruedetournon,75001paris""  
- Target: ""5ruecoqhéron,75001paris""  

Analysis:  
- Different street names: Rue de Tournon vs Rue Coq Héron.  
- Different numbers: 17 vs 5.  
- Postal code same: 75001 (good).  
- But different streets/addresses imply different locations.  
=> Score: 0

---

### idx_3  
- Response: ""17ruedevarenne,75007paris""  
- Target: ""9placedesvosges,75004paris""  

Analysis:  
- Different streets: Rue de Varenne vs Place des Vosges.  
- Different postal codes: 75007 vs 75004.  
- Different locations.  
=> Score: 0

---

### idx_4  
- Response: ""18avenuemontaigne,75008paris""  
- Target: ""31av.georgev,75008paris""  

Analysis:  
- Different streets: Avenue Montaigne vs Avenue George V.  
- Same postal code 75008.  
- Different addresses, different entities.  
- No semantic equivalence.  
=> Score: 0

---

### idx_5  
- Response: ""1placevendôme,75001paris""  
- Target: ""42av.gabriel,75008paris""  

Analysis:  
- Different streets: Place Vendôme vs Avenue Gabriel.  
- Different postal codes: 75001 vs 75008.  
- Different locations.  
=> Score: 0

---

### idx_6  
- Response: ""45avenuemontaigne,75008paris""  
- Target: ""8quaidulouvre,75001paris(chevalblancparishotel)""  

Analysis:  
- Different streets: Avenue Montaigne vs Quai du Louvre.  
- Different postal codes: 75008 vs 75001.  
- Different addresses/not semantically equal despite possible similar area.  
=> Score: 0

---

### idx_7  
- Response: ""12avenuemontaigne,75008paris""  
- Target: ""112ruedufaubourgsaint-honoré,75008paris""  

Analysis:  
- Different streets: Avenue Montaigne vs Rue du Faubourg Saint-Honoré.  
- Different numbers: 12 vs 112.  
- Same postal code (75008).  
- Different addresses, no semantic equivalence.  
=> Score: 0

---

### Final scoring JSON:

```json
{
    ""idx_0"": 0,
    ""idx_1"": 0,
    ""idx_2"": 0,
    ""idx_3"": 0,
    ""idx_4"": 0,
    ""idx_5"": 0,
    ""idx_6"": 0,
    ""idx_7"": 0
}
```","8quaidulouvre,75001paris(chevalblancparishotel)","45avenuemontaigne,75008paris",1.0,"Let's first analyze each pair based on the criterion:  
- Semantics approximately same or pointing to the same entity is sufficient.  
- No need for word-for-word.  
- Content relevance is key.

---

### idx_0  
- response: ""french""  
- target: ""refined french classic with modern techniques""  
Analysis: The target is a specific kind of French cuisine described as refined, classic, modern techniques. The response simply says ""french,"" which is somewhat broader but still points to the same entity (French cuisine). Per criterion, approximate semantics suffice.  
Score: 1

### idx_1  
- response: ""contemporary french""  
- target: ""vegetable-forward, garden-inspired french""  
Analysis: Target emphasizes vegetable-forward, garden-inspired, which are attributes of a modern style of French cuisine. Response says contemporary French, which could encompass vegetable-forward approaches. Similar enough.  
Score: 1

### idx_2  
- response: ""japanese""  
- target: ""franco-japanese fusion""  
Analysis: Target implies fusion of French and Japanese. Response only says ""japanese,"" missing the French part and fusion aspect. Response does not fully capture target meaning. Response is only partially related. According to criterion, rough semantic equivalence or pointing to same entity is needed. Here the target points to fusion cuisine; response indicates only Japanese. They are not approximately the same.  
Score: 0

### idx_3  
- response: ""traditional french""  
- target: ""timeless french haute cuisine""  
Analysis: Both refer to French haute cuisine, ""traditional"" and ""timeless"" are semantically similar, and haute cuisine links them. Response is relevant and approximately same.  
Score: 1

### idx_4  
- response: ""modern french""  
- target: ""contemporary french""  
Analysis: ""modern"" and ""contemporary"" are practically synonyms here. Same entity.  
Score: 1

### idx_5   
- response: ""french""  
- target: ""french with global inspirations""  
Analysis: Response is broad ""french,"" target is French cuisine influenced globally. Response covers main entity, lack of detail about global inspirations but per criterion, approximate semantic match suffices. Related well enough.  
Score: 1

### idx_6  
- response: ""contemporary french""  
- target: ""artistic french with sauce-centric dishes""  
Analysis: Target is French cuisine specified as artistic and sauce-centric, a refined style. Response says ""contemporary French,"" which is a broader term but still overlaps with artistic style. Per criterion approximate semantic match is fine. This can count as correct.  
Score: 1

### idx_7  
- response: ""french""  
- target: ""haute french (traditional with innovative twists)""  
Analysis: Target is haute French cuisine which is traditional plus innovative. Response just says ""french,"" generalizing the entity. But since approximate semantic coverage suffices, ""french"" covers the main entity.  
Score: 1

---

## Final scores:

```json
{
  ""idx_0"": 1,
  ""idx_1"": 1,
  ""idx_2"": 0,
  ""idx_3"": 1,
  ""idx_4"": 1,
  ""idx_5"": 1,
  ""idx_6"": 1,
  ""idx_7"": 1
}
```",artisticfrenchwithsauce-centricdishes,contemporaryfrench,1.0,key_match
,,épicure,Épicure,0.0,"Let's analyze each pair step by step according to the criterion:

**Criterion:**  
It is sufficient if the semantics are approximately the same as the reference answer or if they point to the same entity. No need for exact word matching.

---

### idx_0  
- Response: ""2placevendôme,75001paris""  
- Target: ""8av.dutuit,75008paris""  

Analysis:  
- Different street names: Place Vendôme vs Av. Dutuit.  
- Different house numbers: 2 vs 8.  
- Different postal codes: 75001 vs 75008.  
- They are clearly different locations.  
=> Score: 0

---

### idx_1  
- Response: ""12ruedetournon,75001paris""  
- Target: ""84ruedevarenne,75007paris""  

Analysis:  
- Different streets: Rue de Tournon vs Rue de Varenne.  
- Different numbers: 12 vs 84.  
- Different postal codes: 75001 vs 75007.  
- Different locations.  
=> Score: 0

---

### idx_2  
- Response: ""17ruedetournon,75001paris""  
- Target: ""5ruecoqhéron,75001paris""  

Analysis:  
- Different street names: Rue de Tournon vs Rue Coq Héron.  
- Different numbers: 17 vs 5.  
- Postal code same: 75001 (good).  
- But different streets/addresses imply different locations.  
=> Score: 0

---

### idx_3  
- Response: ""17ruedevarenne,75007paris""  
- Target: ""9placedesvosges,75004paris""  

Analysis:  
- Different streets: Rue de Varenne vs Place des Vosges.  
- Different postal codes: 75007 vs 75004.  
- Different locations.  
=> Score: 0

---

### idx_4  
- Response: ""18avenuemontaigne,75008paris""  
- Target: ""31av.georgev,75008paris""  

Analysis:  
- Different streets: Avenue Montaigne vs Avenue George V.  
- Same postal code 75008.  
- Different addresses, different entities.  
- No semantic equivalence.  
=> Score: 0

---

### idx_5  
- Response: ""1placevendôme,75001paris""  
- Target: ""42av.gabriel,75008paris""  

Analysis:  
- Different streets: Place Vendôme vs Avenue Gabriel.  
- Different postal codes: 75001 vs 75008.  
- Different locations.  
=> Score: 0

---

### idx_6  
- Response: ""45avenuemontaigne,75008paris""  
- Target: ""8quaidulouvre,75001paris(chevalblancparishotel)""  

Analysis:  
- Different streets: Avenue Montaigne vs Quai du Louvre.  
- Different postal codes: 75008 vs 75001.  
- Different addresses/not semantically equal despite possible similar area.  
=> Score: 0

---

### idx_7  
- Response: ""12avenuemontaigne,75008paris""  
- Target: ""112ruedufaubourgsaint-honoré,75008paris""  

Analysis:  
- Different streets: Avenue Montaigne vs Rue du Faubourg Saint-Honoré.  
- Different numbers: 12 vs 112.  
- Same postal code (75008).  
- Different addresses, no semantic equivalence.  
=> Score: 0

---

### Final scoring JSON:

```json
{
    ""idx_0"": 0,
    ""idx_1"": 0,
    ""idx_2"": 0,
    ""idx_3"": 0,
    ""idx_4"": 0,
    ""idx_5"": 0,
    ""idx_6"": 0,
    ""idx_7"": 0
}
```","112ruedufaubourgsaint-honoré,75008paris","12avenuemontaigne,75008paris",1.0,"Let's first analyze each pair based on the criterion:  
- Semantics approximately same or pointing to the same entity is sufficient.  
- No need for word-for-word.  
- Content relevance is key.

---

### idx_0  
- response: ""french""  
- target: ""refined french classic with modern techniques""  
Analysis: The target is a specific kind of French cuisine described as refined, classic, modern techniques. The response simply says ""french,"" which is somewhat broader but still points to the same entity (French cuisine). Per criterion, approximate semantics suffice.  
Score: 1

### idx_1  
- response: ""contemporary french""  
- target: ""vegetable-forward, garden-inspired french""  
Analysis: Target emphasizes vegetable-forward, garden-inspired, which are attributes of a modern style of French cuisine. Response says contemporary French, which could encompass vegetable-forward approaches. Similar enough.  
Score: 1

### idx_2  
- response: ""japanese""  
- target: ""franco-japanese fusion""  
Analysis: Target implies fusion of French and Japanese. Response only says ""japanese,"" missing the French part and fusion aspect. Response does not fully capture target meaning. Response is only partially related. According to criterion, rough semantic equivalence or pointing to same entity is needed. Here the target points to fusion cuisine; response indicates only Japanese. They are not approximately the same.  
Score: 0

### idx_3  
- response: ""traditional french""  
- target: ""timeless french haute cuisine""  
Analysis: Both refer to French haute cuisine, ""traditional"" and ""timeless"" are semantically similar, and haute cuisine links them. Response is relevant and approximately same.  
Score: 1

### idx_4  
- response: ""modern french""  
- target: ""contemporary french""  
Analysis: ""modern"" and ""contemporary"" are practically synonyms here. Same entity.  
Score: 1

### idx_5   
- response: ""french""  
- target: ""french with global inspirations""  
Analysis: Response is broad ""french,"" target is French cuisine influenced globally. Response covers main entity, lack of detail about global inspirations but per criterion, approximate semantic match suffices. Related well enough.  
Score: 1

### idx_6  
- response: ""contemporary french""  
- target: ""artistic french with sauce-centric dishes""  
Analysis: Target is French cuisine specified as artistic and sauce-centric, a refined style. Response says ""contemporary French,"" which is a broader term but still overlaps with artistic style. Per criterion approximate semantic match is fine. This can count as correct.  
Score: 1

### idx_7  
- response: ""french""  
- target: ""haute french (traditional with innovative twists)""  
Analysis: Target is haute French cuisine which is traditional plus innovative. Response just says ""french,"" generalizing the entity. But since approximate semantic coverage suffices, ""french"" covers the main entity.  
Score: 1

---

## Final scores:

```json
{
  ""idx_0"": 1,
  ""idx_1"": 1,
  ""idx_2"": 0,
  ""idx_3"": 1,
  ""idx_4"": 1,
  ""idx_5"": 1,
  ""idx_6"": 1,
  ""idx_7"": 1
}
```",hautefrench(traditionalwithinnovativetwists),french,1.0,key_match
,1.0,ambos,Ambos,,,,"14avenuemontaigne,75008paris",,,,french,,
,1.0,aux2k,Aux 2K,,,,"11ruedelabûcherie,75003paris",,,,french,,
,1.0,colvert,Colvert,,,,"42ruedufaubourg-saint-honoré,75008paris",,,,french,,
,1.0,desterres,Des Terres,,,,"12avenuemontaigne,75008paris",,,,french,,
,1.0,l'escudella,L'Escudella,,,,"14avenuemontaigne,75008paris",,,,catalan,,
1.0,,leprécatelan,,,,"routedesuresnes–boisdeboulogne,75016paris",,,,"creative,contemporary",,,
,1.0,lesparisiens,Les Parisiens,,,,"40ruesaint-honoré,75001paris",,,,french,,
1.0,,pierregagnaire,,,,"6ruebalzac,75008paris",,,,avant-gardefrench,,,
,1.0,rosemarie,Rosemarie,,,,"14ruedesfrancs-bourgeois,75003paris",,,,italian,,
,1.0,source,Source,,,,"14avenuemontaigne,75008paris",,,,french,,
,1.0,àtable,À Table,,,,"14avenuemontaigne,75008paris",,,,french,,
