exist_flag_gt,exist_flag_response,nameoftheheritagesite,nameoftheheritagesite_before_map,area_number_near,area_number_near_eval_msg,area_query,area_response,country_llm_judge,country_llm_judge_eval_msg,country_query,country_response,location_llm_judge,location_llm_judge_eval_msg,location_query,location_response,nameoftheheritagesite_exact_match,nameoftheheritagesite_exact_match_eval_msg,typeofheritage_llm_judge,typeofheritage_llm_judge_eval_msg,typeofheritage_query,typeofheritage_response,yearofrecognition_exact_match,yearofrecognition_exact_match_eval_msg,yearofrecognition_query,yearofrecognition_response
,,woodbuffalonationalpark,Wood Buffalo National Park,0.0,"number not near, response: 44807000.0, target: 4480000.0",4480000,44807000,1.0,"Let's analyze each pair according to the given criterion:

- Criterion: It is sufficient if the semantics are approximately the same as the reference answer or if they point to the same entity. No need for exact word matches.

---

### idx_0
- Response: ""canada""
- Target: ""canada""
- Analysis: Exact match, pointing to the same entity.
- Score: 1

### idx_1
- Response: ""canada""
- Target: ""canada""
- Analysis: Same as idx_0, exact match.
- Score: 1

### idx_2
- Response: ""mexico""
- Target: ""mexico""
- Analysis: Exact match.
- Score: 1

### idx_3
- Response: ""unitedstates""
- Target: ""canada,unitedstatesofamerica""
- Analysis: The target includes ""canada"" and ""unitedstatesofamerica"" (United States of America). The response ""unitedstates"" refers to United States, which is semantically the same as ""unitedstatesofamerica"".
- Score: 1

### idx_4
- Response: ""unitedstates""
- Target: ""unitedstatesofamerica""
- Analysis: The response ""unitedstates"" and target ""unitedstatesofamerica"" refer to the same entity.
- Score: 1

---

```json
{
    ""idx_0"": 1,
    ""idx_1"": 1,
    ""idx_2"": 1,
    ""idx_3"": 1,
    ""idx_4"": 1
}
```",canada,canada,1.0,"Let's analyze each idx item according to the given criterion:

**idx_0**  
- Target: ""albertaandnorthwestterritories,canada""  
- Response: ""alberta/northwestterritories""  
Analysis: Response includes both Alberta and Northwest Territories, which correspond semantically to the target. Although ""Canada"" is missing, but based on the criterion, it is sufficient that the main city/county (or here the main region names) are mentioned. The response points to the same entities. Score = 1.

**idx_1**  
- Target: ""albertaandbritishcolumbia""  
- Response: ""britishcolumbia/alberta/yukon""  
Analysis: The response includes British Columbia and Alberta, which are exactly the two locations in the target. The extra ""yukon"" is superfluous but the criterion does not penalize extras if all target locations are correctly named. So this corresponds adequately. Score = 1.

**idx_2**  
- Target: ""mexicocity""  
- Response: ""mexicocity,mexico""  
Analysis: Response has Mexico City, adding ""mexico"" after the comma, which may be the country, but the criterion accepts semantic equivalence. It includes the main city, so correct. Score = 1.

**idx_3**  
- Target: ""yukonterritory(canada)andalaska(usa)andprovinceofbritishcolumbia(canada)""  
- Response: ""alaska""  
Analysis: Target includes three regions; response mentions only Alaska. Only part coverage is not enough. Therefore, the response does not completely correspond to the target locations, fails the criterion that if multiple addresses are included, they all need to be corresponded. Score = 0.

**idx_4**  
- Target: ""countiesofcocke,blount,andsevierinthestateoftennessee;andthecountiesofswainandhaywoodinthestateofnorthcarolina""  
- Response: ""tennessee/northcarolina""  
Analysis: Response provides the main states Tennessee and North Carolina instead of detailed counties. Criterion: ""For a specific location, it is correct as long as the main city/county of the location is provided, only province is not enough."" Here states correspond roughly to provinces and are bigger than counties, so just states is less specific than counties. Since counties are specified in the target, reply with just states is not fully correct. The response is less specific than the target, so score = 0.

---

### Final scores

```json
{
  ""idx_0"": 1,
  ""idx_1"": 1,
  ""idx_2"": 1,
  ""idx_3"": 0,
  ""idx_4"": 0
}
```","albertaandnorthwestterritories,canada",alberta/northwestterritories,1.0,key_match,1.0,"Let's analyze each pair item by item according to the given criterion:

- Criterion summary:  
  The response is fully correct (score 1) if the semantics are approximately the same as the reference answer or they point to the same entity. There is no need for word-for-word correspondence.

---

**idx_0:**  
- Response: ""natural""  
- Target: ""natural""  
- Analysis: Exactly the same word, thus semantics match perfectly.  
- Score: 1

**idx_1:**  
- Response: ""natural""  
- Target: ""natural""  
- Analysis: Exactly the same word, semantics match perfectly.  
- Score: 1

**idx_2:**  
- Response: ""cultural""  
- Target: ""natural""  
- Analysis: ""cultural"" and ""natural"" indicate different categories/entities. They do not mean the same thing and thus do not fulfill the criterion of approximate semantics or pointing to the same entity.  
- Score: 0

**idx_3:**  
- Response: ""natural""  
- Target: ""natural""  
- Analysis: Exactly the same word, perfect match.  
- Score: 1

**idx_4:**  
- Response: ""natural""  
- Target: ""natural""  
- Analysis: Exactly the same word, perfect match.  
- Score: 1

---

Final scoring in JSON format:

```json
{
    ""idx_0"": 1,
    ""idx_1"": 1,
    ""idx_2"": 0,
    ""idx_3"": 1,
    ""idx_4"": 1
}
```",natural,natural,1.0,"exact match, response: 1983, target: 1983",1983,1983
,,canadianrockymountainparks,Canadian Rocky Mountain Parks,0.0,"number not near, response: 4332800.0, target: 2360000.0",2360000,4332800,1.0,"Let's analyze each pair according to the given criterion:

- Criterion: It is sufficient if the semantics are approximately the same as the reference answer or if they point to the same entity. No need for exact word matches.

---

### idx_0
- Response: ""canada""
- Target: ""canada""
- Analysis: Exact match, pointing to the same entity.
- Score: 1

### idx_1
- Response: ""canada""
- Target: ""canada""
- Analysis: Same as idx_0, exact match.
- Score: 1

### idx_2
- Response: ""mexico""
- Target: ""mexico""
- Analysis: Exact match.
- Score: 1

### idx_3
- Response: ""unitedstates""
- Target: ""canada,unitedstatesofamerica""
- Analysis: The target includes ""canada"" and ""unitedstatesofamerica"" (United States of America). The response ""unitedstates"" refers to United States, which is semantically the same as ""unitedstatesofamerica"".
- Score: 1

### idx_4
- Response: ""unitedstates""
- Target: ""unitedstatesofamerica""
- Analysis: The response ""unitedstates"" and target ""unitedstatesofamerica"" refer to the same entity.
- Score: 1

---

```json
{
    ""idx_0"": 1,
    ""idx_1"": 1,
    ""idx_2"": 1,
    ""idx_3"": 1,
    ""idx_4"": 1
}
```",canada,canada,1.0,"Let's analyze each idx item according to the given criterion:

**idx_0**  
- Target: ""albertaandnorthwestterritories,canada""  
- Response: ""alberta/northwestterritories""  
Analysis: Response includes both Alberta and Northwest Territories, which correspond semantically to the target. Although ""Canada"" is missing, but based on the criterion, it is sufficient that the main city/county (or here the main region names) are mentioned. The response points to the same entities. Score = 1.

**idx_1**  
- Target: ""albertaandbritishcolumbia""  
- Response: ""britishcolumbia/alberta/yukon""  
Analysis: The response includes British Columbia and Alberta, which are exactly the two locations in the target. The extra ""yukon"" is superfluous but the criterion does not penalize extras if all target locations are correctly named. So this corresponds adequately. Score = 1.

**idx_2**  
- Target: ""mexicocity""  
- Response: ""mexicocity,mexico""  
Analysis: Response has Mexico City, adding ""mexico"" after the comma, which may be the country, but the criterion accepts semantic equivalence. It includes the main city, so correct. Score = 1.

**idx_3**  
- Target: ""yukonterritory(canada)andalaska(usa)andprovinceofbritishcolumbia(canada)""  
- Response: ""alaska""  
Analysis: Target includes three regions; response mentions only Alaska. Only part coverage is not enough. Therefore, the response does not completely correspond to the target locations, fails the criterion that if multiple addresses are included, they all need to be corresponded. Score = 0.

**idx_4**  
- Target: ""countiesofcocke,blount,andsevierinthestateoftennessee;andthecountiesofswainandhaywoodinthestateofnorthcarolina""  
- Response: ""tennessee/northcarolina""  
Analysis: Response provides the main states Tennessee and North Carolina instead of detailed counties. Criterion: ""For a specific location, it is correct as long as the main city/county of the location is provided, only province is not enough."" Here states correspond roughly to provinces and are bigger than counties, so just states is less specific than counties. Since counties are specified in the target, reply with just states is not fully correct. The response is less specific than the target, so score = 0.

---

### Final scores

```json
{
  ""idx_0"": 1,
  ""idx_1"": 1,
  ""idx_2"": 1,
  ""idx_3"": 0,
  ""idx_4"": 0
}
```",albertaandbritishcolumbia,britishcolumbia/alberta/yukon,1.0,key_match,1.0,"Let's analyze each pair item by item according to the given criterion:

- Criterion summary:  
  The response is fully correct (score 1) if the semantics are approximately the same as the reference answer or they point to the same entity. There is no need for word-for-word correspondence.

---

**idx_0:**  
- Response: ""natural""  
- Target: ""natural""  
- Analysis: Exactly the same word, thus semantics match perfectly.  
- Score: 1

**idx_1:**  
- Response: ""natural""  
- Target: ""natural""  
- Analysis: Exactly the same word, semantics match perfectly.  
- Score: 1

**idx_2:**  
- Response: ""cultural""  
- Target: ""natural""  
- Analysis: ""cultural"" and ""natural"" indicate different categories/entities. They do not mean the same thing and thus do not fulfill the criterion of approximate semantics or pointing to the same entity.  
- Score: 0

**idx_3:**  
- Response: ""natural""  
- Target: ""natural""  
- Analysis: Exactly the same word, perfect match.  
- Score: 1

**idx_4:**  
- Response: ""natural""  
- Target: ""natural""  
- Analysis: Exactly the same word, perfect match.  
- Score: 1

---

Final scoring in JSON format:

```json
{
    ""idx_0"": 1,
    ""idx_1"": 1,
    ""idx_2"": 0,
    ""idx_3"": 1,
    ""idx_4"": 1
}
```",natural,natural,1.0,"exact match, response: 1984, target: 1984",1984,1984
,,historiccentreofmexicocityandxochimilco,Great City of Mexico,0.0,"number not convertable, response: None, target: 3010.86",3010.86,NULL,1.0,"Let's analyze each pair according to the given criterion:

- Criterion: It is sufficient if the semantics are approximately the same as the reference answer or if they point to the same entity. No need for exact word matches.

---

### idx_0
- Response: ""canada""
- Target: ""canada""
- Analysis: Exact match, pointing to the same entity.
- Score: 1

### idx_1
- Response: ""canada""
- Target: ""canada""
- Analysis: Same as idx_0, exact match.
- Score: 1

### idx_2
- Response: ""mexico""
- Target: ""mexico""
- Analysis: Exact match.
- Score: 1

### idx_3
- Response: ""unitedstates""
- Target: ""canada,unitedstatesofamerica""
- Analysis: The target includes ""canada"" and ""unitedstatesofamerica"" (United States of America). The response ""unitedstates"" refers to United States, which is semantically the same as ""unitedstatesofamerica"".
- Score: 1

### idx_4
- Response: ""unitedstates""
- Target: ""unitedstatesofamerica""
- Analysis: The response ""unitedstates"" and target ""unitedstatesofamerica"" refer to the same entity.
- Score: 1

---

```json
{
    ""idx_0"": 1,
    ""idx_1"": 1,
    ""idx_2"": 1,
    ""idx_3"": 1,
    ""idx_4"": 1
}
```",mexico,mexico,1.0,"Let's analyze each idx item according to the given criterion:

**idx_0**  
- Target: ""albertaandnorthwestterritories,canada""  
- Response: ""alberta/northwestterritories""  
Analysis: Response includes both Alberta and Northwest Territories, which correspond semantically to the target. Although ""Canada"" is missing, but based on the criterion, it is sufficient that the main city/county (or here the main region names) are mentioned. The response points to the same entities. Score = 1.

**idx_1**  
- Target: ""albertaandbritishcolumbia""  
- Response: ""britishcolumbia/alberta/yukon""  
Analysis: The response includes British Columbia and Alberta, which are exactly the two locations in the target. The extra ""yukon"" is superfluous but the criterion does not penalize extras if all target locations are correctly named. So this corresponds adequately. Score = 1.

**idx_2**  
- Target: ""mexicocity""  
- Response: ""mexicocity,mexico""  
Analysis: Response has Mexico City, adding ""mexico"" after the comma, which may be the country, but the criterion accepts semantic equivalence. It includes the main city, so correct. Score = 1.

**idx_3**  
- Target: ""yukonterritory(canada)andalaska(usa)andprovinceofbritishcolumbia(canada)""  
- Response: ""alaska""  
Analysis: Target includes three regions; response mentions only Alaska. Only part coverage is not enough. Therefore, the response does not completely correspond to the target locations, fails the criterion that if multiple addresses are included, they all need to be corresponded. Score = 0.

**idx_4**  
- Target: ""countiesofcocke,blount,andsevierinthestateoftennessee;andthecountiesofswainandhaywoodinthestateofnorthcarolina""  
- Response: ""tennessee/northcarolina""  
Analysis: Response provides the main states Tennessee and North Carolina instead of detailed counties. Criterion: ""For a specific location, it is correct as long as the main city/county of the location is provided, only province is not enough."" Here states correspond roughly to provinces and are bigger than counties, so just states is less specific than counties. Since counties are specified in the target, reply with just states is not fully correct. The response is less specific than the target, so score = 0.

---

### Final scores

```json
{
  ""idx_0"": 1,
  ""idx_1"": 1,
  ""idx_2"": 1,
  ""idx_3"": 0,
  ""idx_4"": 0
}
```",mexicocity,"mexicocity,mexico",1.0,key_match,0.0,"Let's analyze each pair item by item according to the given criterion:

- Criterion summary:  
  The response is fully correct (score 1) if the semantics are approximately the same as the reference answer or they point to the same entity. There is no need for word-for-word correspondence.

---

**idx_0:**  
- Response: ""natural""  
- Target: ""natural""  
- Analysis: Exactly the same word, thus semantics match perfectly.  
- Score: 1

**idx_1:**  
- Response: ""natural""  
- Target: ""natural""  
- Analysis: Exactly the same word, semantics match perfectly.  
- Score: 1

**idx_2:**  
- Response: ""cultural""  
- Target: ""natural""  
- Analysis: ""cultural"" and ""natural"" indicate different categories/entities. They do not mean the same thing and thus do not fulfill the criterion of approximate semantics or pointing to the same entity.  
- Score: 0

**idx_3:**  
- Response: ""natural""  
- Target: ""natural""  
- Analysis: Exactly the same word, perfect match.  
- Score: 1

**idx_4:**  
- Response: ""natural""  
- Target: ""natural""  
- Analysis: Exactly the same word, perfect match.  
- Score: 1

---

Final scoring in JSON format:

```json
{
    ""idx_0"": 1,
    ""idx_1"": 1,
    ""idx_2"": 0,
    ""idx_3"": 1,
    ""idx_4"": 1
}
```",natural,cultural,0.0,"exact not match, response: 2010, target: 1987",1987,2010
,,kluane/wrangell-st.elias/glacierbay/tatshenshini-alsek,Kluane/Wrangell-St. Elias/Glacier Bay/Tatshenshini-Alsek,0.0,"number not near, response: 22251488.0, target: 9839121.0",9839121,22251488,1.0,"Let's analyze each pair according to the given criterion:

- Criterion: It is sufficient if the semantics are approximately the same as the reference answer or if they point to the same entity. No need for exact word matches.

---

### idx_0
- Response: ""canada""
- Target: ""canada""
- Analysis: Exact match, pointing to the same entity.
- Score: 1

### idx_1
- Response: ""canada""
- Target: ""canada""
- Analysis: Same as idx_0, exact match.
- Score: 1

### idx_2
- Response: ""mexico""
- Target: ""mexico""
- Analysis: Exact match.
- Score: 1

### idx_3
- Response: ""unitedstates""
- Target: ""canada,unitedstatesofamerica""
- Analysis: The target includes ""canada"" and ""unitedstatesofamerica"" (United States of America). The response ""unitedstates"" refers to United States, which is semantically the same as ""unitedstatesofamerica"".
- Score: 1

### idx_4
- Response: ""unitedstates""
- Target: ""unitedstatesofamerica""
- Analysis: The response ""unitedstates"" and target ""unitedstatesofamerica"" refer to the same entity.
- Score: 1

---

```json
{
    ""idx_0"": 1,
    ""idx_1"": 1,
    ""idx_2"": 1,
    ""idx_3"": 1,
    ""idx_4"": 1
}
```","canada,unitedstatesofamerica",unitedstates,0.0,"Let's analyze each idx item according to the given criterion:

**idx_0**  
- Target: ""albertaandnorthwestterritories,canada""  
- Response: ""alberta/northwestterritories""  
Analysis: Response includes both Alberta and Northwest Territories, which correspond semantically to the target. Although ""Canada"" is missing, but based on the criterion, it is sufficient that the main city/county (or here the main region names) are mentioned. The response points to the same entities. Score = 1.

**idx_1**  
- Target: ""albertaandbritishcolumbia""  
- Response: ""britishcolumbia/alberta/yukon""  
Analysis: The response includes British Columbia and Alberta, which are exactly the two locations in the target. The extra ""yukon"" is superfluous but the criterion does not penalize extras if all target locations are correctly named. So this corresponds adequately. Score = 1.

**idx_2**  
- Target: ""mexicocity""  
- Response: ""mexicocity,mexico""  
Analysis: Response has Mexico City, adding ""mexico"" after the comma, which may be the country, but the criterion accepts semantic equivalence. It includes the main city, so correct. Score = 1.

**idx_3**  
- Target: ""yukonterritory(canada)andalaska(usa)andprovinceofbritishcolumbia(canada)""  
- Response: ""alaska""  
Analysis: Target includes three regions; response mentions only Alaska. Only part coverage is not enough. Therefore, the response does not completely correspond to the target locations, fails the criterion that if multiple addresses are included, they all need to be corresponded. Score = 0.

**idx_4**  
- Target: ""countiesofcocke,blount,andsevierinthestateoftennessee;andthecountiesofswainandhaywoodinthestateofnorthcarolina""  
- Response: ""tennessee/northcarolina""  
Analysis: Response provides the main states Tennessee and North Carolina instead of detailed counties. Criterion: ""For a specific location, it is correct as long as the main city/county of the location is provided, only province is not enough."" Here states correspond roughly to provinces and are bigger than counties, so just states is less specific than counties. Since counties are specified in the target, reply with just states is not fully correct. The response is less specific than the target, so score = 0.

---

### Final scores

```json
{
  ""idx_0"": 1,
  ""idx_1"": 1,
  ""idx_2"": 1,
  ""idx_3"": 0,
  ""idx_4"": 0
}
```",yukonterritory(canada)andalaska(usa)andprovinceofbritishcolumbia(canada),alaska,1.0,key_match,1.0,"Let's analyze each pair item by item according to the given criterion:

- Criterion summary:  
  The response is fully correct (score 1) if the semantics are approximately the same as the reference answer or they point to the same entity. There is no need for word-for-word correspondence.

---

**idx_0:**  
- Response: ""natural""  
- Target: ""natural""  
- Analysis: Exactly the same word, thus semantics match perfectly.  
- Score: 1

**idx_1:**  
- Response: ""natural""  
- Target: ""natural""  
- Analysis: Exactly the same word, semantics match perfectly.  
- Score: 1

**idx_2:**  
- Response: ""cultural""  
- Target: ""natural""  
- Analysis: ""cultural"" and ""natural"" indicate different categories/entities. They do not mean the same thing and thus do not fulfill the criterion of approximate semantics or pointing to the same entity.  
- Score: 0

**idx_3:**  
- Response: ""natural""  
- Target: ""natural""  
- Analysis: Exactly the same word, perfect match.  
- Score: 1

**idx_4:**  
- Response: ""natural""  
- Target: ""natural""  
- Analysis: Exactly the same word, perfect match.  
- Score: 1

---

Final scoring in JSON format:

```json
{
    ""idx_0"": 1,
    ""idx_1"": 1,
    ""idx_2"": 0,
    ""idx_3"": 1,
    ""idx_4"": 1
}
```",natural,natural,1.0,"exact match, response: 1979, target: 1979",1979,1979
,,greatsmokymountainsnationalpark,Great Smoky Mountains National Park,0.0,"number not near, response: 304010.0, target: 209000.0",209000,304010,1.0,"Let's analyze each pair according to the given criterion:

- Criterion: It is sufficient if the semantics are approximately the same as the reference answer or if they point to the same entity. No need for exact word matches.

---

### idx_0
- Response: ""canada""
- Target: ""canada""
- Analysis: Exact match, pointing to the same entity.
- Score: 1

### idx_1
- Response: ""canada""
- Target: ""canada""
- Analysis: Same as idx_0, exact match.
- Score: 1

### idx_2
- Response: ""mexico""
- Target: ""mexico""
- Analysis: Exact match.
- Score: 1

### idx_3
- Response: ""unitedstates""
- Target: ""canada,unitedstatesofamerica""
- Analysis: The target includes ""canada"" and ""unitedstatesofamerica"" (United States of America). The response ""unitedstates"" refers to United States, which is semantically the same as ""unitedstatesofamerica"".
- Score: 1

### idx_4
- Response: ""unitedstates""
- Target: ""unitedstatesofamerica""
- Analysis: The response ""unitedstates"" and target ""unitedstatesofamerica"" refer to the same entity.
- Score: 1

---

```json
{
    ""idx_0"": 1,
    ""idx_1"": 1,
    ""idx_2"": 1,
    ""idx_3"": 1,
    ""idx_4"": 1
}
```",unitedstatesofamerica,unitedstates,0.0,"Let's analyze each idx item according to the given criterion:

**idx_0**  
- Target: ""albertaandnorthwestterritories,canada""  
- Response: ""alberta/northwestterritories""  
Analysis: Response includes both Alberta and Northwest Territories, which correspond semantically to the target. Although ""Canada"" is missing, but based on the criterion, it is sufficient that the main city/county (or here the main region names) are mentioned. The response points to the same entities. Score = 1.

**idx_1**  
- Target: ""albertaandbritishcolumbia""  
- Response: ""britishcolumbia/alberta/yukon""  
Analysis: The response includes British Columbia and Alberta, which are exactly the two locations in the target. The extra ""yukon"" is superfluous but the criterion does not penalize extras if all target locations are correctly named. So this corresponds adequately. Score = 1.

**idx_2**  
- Target: ""mexicocity""  
- Response: ""mexicocity,mexico""  
Analysis: Response has Mexico City, adding ""mexico"" after the comma, which may be the country, but the criterion accepts semantic equivalence. It includes the main city, so correct. Score = 1.

**idx_3**  
- Target: ""yukonterritory(canada)andalaska(usa)andprovinceofbritishcolumbia(canada)""  
- Response: ""alaska""  
Analysis: Target includes three regions; response mentions only Alaska. Only part coverage is not enough. Therefore, the response does not completely correspond to the target locations, fails the criterion that if multiple addresses are included, they all need to be corresponded. Score = 0.

**idx_4**  
- Target: ""countiesofcocke,blount,andsevierinthestateoftennessee;andthecountiesofswainandhaywoodinthestateofnorthcarolina""  
- Response: ""tennessee/northcarolina""  
Analysis: Response provides the main states Tennessee and North Carolina instead of detailed counties. Criterion: ""For a specific location, it is correct as long as the main city/county of the location is provided, only province is not enough."" Here states correspond roughly to provinces and are bigger than counties, so just states is less specific than counties. Since counties are specified in the target, reply with just states is not fully correct. The response is less specific than the target, so score = 0.

---

### Final scores

```json
{
  ""idx_0"": 1,
  ""idx_1"": 1,
  ""idx_2"": 1,
  ""idx_3"": 0,
  ""idx_4"": 0
}
```","countiesofcocke,blount,andsevierinthestateoftennessee;andthecountiesofswainandhaywoodinthestateofnorthcarolina",tennessee/northcarolina,1.0,key_match,1.0,"Let's analyze each pair item by item according to the given criterion:

- Criterion summary:  
  The response is fully correct (score 1) if the semantics are approximately the same as the reference answer or they point to the same entity. There is no need for word-for-word correspondence.

---

**idx_0:**  
- Response: ""natural""  
- Target: ""natural""  
- Analysis: Exactly the same word, thus semantics match perfectly.  
- Score: 1

**idx_1:**  
- Response: ""natural""  
- Target: ""natural""  
- Analysis: Exactly the same word, semantics match perfectly.  
- Score: 1

**idx_2:**  
- Response: ""cultural""  
- Target: ""natural""  
- Analysis: ""cultural"" and ""natural"" indicate different categories/entities. They do not mean the same thing and thus do not fulfill the criterion of approximate semantics or pointing to the same entity.  
- Score: 0

**idx_3:**  
- Response: ""natural""  
- Target: ""natural""  
- Analysis: Exactly the same word, perfect match.  
- Score: 1

**idx_4:**  
- Response: ""natural""  
- Target: ""natural""  
- Analysis: Exactly the same word, perfect match.  
- Score: 1

---

Final scoring in JSON format:

```json
{
    ""idx_0"": 1,
    ""idx_1"": 1,
    ""idx_2"": 0,
    ""idx_3"": 1,
    ""idx_4"": 1
}
```",natural,natural,1.0,"exact match, response: 1983, target: 1983",1983,1983
1.0,,agavelandscapeandancientindustrialfacilitiesoftequila,,,,35018.852,,,,mexico,,,,"vallesregion,jalisco",,,,,,cultural,,,,2006,
1.0,,"ancientmayacityandprotectedtropicalforestsofcalakmul,campeche",,,,331397,,,,mexico,,,,"calakmul,campeche",,,,,,mixed,,,,2002,
1.0,,anticosti,,,,18240,,,,canada,,,,"minganie,côte-nord,quebec",,,,,,natural,,,,2023,
1.0,,aqueductofpadretemblequehydraulicsystem,,,,6540,,,,mexico,,,,"betweenthestatesofmexicoandhidalgo,onthecentralmexicanplateau",,,,,,cultural,,,,2015,
1.0,,archaeologicalmonumentszoneofxochicalco,,,,707.65,,,,mexico,,,,"miacatlán,morelos,mexico",,,,,,cultural,,,,1999,
1.0,,"archaeologicalzoneofpaquimé,casasgrandes",,,,146.72,,,,mexico,,,,"casasgrandes,chihuahua,mexico",,,,,,cultural,,,,1998,
1.0,,archipiélagoderevillagigedo,,,,636685.375,,,,mexico,,,,exclusiveeconomiczoneofmexico,,,,,,natural,,,,2016,
1.0,,cahokiamoundsstatehistoricsite,,,,541,,,,unitedstatesofamerica,,,,"st.claircounty,illinois",,,,,,cultural,,,,1982,
1.0,,caminorealdetierraadentro,,,,3101.91,,,,mexico,,,,"betweenmexicocityandsanjuanpueblo(ohkayowingeh),newmexico(inthemodernu.s.)",,,,,,cultural,,,,2010,
1.0,,carlsbadcavernsnationalpark,,,,18926,,,,unitedstatesofamerica,,,,"eddycounty,stateofnewmexico",,,,,,natural,,,,1995,
,1.0,casagranderuinsnationalmonument,Casa Grande Ruins National Monument,,,,277,,,,unitedstates,,,,"coolidge,arizona",,,,,,cultural,,,,1988
1.0,,centraluniversitycitycampusoftheuniversidadnacionalautónomademéxico(unam),,,,176.5,,,,mexico,,,,"mexicocity,mexico",,,,,,cultural,,,,2007,
1.0,,chacoculture,,,,14261,,,,unitedstatesofamerica,,,,"sanjuancounty,newmexico",,,,,,cultural,,,,1987,
,1.0,"chapultepecwoods,hillandcastle","Chapultepec Woods, Hill and Castle",,,,NULL,,,,mexico,,,,"mexicocity,mexico",,,,,,mixed,,,,2013
,1.0,churchofsantapriscaanditssurroundings,Church of Santa Prisca and its Surroundings,,,,NULL,,,,mexico,,,,"alamos,mexico",,,,,,cultural,,,,2010
1.0,,dinosaurprovincialpark,,,,7825,,,,canada,,,,"countyofnewell,alberta",,,,,,natural,,,,1979,
1.0,,earliest16th-centurymonasteriesontheslopesofpopocatepetl,,,,24.33,,,,mexico,,,,"sanandréscalpan,huejotzingo,tochimilco(puebla),tlaxcala(tlaxcala),yecapixtla,tepoztlán(morelos)",,,,,,cultural,,,,1994,
1.0,,elpinacateandgrandesiertodealtarbiospherereserve,,,,714566,,,,mexico,,,,"sonora,méxico",,,,,,natural,,,,2013,
1.0,,"eltajin,pre-hispaniccity",,,,240,,,,mexico,,,,"veracruz,mexico",,,,,,cultural,,,,1992,
1.0,,evergladesnationalpark,,,,567017,,,,unitedstatesofamerica,,,,"miamidadecounty,monroecounty,andcolliercounty",,,,,,natural,,,,1979,
1.0,,franciscanmissionsinthesierragordaofquerétaro,,,,103.7,,,,mexico,,,,"sierragorda,querétaro,mexico",,,,,,cultural,,,,2003,
1.0,,grandcanyonnationalpark,,,,493270,,,,unitedstatesofamerica,,,,coconinoandmohavecountiesinarizona,,,,,,natural,,,,1979,
1.0,,grosmornenationalpark,,,,180500,,,,canada,,,,"rockyharbour,newfoundlandandlabrador,canada",,,,,,natural,,,,1987,
1.0,,hawaiivolcanoesnationalpark,,,,87940,,,,unitedstatesofamerica,,,,"hawaiicounty,hawaii",,,,,,natural,,,,1987,
1.0,,head-smashed-inbuffalojump,,,,3626,,,,canada,,,,"fortmacleod,alberta",,,,,,cultural,,,,1981,
1.0,,historiccentreofmorelia,,,,390,,,,mexico,,,,"morelia,michoacán",,,,,,cultural,,,,1991,
1.0,,historiccentreofoaxacaandarchaeologicalsiteofmontealbán,,,,4375,,,,mexico,,,,"oaxaca,mexico",,,,,,cultural,,,,1987,
1.0,,historiccentreofpuebla,,,,690,,,,mexico,,,,"puebla,centralméxico",,,,,,cultural,,,,1987,
1.0,,historiccentreofzacatecas,,,,207.72,,,,mexico,,,,"zacatecas,mexico",,,,,,cultural,,,,1993,
1.0,,historicdistrictofoldquébec,,,,135,,,,canada,,,,cityofquebec,,,,,,cultural,,,,1985,
1.0,,historicfortifiedtownofcampeche,,,,181,,,,mexico,,,,"inthecityofsanfranciscodecampeche,inthestateofcampeche,mexico",,,,,,cultural,,,,1999,
1.0,,historicmonumentszoneofquerétaro,,,,258.3,,,,mexico,,,,"santiagodequerétaro,querétaro,mexico",,,,,,cultural,,,,1996,
1.0,,historicmonumentszoneoftlacotalpan,,,,75,,,,mexico,,,,"tlacotalpan,veracruz,mexico",,,,,,cultural,,,,1998,
,1.0,historictownofalamos,Historic Town of Alamos,,,,NULL,,,,mexico,,,,"alamos,mexico",,,,,,cultural,,,,2010
1.0,,historictownofguanajuatoandadjacentmines,,,,2167.5,,,,mexico,,,,"guanajuato,guanajuaton,mexico",,,,,,cultural,,,,1988,
1.0,,hopewellceremonialearthworks,,,,320.7,,,,unitedstatesofamerica,,,,"rosscounty,ohio",,,,,,cultural,,,,2023,
1.0,,"hospiciocabañas,guadalajara",,,,2.34,,,,mexico,,,,"guadalajara,jalisco,mexico",,,,,,cultural,,,,1997,
1.0,,independencehall,,,,2,,,,unitedstatesofamerica,,,,"philadelphia,commonwealthofpennsylvania",,,,,,cultural,,,,1979,
1.0,,islandsandprotectedareasofthegulfofcalifornia,,,,688558,,,,mexico,,,,"spansmanycitieslikebajacalifornia,sonora,bajacaliforniasur",,,,,,natural,,,,2005,
1.0,,jogginsfossilcliffs,,,,689,,,,canada,,,,"cumberlandcounty,novascotia(easterncanada)",,,,,,natural,,,,2008,
1.0,,lafortalezaandsanjuannationalhistoricsiteinpuertorico,,,,33.39,,,,unitedstatesofamerica,,,,"sanjuan,puertorico",,,,,,cultural,,,,1983,
1.0,,landscapeofgrandpré,,,,1323.24,,,,canada,,,,"kingscounty,novascotia",,,,,,cultural,,,,2012,
1.0,,luisbarragánhouseandstudio,,,,0.1161,,,,mexico,,,,"mexicocity,mexico",,,,,,cultural,,,,2004,
1.0,,l’anseauxmeadowsnationalhistoricsite,,,,7991,,,,canada,,,,"newfoundland,newfoundlandandlabrador",,,,,,cultural,,,,1978,
1.0,,mammothcavenationalpark,,,,21191,,,,unitedstatesofamerica,,,,"countiesofbarren,edmonson,andhartinthestateofkentucky",,,,,,natural,,,,1981,
1.0,,mesaverdenationalpark,,,,21043,,,,unitedstatesofamerica,,,,"montezumacounty,colorado,",,,,,,cultural,,,,1978,
1.0,,miguashanationalpark,,,,87.3,,,,canada,,,,"nouvelle,avignonregionalcountymunicipality,quebec,canada",,,,,,natural,,,,1999,
1.0,,mistakenpoint,,,,146,,,,canada,,,,"newfoundlandandlabrador,canad",,,,,,natural,,,,2016,
1.0,,monarchbutterflybiospherereserve,,,,13551.552,,,,mexico,,,,"michoacán,mexico",,,,,,natural,,,,2008,
1.0,,monticelloandtheuniversityofvirginiaincharlottesville,,,,795.96,,,,unitedstatesofamerica,,,,"albemarlecounty,virginia",,,,,,cultural,,,,1987,
1.0,,monumentalearthworksofpovertypoint,,,,163,,,,unitedstatesofamerica,,,,"westcarroll,stateoflouisiana",,,,,,cultural,,,,2014,
1.0,,moravianchurchsettlements,,,,NULL,,,,denmark&germany&unitedkingdomofgreatbritainandnorthernireland&unitedstatesofamerica,,,,"bethlehem(pennsylvania,usa),christiansfeld(denmark),gracehill(northernireland/uk),andherrnhut(saxony/germany)",,,,,,cultural,,,,2015,
1.0,,nahanninationalpark,,,,476560,,,,canada,,,,"northwestterritories,canada",,,,,,natural,,,,1978,
,1.0,okefenokeenationalwildliferefuge,Okefenokee National Wildlife Refuge,,,,NULL,,,,unitedstates,,,,georgia,,,,,,natural,,,,2007
1.0,,oldtownlunenburg,,,,33.85,,,,canada,,,,"lunenburgcounty,novascotia",,,,,,cultural,,,,1995,
1.0,,olympicnationalpark,,,,369659.8,,,,unitedstatesofamerica,,,,"jefferson,clallam,mason,andgraysharborcounties,washington",,,,,,natural,,,,1981,
1.0,,papahānaumokuākea,,,,36207499,,,,unitedstatesofamerica,,,,"honolulucounty,hawaiian",,,,,,mixed,,,,2010,
1.0,,pimachiowinaki,,,,2904000,,,,canada,,,,manitobaandontario,,,,,,mixed,,,,2018,
1.0,,pre-hispaniccityandnationalparkofpalenque,,,,1772,,,,mexico,,,,"palenque,chiapas,mexico",,,,,,cultural,,,,1987,
,1.0,pre-hispaniccityofcantona,Pre-Hispanic City of Cantona,,,,NULL,,,,mexico,,,,"cantona,mexico",,,,,,cultural,,,,2010
1.0,,pre-hispaniccityofchichen-itza,,,,1000,,,,mexico,,,,"yucatán,mexico",,,,,,cultural,,,,1988,
1.0,,pre-hispaniccityofteotihuacan,,,,250,,,,mexico,,,,"teotihuacán,stateofmexico,mexico",,,,,,cultural,,,,1987,
1.0,,pre-hispanictownofuxmal,,,,2059.8,,,,mexico,,,,"yucatán,mexico",,,,,,cultural,,,,1996,
1.0,,prehistoriccavesofyagulandmitlainthecentralvalleyofoaxaca,,,,1515.17,,,,mexico,,,,"tlacolulavalley,oaxaca,mexico",,,,,,cultural,,,,2010,
1.0,,protectivetownofsanmiguelandthesanctuaryofjesúsnazarenodeatotonilco,,,,46.95,,,,mexico,,,,"guanajuato,mexico",,,,,,cultural,,,,2008,
1.0,,redbaybasquewhalingstation,,,,312.973,,,,canada,,,,"newfoundlandandlabrador,canada",,,,,,cultural,,,,2013,
1.0,,redwoodnationalandstateparks,,,,41571,,,,unitedstatesofamerica,,,,"humboldtcounty&delnortecounty,california",,,,,,natural,,,,1980,
1.0,,rideaucanal,,,,21454.81,,,,canada,,,,provinceofontario,,,,,,cultural,,,,2007,
1.0,,rockpaintingsofthesierradesanfrancisco,,,,182600,,,,mexico,,,,"sierradesanfrancisco,mulegémunicipality,bajacaliforniasur,mexico",,,,,,cultural,,,,1993,
,1.0,rockymountainsnationalpark,Rocky Mountains National Park,,,,265136,,,,unitedstates,,,,colorado,,,,,,natural,,,,1976
1.0,,sanantoniomissions,,,,300.8,,,,unitedstatesofamerica,,,,"bexarcounty,sanantonio",,,,,,cultural,,,,2015,
1.0,,sganggwaay,,,,11032,,,,canada,,,,"queencharlotteislands(haidagwaii,northcoastofbritishcolumbia,canada)",,,,,,cultural,,,,1981,
1.0,,sianka'an,,,,528000,,,,mexico,,,,"tulum,quintanaroo,mexico",,,,,,natural,,,,1987,
1.0,,statueofliberty,,,,5.95,,,,unitedstatesofamerica,,,,"newyork,newyork",,,,,,cultural,,,,1984,
1.0,,taospueblo,,,,19.01,,,,unitedstatesofamerica,,,,"taos,newmexico",,,,,,cultural,,,,1992,
1.0,,tehuacán-cuicatlánvalley:originaryhabitatofmesoamerica,,,,145255.2,,,,mexico,,,,"cuicatlán,tehuacán",,,,,,mixed,,,,2018,
1.0,,the20th-centuryarchitectureoffranklloydwright,,,,25.723,,,,unitedstatesofamerica,,,,"multiplestates(e.g.,springgreen,wi;scottsdale,az)",,,,,,cultural,,,,2019,
,1.0,timucuanecologicalandhistoricpreserve,Timucuan Ecological and Historic Preserve,,,,21000,,,,unitedstates,,,,"jacksonville,florida",,,,,,mixed,,,,1992
1.0,,tr’ondëk-klondike,,,,334.54,,,,canada,,,,"dawsoncity,canada",,,,,,cultural,,,,2023,
1.0,,watertonglacierinternationalpeacepark,,,,457614,,,,"canada,unitedstatesofamerica",,,,"provinceofalberta,canada;stateofmontana,usa",,,,,,natural,,,,1995,
1.0,,whalesanctuaryofelvizcaino,,,,369631,,,,mexico,,,,"bajacaliforniasur,mexico",,,,,,natural,,,,1993,
1.0,,writing-on-stone/áísínai’pi,,,,1106,,,,canada,,,,"countyofwarnerno.5,alberta,canada",,,,,,cultural,,,,2019,
1.0,,yellowstonenationalpark,,,,898349,,,,unitedstatesofamerica,,,,"parkcounty&tetoncounty,wyoming;gallatincounty&parkcounty,montana;fremontcounty,idaho;",,,,,,natural,,,,1978,
1.0,,yosemitenationalpark,,,,307934,,,,unitedstatesofamerica,,,,"tuolumne,mariposa,monoandmaderacounties,california",,,,,,natural,,,,1984,
