exist_flag_gt,exist_flag_response,nameoftheheritagesite,nameoftheheritagesite_before_map,area_number_near,area_number_near_eval_msg,area_query,area_response,country_llm_judge,country_llm_judge_eval_msg,country_query,country_response,location_llm_judge,location_llm_judge_eval_msg,location_query,location_response,nameoftheheritagesite_exact_match,nameoftheheritagesite_exact_match_eval_msg,typeofheritage_llm_judge,typeofheritage_llm_judge_eval_msg,typeofheritage_query,typeofheritage_response,yearofrecognition_exact_match,yearofrecognition_exact_match_eval_msg,yearofrecognition_query,yearofrecognition_response
,,dinosaurprovincialpark,Dinosaur Provincial Park,0.0,"number not convertable, response: None, target: 7825.0",7825,NULL,1.0,"Let's analyze each idx item step by step.

**idx_0 to idx_4**  
- Response: ""canada""  
- Target: ""canada""  
- They are identical in semantics (same entity). Score = 1

**idx_5 to idx_8**  
- Response: ""mexico""  
- Target: ""mexico""  
- Identical. Score = 1

**idx_9**  
- Response: ""usa""  
- Target: ""unitedstatesofamerica""  
- Semantics are approximately the same (USA = United States of America). Score = 1

**idx_10**  
- Response: ""usa""  
- Target: ""canada,unitedstatesofamerica""  
- The target answer includes ""canada"" and ""unitedstatesofamerica"" (two entities). Response only has ""usa"" (equivalent to United States of America). Since the response points only one of the two entities, not both, it is incomplete relative to the target. According to the criterion, the semantics should point to the same entity/entities. The response only covers part of the target.  
- Therefore response is partially correct but partial answers do not get partial credit as per the scoring rules (0 or 1 only).  
- Score = 0

**idx_11**  
- Response: ""usa""  
- Target: ""unitedstatesofamerica""  
- Same semantics. Score = 1

**idx_12**  
- Response: ""usa""  
- Target: ""unitedstatesofamerica""  
- Same semantics. Score = 1

---

### Final scores:
```json
{
  ""idx_0"": 1,
  ""idx_1"": 1,
  ""idx_2"": 1,
  ""idx_3"": 1,
  ""idx_4"": 1,
  ""idx_5"": 1,
  ""idx_6"": 1,
  ""idx_7"": 1,
  ""idx_8"": 1,
  ""idx_9"": 1,
  ""idx_10"": 0,
  ""idx_11"": 1,
  ""idx_12"": 1
}
```",canada,canada,0.0,"Let's analyze each pair according to the provided grading criteria:

Criteria recap:  
- Semantics approximately the same or pointing to the same entity suffices.  
- If multiple locations are listed, all must correspond (main city/county is enough, province alone is not sufficient).  

---

**idx_0**  
response: ""alberta""  
target: ""countyofnewell,alberta""  
- Response gives only the province (alberta), target gives a specific county (countyofnewell) within Alberta.  
- According to criteria, province alone is insufficient if target includes more specific location (county). Here province only -> insufficient.  
- Score: 0  

**idx_1**  
response: ""alberta""  
target: ""fortmacleod,alberta""  
- Same as idx_0. Target is city/region + province; response only province = insufficient.  
- Score: 0  

**idx_2**  
response: ""alberta""  
target: ""albertaandnorthwestterritories,canada""  
- Target includes two entities: ""alberta"" and ""northwest territories"". Response includes only one of them (""alberta"").  
- Because multiple addresses included in target, all must correspond. Missing ""northwest territories"".  
- Score: 0  

**idx_3**  
response: ""britishcolumbia,alberta""  
target: ""albertaandbritishcolumbia""  
- Both specify the same two provinces, just reverse order and with different conjunction. Semantics match.  
- Score: 1  

**idx_4**  
response: ""québeccity""  
target: ""cityofquebec""  
- Semantics directly correspond. Correct.  
- Score: 1  

**idx_5**  
response: ""mexicocity""  
target: ""mexicocity""  
- Identical  
- Score: 1  

**idx_6**  
response: ""chiapas""  
target: ""palenque,chiapas,mexico""  
- Target is a city (Palenque) in Chiapas in Mexico; response gives only state (chiapas). The city is more specific, response only state.  
- Is province/state alone sufficient for a specific city? No. Therefore response is insufficient.  
- Score: 0  

**idx_7**  
response: ""yucatán""  
target: ""yucatán,mexico""  
- Response gives ""yucatán"" (state), target gives ""yucatán,mexico"". Province alone is sufficient here because target includes province+country, and per criteria, province suffices to point to the same entity.  
- Score: 1  

**idx_8**  
response: ""veracruz""  
target: ""veracruz,mexico""  
- Same logic as idx_7, correct.  
- Score: 1  

**idx_9**  
response: ""philadelphia""  
target: ""philadelphia,commonwealthofpennsylvania""  
- City alone is sufficient, matches target.  
- Score: 1  

**idx_10**  
response: ""alaska""  
target: ""yukonterritory(canada)andalaska(usa)andprovinceofbritishcolumbia(canada)""  
- Target includes 3 locations: Yukon Territory, Alaska, British Columbia  
- Response includes only ""Alaska""  
- Multiple addresses in target, all must be matched. Missing Yukon and British Columbia.  
- Score: 0  

**idx_11**  
response: ""newyorkcity""  
target: ""newyork,newyork""  
- Response gives ""newyorkcity"", target gives ""new york city, new york"" (state). City corresponds exactly.  
- Score: 1  

**idx_12**  
response: ""charlottesville""  
target: ""albemarlecounty,virginia""  
- Target is county + state. Response is city. Are these the same entity?  
- Albemarle County contains Charlottesville, but they are not the same entity.  
- Response points to a city inside the target's county. Does this count as ""same entity""?  
- Criteria says ""semantics approximately the same or point to the same entity."" Here city and county are related but different entities. “Charlottesville” is an independent city sometimes politically separate from Albemarle County in Virginia. So they are not the same, and response does not mention county.  
- Province alone is insufficient, and city different from county.  
- Score: 0  

---

### Final scoring in JSON:

```json
{
    ""idx_0"": 0,
    ""idx_1"": 0,
    ""idx_2"": 0,
    ""idx_3"": 1,
    ""idx_4"": 1,
    ""idx_5"": 1,
    ""idx_6"": 0,
    ""idx_7"": 1,
    ""idx_8"": 1,
    ""idx_9"": 1,
    ""idx_10"": 0,
    ""idx_11"": 1,
    ""idx_12"": 0
}
```
","countyofnewell,alberta",alberta,1.0,key_match,1.0,"Let's analyze each item based on the criterion:
> It is sufficient if the semantics are approximately the same as the reference answer or if they point to the same entity.

Here, the responses are single words identifying a type: ""natural,"" ""cultural,"" or ""mixed.""

**Step-by-step analysis:**

- idx_0: response = ""natural"", target = ""natural""  
  They match exactly → score 1

- idx_1: response = ""cultural"", target = ""cultural""  
  They match exactly → score 1

- idx_2: response = ""natural"", target = ""natural""  
  They match exactly → score 1

- idx_3: response = ""natural"", target = ""natural""  
  They match exactly → score 1

- idx_4: response = ""cultural"", target = ""cultural""  
  They match exactly → score 1

- idx_5: response = ""cultural"", target = ""natural""  
  Different categories → score 0

- idx_6: response = ""cultural"", target = ""cultural""  
  They match exactly → score 1

- idx_7: response = ""cultural"", target = ""cultural""  
  They match exactly → score 1

- idx_8: response = ""cultural"", target = ""cultural""  
  They match exactly → score 1

- idx_9: response = ""cultural"", target = ""cultural""  
  They match exactly → score 1

- idx_10: response = ""mixed"", target = ""natural""  
  Different categories; mixed is a different entity from natural → score 0

- idx_11: response = ""cultural"", target = ""cultural""  
  They match exactly → score 1

- idx_12: response = ""cultural"", target = ""cultural""  
  They match exactly → score 1

---

**Final scoring results in JSON format:**

```json
{
  ""idx_0"": 1,
  ""idx_1"": 1,
  ""idx_2"": 1,
  ""idx_3"": 1,
  ""idx_4"": 1,
  ""idx_5"": 0,
  ""idx_6"": 1,
  ""idx_7"": 1,
  ""idx_8"": 1,
  ""idx_9"": 1,
  ""idx_10"": 0,
  ""idx_11"": 1,
  ""idx_12"": 1
}
```",natural,natural,1.0,"exact match, response: 1979, target: 1979",1979,1979
,,head-smashed-inbuffalojump,Head-Smashed-In Buffalo Jump,0.0,"number not convertable, response: None, target: 3626.0",3626,NULL,1.0,"Let's analyze each idx item step by step.

**idx_0 to idx_4**  
- Response: ""canada""  
- Target: ""canada""  
- They are identical in semantics (same entity). Score = 1

**idx_5 to idx_8**  
- Response: ""mexico""  
- Target: ""mexico""  
- Identical. Score = 1

**idx_9**  
- Response: ""usa""  
- Target: ""unitedstatesofamerica""  
- Semantics are approximately the same (USA = United States of America). Score = 1

**idx_10**  
- Response: ""usa""  
- Target: ""canada,unitedstatesofamerica""  
- The target answer includes ""canada"" and ""unitedstatesofamerica"" (two entities). Response only has ""usa"" (equivalent to United States of America). Since the response points only one of the two entities, not both, it is incomplete relative to the target. According to the criterion, the semantics should point to the same entity/entities. The response only covers part of the target.  
- Therefore response is partially correct but partial answers do not get partial credit as per the scoring rules (0 or 1 only).  
- Score = 0

**idx_11**  
- Response: ""usa""  
- Target: ""unitedstatesofamerica""  
- Same semantics. Score = 1

**idx_12**  
- Response: ""usa""  
- Target: ""unitedstatesofamerica""  
- Same semantics. Score = 1

---

### Final scores:
```json
{
  ""idx_0"": 1,
  ""idx_1"": 1,
  ""idx_2"": 1,
  ""idx_3"": 1,
  ""idx_4"": 1,
  ""idx_5"": 1,
  ""idx_6"": 1,
  ""idx_7"": 1,
  ""idx_8"": 1,
  ""idx_9"": 1,
  ""idx_10"": 0,
  ""idx_11"": 1,
  ""idx_12"": 1
}
```",canada,canada,0.0,"Let's analyze each pair according to the provided grading criteria:

Criteria recap:  
- Semantics approximately the same or pointing to the same entity suffices.  
- If multiple locations are listed, all must correspond (main city/county is enough, province alone is not sufficient).  

---

**idx_0**  
response: ""alberta""  
target: ""countyofnewell,alberta""  
- Response gives only the province (alberta), target gives a specific county (countyofnewell) within Alberta.  
- According to criteria, province alone is insufficient if target includes more specific location (county). Here province only -> insufficient.  
- Score: 0  

**idx_1**  
response: ""alberta""  
target: ""fortmacleod,alberta""  
- Same as idx_0. Target is city/region + province; response only province = insufficient.  
- Score: 0  

**idx_2**  
response: ""alberta""  
target: ""albertaandnorthwestterritories,canada""  
- Target includes two entities: ""alberta"" and ""northwest territories"". Response includes only one of them (""alberta"").  
- Because multiple addresses included in target, all must correspond. Missing ""northwest territories"".  
- Score: 0  

**idx_3**  
response: ""britishcolumbia,alberta""  
target: ""albertaandbritishcolumbia""  
- Both specify the same two provinces, just reverse order and with different conjunction. Semantics match.  
- Score: 1  

**idx_4**  
response: ""québeccity""  
target: ""cityofquebec""  
- Semantics directly correspond. Correct.  
- Score: 1  

**idx_5**  
response: ""mexicocity""  
target: ""mexicocity""  
- Identical  
- Score: 1  

**idx_6**  
response: ""chiapas""  
target: ""palenque,chiapas,mexico""  
- Target is a city (Palenque) in Chiapas in Mexico; response gives only state (chiapas). The city is more specific, response only state.  
- Is province/state alone sufficient for a specific city? No. Therefore response is insufficient.  
- Score: 0  

**idx_7**  
response: ""yucatán""  
target: ""yucatán,mexico""  
- Response gives ""yucatán"" (state), target gives ""yucatán,mexico"". Province alone is sufficient here because target includes province+country, and per criteria, province suffices to point to the same entity.  
- Score: 1  

**idx_8**  
response: ""veracruz""  
target: ""veracruz,mexico""  
- Same logic as idx_7, correct.  
- Score: 1  

**idx_9**  
response: ""philadelphia""  
target: ""philadelphia,commonwealthofpennsylvania""  
- City alone is sufficient, matches target.  
- Score: 1  

**idx_10**  
response: ""alaska""  
target: ""yukonterritory(canada)andalaska(usa)andprovinceofbritishcolumbia(canada)""  
- Target includes 3 locations: Yukon Territory, Alaska, British Columbia  
- Response includes only ""Alaska""  
- Multiple addresses in target, all must be matched. Missing Yukon and British Columbia.  
- Score: 0  

**idx_11**  
response: ""newyorkcity""  
target: ""newyork,newyork""  
- Response gives ""newyorkcity"", target gives ""new york city, new york"" (state). City corresponds exactly.  
- Score: 1  

**idx_12**  
response: ""charlottesville""  
target: ""albemarlecounty,virginia""  
- Target is county + state. Response is city. Are these the same entity?  
- Albemarle County contains Charlottesville, but they are not the same entity.  
- Response points to a city inside the target's county. Does this count as ""same entity""?  
- Criteria says ""semantics approximately the same or point to the same entity."" Here city and county are related but different entities. “Charlottesville” is an independent city sometimes politically separate from Albemarle County in Virginia. So they are not the same, and response does not mention county.  
- Province alone is insufficient, and city different from county.  
- Score: 0  

---

### Final scoring in JSON:

```json
{
    ""idx_0"": 0,
    ""idx_1"": 0,
    ""idx_2"": 0,
    ""idx_3"": 1,
    ""idx_4"": 1,
    ""idx_5"": 1,
    ""idx_6"": 0,
    ""idx_7"": 1,
    ""idx_8"": 1,
    ""idx_9"": 1,
    ""idx_10"": 0,
    ""idx_11"": 1,
    ""idx_12"": 0
}
```
","fortmacleod,alberta",alberta,1.0,key_match,1.0,"Let's analyze each item based on the criterion:
> It is sufficient if the semantics are approximately the same as the reference answer or if they point to the same entity.

Here, the responses are single words identifying a type: ""natural,"" ""cultural,"" or ""mixed.""

**Step-by-step analysis:**

- idx_0: response = ""natural"", target = ""natural""  
  They match exactly → score 1

- idx_1: response = ""cultural"", target = ""cultural""  
  They match exactly → score 1

- idx_2: response = ""natural"", target = ""natural""  
  They match exactly → score 1

- idx_3: response = ""natural"", target = ""natural""  
  They match exactly → score 1

- idx_4: response = ""cultural"", target = ""cultural""  
  They match exactly → score 1

- idx_5: response = ""cultural"", target = ""natural""  
  Different categories → score 0

- idx_6: response = ""cultural"", target = ""cultural""  
  They match exactly → score 1

- idx_7: response = ""cultural"", target = ""cultural""  
  They match exactly → score 1

- idx_8: response = ""cultural"", target = ""cultural""  
  They match exactly → score 1

- idx_9: response = ""cultural"", target = ""cultural""  
  They match exactly → score 1

- idx_10: response = ""mixed"", target = ""natural""  
  Different categories; mixed is a different entity from natural → score 0

- idx_11: response = ""cultural"", target = ""cultural""  
  They match exactly → score 1

- idx_12: response = ""cultural"", target = ""cultural""  
  They match exactly → score 1

---

**Final scoring results in JSON format:**

```json
{
  ""idx_0"": 1,
  ""idx_1"": 1,
  ""idx_2"": 1,
  ""idx_3"": 1,
  ""idx_4"": 1,
  ""idx_5"": 0,
  ""idx_6"": 1,
  ""idx_7"": 1,
  ""idx_8"": 1,
  ""idx_9"": 1,
  ""idx_10"": 0,
  ""idx_11"": 1,
  ""idx_12"": 1
}
```",cultural,cultural,1.0,"exact match, response: 1981, target: 1981",1981,1981
,,woodbuffalonationalpark,Wood Buffalo National Park,0.0,"number not convertable, response: None, target: 4480000.0",4480000,NULL,1.0,"Let's analyze each idx item step by step.

**idx_0 to idx_4**  
- Response: ""canada""  
- Target: ""canada""  
- They are identical in semantics (same entity). Score = 1

**idx_5 to idx_8**  
- Response: ""mexico""  
- Target: ""mexico""  
- Identical. Score = 1

**idx_9**  
- Response: ""usa""  
- Target: ""unitedstatesofamerica""  
- Semantics are approximately the same (USA = United States of America). Score = 1

**idx_10**  
- Response: ""usa""  
- Target: ""canada,unitedstatesofamerica""  
- The target answer includes ""canada"" and ""unitedstatesofamerica"" (two entities). Response only has ""usa"" (equivalent to United States of America). Since the response points only one of the two entities, not both, it is incomplete relative to the target. According to the criterion, the semantics should point to the same entity/entities. The response only covers part of the target.  
- Therefore response is partially correct but partial answers do not get partial credit as per the scoring rules (0 or 1 only).  
- Score = 0

**idx_11**  
- Response: ""usa""  
- Target: ""unitedstatesofamerica""  
- Same semantics. Score = 1

**idx_12**  
- Response: ""usa""  
- Target: ""unitedstatesofamerica""  
- Same semantics. Score = 1

---

### Final scores:
```json
{
  ""idx_0"": 1,
  ""idx_1"": 1,
  ""idx_2"": 1,
  ""idx_3"": 1,
  ""idx_4"": 1,
  ""idx_5"": 1,
  ""idx_6"": 1,
  ""idx_7"": 1,
  ""idx_8"": 1,
  ""idx_9"": 1,
  ""idx_10"": 0,
  ""idx_11"": 1,
  ""idx_12"": 1
}
```",canada,canada,0.0,"Let's analyze each pair according to the provided grading criteria:

Criteria recap:  
- Semantics approximately the same or pointing to the same entity suffices.  
- If multiple locations are listed, all must correspond (main city/county is enough, province alone is not sufficient).  

---

**idx_0**  
response: ""alberta""  
target: ""countyofnewell,alberta""  
- Response gives only the province (alberta), target gives a specific county (countyofnewell) within Alberta.  
- According to criteria, province alone is insufficient if target includes more specific location (county). Here province only -> insufficient.  
- Score: 0  

**idx_1**  
response: ""alberta""  
target: ""fortmacleod,alberta""  
- Same as idx_0. Target is city/region + province; response only province = insufficient.  
- Score: 0  

**idx_2**  
response: ""alberta""  
target: ""albertaandnorthwestterritories,canada""  
- Target includes two entities: ""alberta"" and ""northwest territories"". Response includes only one of them (""alberta"").  
- Because multiple addresses included in target, all must correspond. Missing ""northwest territories"".  
- Score: 0  

**idx_3**  
response: ""britishcolumbia,alberta""  
target: ""albertaandbritishcolumbia""  
- Both specify the same two provinces, just reverse order and with different conjunction. Semantics match.  
- Score: 1  

**idx_4**  
response: ""québeccity""  
target: ""cityofquebec""  
- Semantics directly correspond. Correct.  
- Score: 1  

**idx_5**  
response: ""mexicocity""  
target: ""mexicocity""  
- Identical  
- Score: 1  

**idx_6**  
response: ""chiapas""  
target: ""palenque,chiapas,mexico""  
- Target is a city (Palenque) in Chiapas in Mexico; response gives only state (chiapas). The city is more specific, response only state.  
- Is province/state alone sufficient for a specific city? No. Therefore response is insufficient.  
- Score: 0  

**idx_7**  
response: ""yucatán""  
target: ""yucatán,mexico""  
- Response gives ""yucatán"" (state), target gives ""yucatán,mexico"". Province alone is sufficient here because target includes province+country, and per criteria, province suffices to point to the same entity.  
- Score: 1  

**idx_8**  
response: ""veracruz""  
target: ""veracruz,mexico""  
- Same logic as idx_7, correct.  
- Score: 1  

**idx_9**  
response: ""philadelphia""  
target: ""philadelphia,commonwealthofpennsylvania""  
- City alone is sufficient, matches target.  
- Score: 1  

**idx_10**  
response: ""alaska""  
target: ""yukonterritory(canada)andalaska(usa)andprovinceofbritishcolumbia(canada)""  
- Target includes 3 locations: Yukon Territory, Alaska, British Columbia  
- Response includes only ""Alaska""  
- Multiple addresses in target, all must be matched. Missing Yukon and British Columbia.  
- Score: 0  

**idx_11**  
response: ""newyorkcity""  
target: ""newyork,newyork""  
- Response gives ""newyorkcity"", target gives ""new york city, new york"" (state). City corresponds exactly.  
- Score: 1  

**idx_12**  
response: ""charlottesville""  
target: ""albemarlecounty,virginia""  
- Target is county + state. Response is city. Are these the same entity?  
- Albemarle County contains Charlottesville, but they are not the same entity.  
- Response points to a city inside the target's county. Does this count as ""same entity""?  
- Criteria says ""semantics approximately the same or point to the same entity."" Here city and county are related but different entities. “Charlottesville” is an independent city sometimes politically separate from Albemarle County in Virginia. So they are not the same, and response does not mention county.  
- Province alone is insufficient, and city different from county.  
- Score: 0  

---

### Final scoring in JSON:

```json
{
    ""idx_0"": 0,
    ""idx_1"": 0,
    ""idx_2"": 0,
    ""idx_3"": 1,
    ""idx_4"": 1,
    ""idx_5"": 1,
    ""idx_6"": 0,
    ""idx_7"": 1,
    ""idx_8"": 1,
    ""idx_9"": 1,
    ""idx_10"": 0,
    ""idx_11"": 1,
    ""idx_12"": 0
}
```
","albertaandnorthwestterritories,canada",alberta,1.0,key_match,1.0,"Let's analyze each item based on the criterion:
> It is sufficient if the semantics are approximately the same as the reference answer or if they point to the same entity.

Here, the responses are single words identifying a type: ""natural,"" ""cultural,"" or ""mixed.""

**Step-by-step analysis:**

- idx_0: response = ""natural"", target = ""natural""  
  They match exactly → score 1

- idx_1: response = ""cultural"", target = ""cultural""  
  They match exactly → score 1

- idx_2: response = ""natural"", target = ""natural""  
  They match exactly → score 1

- idx_3: response = ""natural"", target = ""natural""  
  They match exactly → score 1

- idx_4: response = ""cultural"", target = ""cultural""  
  They match exactly → score 1

- idx_5: response = ""cultural"", target = ""natural""  
  Different categories → score 0

- idx_6: response = ""cultural"", target = ""cultural""  
  They match exactly → score 1

- idx_7: response = ""cultural"", target = ""cultural""  
  They match exactly → score 1

- idx_8: response = ""cultural"", target = ""cultural""  
  They match exactly → score 1

- idx_9: response = ""cultural"", target = ""cultural""  
  They match exactly → score 1

- idx_10: response = ""mixed"", target = ""natural""  
  Different categories; mixed is a different entity from natural → score 0

- idx_11: response = ""cultural"", target = ""cultural""  
  They match exactly → score 1

- idx_12: response = ""cultural"", target = ""cultural""  
  They match exactly → score 1

---

**Final scoring results in JSON format:**

```json
{
  ""idx_0"": 1,
  ""idx_1"": 1,
  ""idx_2"": 1,
  ""idx_3"": 1,
  ""idx_4"": 1,
  ""idx_5"": 0,
  ""idx_6"": 1,
  ""idx_7"": 1,
  ""idx_8"": 1,
  ""idx_9"": 1,
  ""idx_10"": 0,
  ""idx_11"": 1,
  ""idx_12"": 1
}
```",natural,natural,1.0,"exact match, response: 1983, target: 1983",1983,1983
,,canadianrockymountainparks,Canadian Rocky Mountain Parks,0.0,"number not convertable, response: None, target: 2360000.0",2360000,NULL,1.0,"Let's analyze each idx item step by step.

**idx_0 to idx_4**  
- Response: ""canada""  
- Target: ""canada""  
- They are identical in semantics (same entity). Score = 1

**idx_5 to idx_8**  
- Response: ""mexico""  
- Target: ""mexico""  
- Identical. Score = 1

**idx_9**  
- Response: ""usa""  
- Target: ""unitedstatesofamerica""  
- Semantics are approximately the same (USA = United States of America). Score = 1

**idx_10**  
- Response: ""usa""  
- Target: ""canada,unitedstatesofamerica""  
- The target answer includes ""canada"" and ""unitedstatesofamerica"" (two entities). Response only has ""usa"" (equivalent to United States of America). Since the response points only one of the two entities, not both, it is incomplete relative to the target. According to the criterion, the semantics should point to the same entity/entities. The response only covers part of the target.  
- Therefore response is partially correct but partial answers do not get partial credit as per the scoring rules (0 or 1 only).  
- Score = 0

**idx_11**  
- Response: ""usa""  
- Target: ""unitedstatesofamerica""  
- Same semantics. Score = 1

**idx_12**  
- Response: ""usa""  
- Target: ""unitedstatesofamerica""  
- Same semantics. Score = 1

---

### Final scores:
```json
{
  ""idx_0"": 1,
  ""idx_1"": 1,
  ""idx_2"": 1,
  ""idx_3"": 1,
  ""idx_4"": 1,
  ""idx_5"": 1,
  ""idx_6"": 1,
  ""idx_7"": 1,
  ""idx_8"": 1,
  ""idx_9"": 1,
  ""idx_10"": 0,
  ""idx_11"": 1,
  ""idx_12"": 1
}
```",canada,canada,1.0,"Let's analyze each pair according to the provided grading criteria:

Criteria recap:  
- Semantics approximately the same or pointing to the same entity suffices.  
- If multiple locations are listed, all must correspond (main city/county is enough, province alone is not sufficient).  

---

**idx_0**  
response: ""alberta""  
target: ""countyofnewell,alberta""  
- Response gives only the province (alberta), target gives a specific county (countyofnewell) within Alberta.  
- According to criteria, province alone is insufficient if target includes more specific location (county). Here province only -> insufficient.  
- Score: 0  

**idx_1**  
response: ""alberta""  
target: ""fortmacleod,alberta""  
- Same as idx_0. Target is city/region + province; response only province = insufficient.  
- Score: 0  

**idx_2**  
response: ""alberta""  
target: ""albertaandnorthwestterritories,canada""  
- Target includes two entities: ""alberta"" and ""northwest territories"". Response includes only one of them (""alberta"").  
- Because multiple addresses included in target, all must correspond. Missing ""northwest territories"".  
- Score: 0  

**idx_3**  
response: ""britishcolumbia,alberta""  
target: ""albertaandbritishcolumbia""  
- Both specify the same two provinces, just reverse order and with different conjunction. Semantics match.  
- Score: 1  

**idx_4**  
response: ""québeccity""  
target: ""cityofquebec""  
- Semantics directly correspond. Correct.  
- Score: 1  

**idx_5**  
response: ""mexicocity""  
target: ""mexicocity""  
- Identical  
- Score: 1  

**idx_6**  
response: ""chiapas""  
target: ""palenque,chiapas,mexico""  
- Target is a city (Palenque) in Chiapas in Mexico; response gives only state (chiapas). The city is more specific, response only state.  
- Is province/state alone sufficient for a specific city? No. Therefore response is insufficient.  
- Score: 0  

**idx_7**  
response: ""yucatán""  
target: ""yucatán,mexico""  
- Response gives ""yucatán"" (state), target gives ""yucatán,mexico"". Province alone is sufficient here because target includes province+country, and per criteria, province suffices to point to the same entity.  
- Score: 1  

**idx_8**  
response: ""veracruz""  
target: ""veracruz,mexico""  
- Same logic as idx_7, correct.  
- Score: 1  

**idx_9**  
response: ""philadelphia""  
target: ""philadelphia,commonwealthofpennsylvania""  
- City alone is sufficient, matches target.  
- Score: 1  

**idx_10**  
response: ""alaska""  
target: ""yukonterritory(canada)andalaska(usa)andprovinceofbritishcolumbia(canada)""  
- Target includes 3 locations: Yukon Territory, Alaska, British Columbia  
- Response includes only ""Alaska""  
- Multiple addresses in target, all must be matched. Missing Yukon and British Columbia.  
- Score: 0  

**idx_11**  
response: ""newyorkcity""  
target: ""newyork,newyork""  
- Response gives ""newyorkcity"", target gives ""new york city, new york"" (state). City corresponds exactly.  
- Score: 1  

**idx_12**  
response: ""charlottesville""  
target: ""albemarlecounty,virginia""  
- Target is county + state. Response is city. Are these the same entity?  
- Albemarle County contains Charlottesville, but they are not the same entity.  
- Response points to a city inside the target's county. Does this count as ""same entity""?  
- Criteria says ""semantics approximately the same or point to the same entity."" Here city and county are related but different entities. “Charlottesville” is an independent city sometimes politically separate from Albemarle County in Virginia. So they are not the same, and response does not mention county.  
- Province alone is insufficient, and city different from county.  
- Score: 0  

---

### Final scoring in JSON:

```json
{
    ""idx_0"": 0,
    ""idx_1"": 0,
    ""idx_2"": 0,
    ""idx_3"": 1,
    ""idx_4"": 1,
    ""idx_5"": 1,
    ""idx_6"": 0,
    ""idx_7"": 1,
    ""idx_8"": 1,
    ""idx_9"": 1,
    ""idx_10"": 0,
    ""idx_11"": 1,
    ""idx_12"": 0
}
```
",albertaandbritishcolumbia,"britishcolumbia,alberta",1.0,key_match,1.0,"Let's analyze each item based on the criterion:
> It is sufficient if the semantics are approximately the same as the reference answer or if they point to the same entity.

Here, the responses are single words identifying a type: ""natural,"" ""cultural,"" or ""mixed.""

**Step-by-step analysis:**

- idx_0: response = ""natural"", target = ""natural""  
  They match exactly → score 1

- idx_1: response = ""cultural"", target = ""cultural""  
  They match exactly → score 1

- idx_2: response = ""natural"", target = ""natural""  
  They match exactly → score 1

- idx_3: response = ""natural"", target = ""natural""  
  They match exactly → score 1

- idx_4: response = ""cultural"", target = ""cultural""  
  They match exactly → score 1

- idx_5: response = ""cultural"", target = ""natural""  
  Different categories → score 0

- idx_6: response = ""cultural"", target = ""cultural""  
  They match exactly → score 1

- idx_7: response = ""cultural"", target = ""cultural""  
  They match exactly → score 1

- idx_8: response = ""cultural"", target = ""cultural""  
  They match exactly → score 1

- idx_9: response = ""cultural"", target = ""cultural""  
  They match exactly → score 1

- idx_10: response = ""mixed"", target = ""natural""  
  Different categories; mixed is a different entity from natural → score 0

- idx_11: response = ""cultural"", target = ""cultural""  
  They match exactly → score 1

- idx_12: response = ""cultural"", target = ""cultural""  
  They match exactly → score 1

---

**Final scoring results in JSON format:**

```json
{
  ""idx_0"": 1,
  ""idx_1"": 1,
  ""idx_2"": 1,
  ""idx_3"": 1,
  ""idx_4"": 1,
  ""idx_5"": 0,
  ""idx_6"": 1,
  ""idx_7"": 1,
  ""idx_8"": 1,
  ""idx_9"": 1,
  ""idx_10"": 0,
  ""idx_11"": 1,
  ""idx_12"": 1
}
```",natural,natural,1.0,"exact match, response: 1984, target: 1984",1984,1984
,,historicdistrictofoldquébec,Historic District of Old Québec,0.0,"number not convertable, response: None, target: 135.0",135,NULL,1.0,"Let's analyze each idx item step by step.

**idx_0 to idx_4**  
- Response: ""canada""  
- Target: ""canada""  
- They are identical in semantics (same entity). Score = 1

**idx_5 to idx_8**  
- Response: ""mexico""  
- Target: ""mexico""  
- Identical. Score = 1

**idx_9**  
- Response: ""usa""  
- Target: ""unitedstatesofamerica""  
- Semantics are approximately the same (USA = United States of America). Score = 1

**idx_10**  
- Response: ""usa""  
- Target: ""canada,unitedstatesofamerica""  
- The target answer includes ""canada"" and ""unitedstatesofamerica"" (two entities). Response only has ""usa"" (equivalent to United States of America). Since the response points only one of the two entities, not both, it is incomplete relative to the target. According to the criterion, the semantics should point to the same entity/entities. The response only covers part of the target.  
- Therefore response is partially correct but partial answers do not get partial credit as per the scoring rules (0 or 1 only).  
- Score = 0

**idx_11**  
- Response: ""usa""  
- Target: ""unitedstatesofamerica""  
- Same semantics. Score = 1

**idx_12**  
- Response: ""usa""  
- Target: ""unitedstatesofamerica""  
- Same semantics. Score = 1

---

### Final scores:
```json
{
  ""idx_0"": 1,
  ""idx_1"": 1,
  ""idx_2"": 1,
  ""idx_3"": 1,
  ""idx_4"": 1,
  ""idx_5"": 1,
  ""idx_6"": 1,
  ""idx_7"": 1,
  ""idx_8"": 1,
  ""idx_9"": 1,
  ""idx_10"": 0,
  ""idx_11"": 1,
  ""idx_12"": 1
}
```",canada,canada,1.0,"Let's analyze each pair according to the provided grading criteria:

Criteria recap:  
- Semantics approximately the same or pointing to the same entity suffices.  
- If multiple locations are listed, all must correspond (main city/county is enough, province alone is not sufficient).  

---

**idx_0**  
response: ""alberta""  
target: ""countyofnewell,alberta""  
- Response gives only the province (alberta), target gives a specific county (countyofnewell) within Alberta.  
- According to criteria, province alone is insufficient if target includes more specific location (county). Here province only -> insufficient.  
- Score: 0  

**idx_1**  
response: ""alberta""  
target: ""fortmacleod,alberta""  
- Same as idx_0. Target is city/region + province; response only province = insufficient.  
- Score: 0  

**idx_2**  
response: ""alberta""  
target: ""albertaandnorthwestterritories,canada""  
- Target includes two entities: ""alberta"" and ""northwest territories"". Response includes only one of them (""alberta"").  
- Because multiple addresses included in target, all must correspond. Missing ""northwest territories"".  
- Score: 0  

**idx_3**  
response: ""britishcolumbia,alberta""  
target: ""albertaandbritishcolumbia""  
- Both specify the same two provinces, just reverse order and with different conjunction. Semantics match.  
- Score: 1  

**idx_4**  
response: ""québeccity""  
target: ""cityofquebec""  
- Semantics directly correspond. Correct.  
- Score: 1  

**idx_5**  
response: ""mexicocity""  
target: ""mexicocity""  
- Identical  
- Score: 1  

**idx_6**  
response: ""chiapas""  
target: ""palenque,chiapas,mexico""  
- Target is a city (Palenque) in Chiapas in Mexico; response gives only state (chiapas). The city is more specific, response only state.  
- Is province/state alone sufficient for a specific city? No. Therefore response is insufficient.  
- Score: 0  

**idx_7**  
response: ""yucatán""  
target: ""yucatán,mexico""  
- Response gives ""yucatán"" (state), target gives ""yucatán,mexico"". Province alone is sufficient here because target includes province+country, and per criteria, province suffices to point to the same entity.  
- Score: 1  

**idx_8**  
response: ""veracruz""  
target: ""veracruz,mexico""  
- Same logic as idx_7, correct.  
- Score: 1  

**idx_9**  
response: ""philadelphia""  
target: ""philadelphia,commonwealthofpennsylvania""  
- City alone is sufficient, matches target.  
- Score: 1  

**idx_10**  
response: ""alaska""  
target: ""yukonterritory(canada)andalaska(usa)andprovinceofbritishcolumbia(canada)""  
- Target includes 3 locations: Yukon Territory, Alaska, British Columbia  
- Response includes only ""Alaska""  
- Multiple addresses in target, all must be matched. Missing Yukon and British Columbia.  
- Score: 0  

**idx_11**  
response: ""newyorkcity""  
target: ""newyork,newyork""  
- Response gives ""newyorkcity"", target gives ""new york city, new york"" (state). City corresponds exactly.  
- Score: 1  

**idx_12**  
response: ""charlottesville""  
target: ""albemarlecounty,virginia""  
- Target is county + state. Response is city. Are these the same entity?  
- Albemarle County contains Charlottesville, but they are not the same entity.  
- Response points to a city inside the target's county. Does this count as ""same entity""?  
- Criteria says ""semantics approximately the same or point to the same entity."" Here city and county are related but different entities. “Charlottesville” is an independent city sometimes politically separate from Albemarle County in Virginia. So they are not the same, and response does not mention county.  
- Province alone is insufficient, and city different from county.  
- Score: 0  

---

### Final scoring in JSON:

```json
{
    ""idx_0"": 0,
    ""idx_1"": 0,
    ""idx_2"": 0,
    ""idx_3"": 1,
    ""idx_4"": 1,
    ""idx_5"": 1,
    ""idx_6"": 0,
    ""idx_7"": 1,
    ""idx_8"": 1,
    ""idx_9"": 1,
    ""idx_10"": 0,
    ""idx_11"": 1,
    ""idx_12"": 0
}
```
",cityofquebec,québeccity,1.0,key_match,1.0,"Let's analyze each item based on the criterion:
> It is sufficient if the semantics are approximately the same as the reference answer or if they point to the same entity.

Here, the responses are single words identifying a type: ""natural,"" ""cultural,"" or ""mixed.""

**Step-by-step analysis:**

- idx_0: response = ""natural"", target = ""natural""  
  They match exactly → score 1

- idx_1: response = ""cultural"", target = ""cultural""  
  They match exactly → score 1

- idx_2: response = ""natural"", target = ""natural""  
  They match exactly → score 1

- idx_3: response = ""natural"", target = ""natural""  
  They match exactly → score 1

- idx_4: response = ""cultural"", target = ""cultural""  
  They match exactly → score 1

- idx_5: response = ""cultural"", target = ""natural""  
  Different categories → score 0

- idx_6: response = ""cultural"", target = ""cultural""  
  They match exactly → score 1

- idx_7: response = ""cultural"", target = ""cultural""  
  They match exactly → score 1

- idx_8: response = ""cultural"", target = ""cultural""  
  They match exactly → score 1

- idx_9: response = ""cultural"", target = ""cultural""  
  They match exactly → score 1

- idx_10: response = ""mixed"", target = ""natural""  
  Different categories; mixed is a different entity from natural → score 0

- idx_11: response = ""cultural"", target = ""cultural""  
  They match exactly → score 1

- idx_12: response = ""cultural"", target = ""cultural""  
  They match exactly → score 1

---

**Final scoring results in JSON format:**

```json
{
  ""idx_0"": 1,
  ""idx_1"": 1,
  ""idx_2"": 1,
  ""idx_3"": 1,
  ""idx_4"": 1,
  ""idx_5"": 0,
  ""idx_6"": 1,
  ""idx_7"": 1,
  ""idx_8"": 1,
  ""idx_9"": 1,
  ""idx_10"": 0,
  ""idx_11"": 1,
  ""idx_12"": 1
}
```",cultural,cultural,1.0,"exact match, response: 1985, target: 1985",1985,1985
,,historiccentreofmexicocityandxochimilco,Historic Centre of Mexico City and Xochimilco,0.0,"number not convertable, response: None, target: 3010.86",3010.86,NULL,1.0,"Let's analyze each idx item step by step.

**idx_0 to idx_4**  
- Response: ""canada""  
- Target: ""canada""  
- They are identical in semantics (same entity). Score = 1

**idx_5 to idx_8**  
- Response: ""mexico""  
- Target: ""mexico""  
- Identical. Score = 1

**idx_9**  
- Response: ""usa""  
- Target: ""unitedstatesofamerica""  
- Semantics are approximately the same (USA = United States of America). Score = 1

**idx_10**  
- Response: ""usa""  
- Target: ""canada,unitedstatesofamerica""  
- The target answer includes ""canada"" and ""unitedstatesofamerica"" (two entities). Response only has ""usa"" (equivalent to United States of America). Since the response points only one of the two entities, not both, it is incomplete relative to the target. According to the criterion, the semantics should point to the same entity/entities. The response only covers part of the target.  
- Therefore response is partially correct but partial answers do not get partial credit as per the scoring rules (0 or 1 only).  
- Score = 0

**idx_11**  
- Response: ""usa""  
- Target: ""unitedstatesofamerica""  
- Same semantics. Score = 1

**idx_12**  
- Response: ""usa""  
- Target: ""unitedstatesofamerica""  
- Same semantics. Score = 1

---

### Final scores:
```json
{
  ""idx_0"": 1,
  ""idx_1"": 1,
  ""idx_2"": 1,
  ""idx_3"": 1,
  ""idx_4"": 1,
  ""idx_5"": 1,
  ""idx_6"": 1,
  ""idx_7"": 1,
  ""idx_8"": 1,
  ""idx_9"": 1,
  ""idx_10"": 0,
  ""idx_11"": 1,
  ""idx_12"": 1
}
```",mexico,mexico,1.0,"Let's analyze each pair according to the provided grading criteria:

Criteria recap:  
- Semantics approximately the same or pointing to the same entity suffices.  
- If multiple locations are listed, all must correspond (main city/county is enough, province alone is not sufficient).  

---

**idx_0**  
response: ""alberta""  
target: ""countyofnewell,alberta""  
- Response gives only the province (alberta), target gives a specific county (countyofnewell) within Alberta.  
- According to criteria, province alone is insufficient if target includes more specific location (county). Here province only -> insufficient.  
- Score: 0  

**idx_1**  
response: ""alberta""  
target: ""fortmacleod,alberta""  
- Same as idx_0. Target is city/region + province; response only province = insufficient.  
- Score: 0  

**idx_2**  
response: ""alberta""  
target: ""albertaandnorthwestterritories,canada""  
- Target includes two entities: ""alberta"" and ""northwest territories"". Response includes only one of them (""alberta"").  
- Because multiple addresses included in target, all must correspond. Missing ""northwest territories"".  
- Score: 0  

**idx_3**  
response: ""britishcolumbia,alberta""  
target: ""albertaandbritishcolumbia""  
- Both specify the same two provinces, just reverse order and with different conjunction. Semantics match.  
- Score: 1  

**idx_4**  
response: ""québeccity""  
target: ""cityofquebec""  
- Semantics directly correspond. Correct.  
- Score: 1  

**idx_5**  
response: ""mexicocity""  
target: ""mexicocity""  
- Identical  
- Score: 1  

**idx_6**  
response: ""chiapas""  
target: ""palenque,chiapas,mexico""  
- Target is a city (Palenque) in Chiapas in Mexico; response gives only state (chiapas). The city is more specific, response only state.  
- Is province/state alone sufficient for a specific city? No. Therefore response is insufficient.  
- Score: 0  

**idx_7**  
response: ""yucatán""  
target: ""yucatán,mexico""  
- Response gives ""yucatán"" (state), target gives ""yucatán,mexico"". Province alone is sufficient here because target includes province+country, and per criteria, province suffices to point to the same entity.  
- Score: 1  

**idx_8**  
response: ""veracruz""  
target: ""veracruz,mexico""  
- Same logic as idx_7, correct.  
- Score: 1  

**idx_9**  
response: ""philadelphia""  
target: ""philadelphia,commonwealthofpennsylvania""  
- City alone is sufficient, matches target.  
- Score: 1  

**idx_10**  
response: ""alaska""  
target: ""yukonterritory(canada)andalaska(usa)andprovinceofbritishcolumbia(canada)""  
- Target includes 3 locations: Yukon Territory, Alaska, British Columbia  
- Response includes only ""Alaska""  
- Multiple addresses in target, all must be matched. Missing Yukon and British Columbia.  
- Score: 0  

**idx_11**  
response: ""newyorkcity""  
target: ""newyork,newyork""  
- Response gives ""newyorkcity"", target gives ""new york city, new york"" (state). City corresponds exactly.  
- Score: 1  

**idx_12**  
response: ""charlottesville""  
target: ""albemarlecounty,virginia""  
- Target is county + state. Response is city. Are these the same entity?  
- Albemarle County contains Charlottesville, but they are not the same entity.  
- Response points to a city inside the target's county. Does this count as ""same entity""?  
- Criteria says ""semantics approximately the same or point to the same entity."" Here city and county are related but different entities. “Charlottesville” is an independent city sometimes politically separate from Albemarle County in Virginia. So they are not the same, and response does not mention county.  
- Province alone is insufficient, and city different from county.  
- Score: 0  

---

### Final scoring in JSON:

```json
{
    ""idx_0"": 0,
    ""idx_1"": 0,
    ""idx_2"": 0,
    ""idx_3"": 1,
    ""idx_4"": 1,
    ""idx_5"": 1,
    ""idx_6"": 0,
    ""idx_7"": 1,
    ""idx_8"": 1,
    ""idx_9"": 1,
    ""idx_10"": 0,
    ""idx_11"": 1,
    ""idx_12"": 0
}
```
",mexicocity,mexicocity,1.0,key_match,0.0,"Let's analyze each item based on the criterion:
> It is sufficient if the semantics are approximately the same as the reference answer or if they point to the same entity.

Here, the responses are single words identifying a type: ""natural,"" ""cultural,"" or ""mixed.""

**Step-by-step analysis:**

- idx_0: response = ""natural"", target = ""natural""  
  They match exactly → score 1

- idx_1: response = ""cultural"", target = ""cultural""  
  They match exactly → score 1

- idx_2: response = ""natural"", target = ""natural""  
  They match exactly → score 1

- idx_3: response = ""natural"", target = ""natural""  
  They match exactly → score 1

- idx_4: response = ""cultural"", target = ""cultural""  
  They match exactly → score 1

- idx_5: response = ""cultural"", target = ""natural""  
  Different categories → score 0

- idx_6: response = ""cultural"", target = ""cultural""  
  They match exactly → score 1

- idx_7: response = ""cultural"", target = ""cultural""  
  They match exactly → score 1

- idx_8: response = ""cultural"", target = ""cultural""  
  They match exactly → score 1

- idx_9: response = ""cultural"", target = ""cultural""  
  They match exactly → score 1

- idx_10: response = ""mixed"", target = ""natural""  
  Different categories; mixed is a different entity from natural → score 0

- idx_11: response = ""cultural"", target = ""cultural""  
  They match exactly → score 1

- idx_12: response = ""cultural"", target = ""cultural""  
  They match exactly → score 1

---

**Final scoring results in JSON format:**

```json
{
  ""idx_0"": 1,
  ""idx_1"": 1,
  ""idx_2"": 1,
  ""idx_3"": 1,
  ""idx_4"": 1,
  ""idx_5"": 0,
  ""idx_6"": 1,
  ""idx_7"": 1,
  ""idx_8"": 1,
  ""idx_9"": 1,
  ""idx_10"": 0,
  ""idx_11"": 1,
  ""idx_12"": 1
}
```",natural,cultural,1.0,"exact match, response: 1987, target: 1987",1987,1987
,,pre-hispaniccityandnationalparkofpalenque,Palenque,0.0,"number not convertable, response: None, target: 1772.0",1772,NULL,1.0,"Let's analyze each idx item step by step.

**idx_0 to idx_4**  
- Response: ""canada""  
- Target: ""canada""  
- They are identical in semantics (same entity). Score = 1

**idx_5 to idx_8**  
- Response: ""mexico""  
- Target: ""mexico""  
- Identical. Score = 1

**idx_9**  
- Response: ""usa""  
- Target: ""unitedstatesofamerica""  
- Semantics are approximately the same (USA = United States of America). Score = 1

**idx_10**  
- Response: ""usa""  
- Target: ""canada,unitedstatesofamerica""  
- The target answer includes ""canada"" and ""unitedstatesofamerica"" (two entities). Response only has ""usa"" (equivalent to United States of America). Since the response points only one of the two entities, not both, it is incomplete relative to the target. According to the criterion, the semantics should point to the same entity/entities. The response only covers part of the target.  
- Therefore response is partially correct but partial answers do not get partial credit as per the scoring rules (0 or 1 only).  
- Score = 0

**idx_11**  
- Response: ""usa""  
- Target: ""unitedstatesofamerica""  
- Same semantics. Score = 1

**idx_12**  
- Response: ""usa""  
- Target: ""unitedstatesofamerica""  
- Same semantics. Score = 1

---

### Final scores:
```json
{
  ""idx_0"": 1,
  ""idx_1"": 1,
  ""idx_2"": 1,
  ""idx_3"": 1,
  ""idx_4"": 1,
  ""idx_5"": 1,
  ""idx_6"": 1,
  ""idx_7"": 1,
  ""idx_8"": 1,
  ""idx_9"": 1,
  ""idx_10"": 0,
  ""idx_11"": 1,
  ""idx_12"": 1
}
```",mexico,mexico,0.0,"Let's analyze each pair according to the provided grading criteria:

Criteria recap:  
- Semantics approximately the same or pointing to the same entity suffices.  
- If multiple locations are listed, all must correspond (main city/county is enough, province alone is not sufficient).  

---

**idx_0**  
response: ""alberta""  
target: ""countyofnewell,alberta""  
- Response gives only the province (alberta), target gives a specific county (countyofnewell) within Alberta.  
- According to criteria, province alone is insufficient if target includes more specific location (county). Here province only -> insufficient.  
- Score: 0  

**idx_1**  
response: ""alberta""  
target: ""fortmacleod,alberta""  
- Same as idx_0. Target is city/region + province; response only province = insufficient.  
- Score: 0  

**idx_2**  
response: ""alberta""  
target: ""albertaandnorthwestterritories,canada""  
- Target includes two entities: ""alberta"" and ""northwest territories"". Response includes only one of them (""alberta"").  
- Because multiple addresses included in target, all must correspond. Missing ""northwest territories"".  
- Score: 0  

**idx_3**  
response: ""britishcolumbia,alberta""  
target: ""albertaandbritishcolumbia""  
- Both specify the same two provinces, just reverse order and with different conjunction. Semantics match.  
- Score: 1  

**idx_4**  
response: ""québeccity""  
target: ""cityofquebec""  
- Semantics directly correspond. Correct.  
- Score: 1  

**idx_5**  
response: ""mexicocity""  
target: ""mexicocity""  
- Identical  
- Score: 1  

**idx_6**  
response: ""chiapas""  
target: ""palenque,chiapas,mexico""  
- Target is a city (Palenque) in Chiapas in Mexico; response gives only state (chiapas). The city is more specific, response only state.  
- Is province/state alone sufficient for a specific city? No. Therefore response is insufficient.  
- Score: 0  

**idx_7**  
response: ""yucatán""  
target: ""yucatán,mexico""  
- Response gives ""yucatán"" (state), target gives ""yucatán,mexico"". Province alone is sufficient here because target includes province+country, and per criteria, province suffices to point to the same entity.  
- Score: 1  

**idx_8**  
response: ""veracruz""  
target: ""veracruz,mexico""  
- Same logic as idx_7, correct.  
- Score: 1  

**idx_9**  
response: ""philadelphia""  
target: ""philadelphia,commonwealthofpennsylvania""  
- City alone is sufficient, matches target.  
- Score: 1  

**idx_10**  
response: ""alaska""  
target: ""yukonterritory(canada)andalaska(usa)andprovinceofbritishcolumbia(canada)""  
- Target includes 3 locations: Yukon Territory, Alaska, British Columbia  
- Response includes only ""Alaska""  
- Multiple addresses in target, all must be matched. Missing Yukon and British Columbia.  
- Score: 0  

**idx_11**  
response: ""newyorkcity""  
target: ""newyork,newyork""  
- Response gives ""newyorkcity"", target gives ""new york city, new york"" (state). City corresponds exactly.  
- Score: 1  

**idx_12**  
response: ""charlottesville""  
target: ""albemarlecounty,virginia""  
- Target is county + state. Response is city. Are these the same entity?  
- Albemarle County contains Charlottesville, but they are not the same entity.  
- Response points to a city inside the target's county. Does this count as ""same entity""?  
- Criteria says ""semantics approximately the same or point to the same entity."" Here city and county are related but different entities. “Charlottesville” is an independent city sometimes politically separate from Albemarle County in Virginia. So they are not the same, and response does not mention county.  
- Province alone is insufficient, and city different from county.  
- Score: 0  

---

### Final scoring in JSON:

```json
{
    ""idx_0"": 0,
    ""idx_1"": 0,
    ""idx_2"": 0,
    ""idx_3"": 1,
    ""idx_4"": 1,
    ""idx_5"": 1,
    ""idx_6"": 0,
    ""idx_7"": 1,
    ""idx_8"": 1,
    ""idx_9"": 1,
    ""idx_10"": 0,
    ""idx_11"": 1,
    ""idx_12"": 0
}
```
","palenque,chiapas,mexico",chiapas,1.0,key_match,1.0,"Let's analyze each item based on the criterion:
> It is sufficient if the semantics are approximately the same as the reference answer or if they point to the same entity.

Here, the responses are single words identifying a type: ""natural,"" ""cultural,"" or ""mixed.""

**Step-by-step analysis:**

- idx_0: response = ""natural"", target = ""natural""  
  They match exactly → score 1

- idx_1: response = ""cultural"", target = ""cultural""  
  They match exactly → score 1

- idx_2: response = ""natural"", target = ""natural""  
  They match exactly → score 1

- idx_3: response = ""natural"", target = ""natural""  
  They match exactly → score 1

- idx_4: response = ""cultural"", target = ""cultural""  
  They match exactly → score 1

- idx_5: response = ""cultural"", target = ""natural""  
  Different categories → score 0

- idx_6: response = ""cultural"", target = ""cultural""  
  They match exactly → score 1

- idx_7: response = ""cultural"", target = ""cultural""  
  They match exactly → score 1

- idx_8: response = ""cultural"", target = ""cultural""  
  They match exactly → score 1

- idx_9: response = ""cultural"", target = ""cultural""  
  They match exactly → score 1

- idx_10: response = ""mixed"", target = ""natural""  
  Different categories; mixed is a different entity from natural → score 0

- idx_11: response = ""cultural"", target = ""cultural""  
  They match exactly → score 1

- idx_12: response = ""cultural"", target = ""cultural""  
  They match exactly → score 1

---

**Final scoring results in JSON format:**

```json
{
  ""idx_0"": 1,
  ""idx_1"": 1,
  ""idx_2"": 1,
  ""idx_3"": 1,
  ""idx_4"": 1,
  ""idx_5"": 0,
  ""idx_6"": 1,
  ""idx_7"": 1,
  ""idx_8"": 1,
  ""idx_9"": 1,
  ""idx_10"": 0,
  ""idx_11"": 1,
  ""idx_12"": 1
}
```",cultural,cultural,1.0,"exact match, response: 1987, target: 1987",1987,1987
,,pre-hispaniccityofchichen-itza,Chichen Itza,0.0,"number not convertable, response: None, target: 1000.0",1000,NULL,1.0,"Let's analyze each idx item step by step.

**idx_0 to idx_4**  
- Response: ""canada""  
- Target: ""canada""  
- They are identical in semantics (same entity). Score = 1

**idx_5 to idx_8**  
- Response: ""mexico""  
- Target: ""mexico""  
- Identical. Score = 1

**idx_9**  
- Response: ""usa""  
- Target: ""unitedstatesofamerica""  
- Semantics are approximately the same (USA = United States of America). Score = 1

**idx_10**  
- Response: ""usa""  
- Target: ""canada,unitedstatesofamerica""  
- The target answer includes ""canada"" and ""unitedstatesofamerica"" (two entities). Response only has ""usa"" (equivalent to United States of America). Since the response points only one of the two entities, not both, it is incomplete relative to the target. According to the criterion, the semantics should point to the same entity/entities. The response only covers part of the target.  
- Therefore response is partially correct but partial answers do not get partial credit as per the scoring rules (0 or 1 only).  
- Score = 0

**idx_11**  
- Response: ""usa""  
- Target: ""unitedstatesofamerica""  
- Same semantics. Score = 1

**idx_12**  
- Response: ""usa""  
- Target: ""unitedstatesofamerica""  
- Same semantics. Score = 1

---

### Final scores:
```json
{
  ""idx_0"": 1,
  ""idx_1"": 1,
  ""idx_2"": 1,
  ""idx_3"": 1,
  ""idx_4"": 1,
  ""idx_5"": 1,
  ""idx_6"": 1,
  ""idx_7"": 1,
  ""idx_8"": 1,
  ""idx_9"": 1,
  ""idx_10"": 0,
  ""idx_11"": 1,
  ""idx_12"": 1
}
```",mexico,mexico,1.0,"Let's analyze each pair according to the provided grading criteria:

Criteria recap:  
- Semantics approximately the same or pointing to the same entity suffices.  
- If multiple locations are listed, all must correspond (main city/county is enough, province alone is not sufficient).  

---

**idx_0**  
response: ""alberta""  
target: ""countyofnewell,alberta""  
- Response gives only the province (alberta), target gives a specific county (countyofnewell) within Alberta.  
- According to criteria, province alone is insufficient if target includes more specific location (county). Here province only -> insufficient.  
- Score: 0  

**idx_1**  
response: ""alberta""  
target: ""fortmacleod,alberta""  
- Same as idx_0. Target is city/region + province; response only province = insufficient.  
- Score: 0  

**idx_2**  
response: ""alberta""  
target: ""albertaandnorthwestterritories,canada""  
- Target includes two entities: ""alberta"" and ""northwest territories"". Response includes only one of them (""alberta"").  
- Because multiple addresses included in target, all must correspond. Missing ""northwest territories"".  
- Score: 0  

**idx_3**  
response: ""britishcolumbia,alberta""  
target: ""albertaandbritishcolumbia""  
- Both specify the same two provinces, just reverse order and with different conjunction. Semantics match.  
- Score: 1  

**idx_4**  
response: ""québeccity""  
target: ""cityofquebec""  
- Semantics directly correspond. Correct.  
- Score: 1  

**idx_5**  
response: ""mexicocity""  
target: ""mexicocity""  
- Identical  
- Score: 1  

**idx_6**  
response: ""chiapas""  
target: ""palenque,chiapas,mexico""  
- Target is a city (Palenque) in Chiapas in Mexico; response gives only state (chiapas). The city is more specific, response only state.  
- Is province/state alone sufficient for a specific city? No. Therefore response is insufficient.  
- Score: 0  

**idx_7**  
response: ""yucatán""  
target: ""yucatán,mexico""  
- Response gives ""yucatán"" (state), target gives ""yucatán,mexico"". Province alone is sufficient here because target includes province+country, and per criteria, province suffices to point to the same entity.  
- Score: 1  

**idx_8**  
response: ""veracruz""  
target: ""veracruz,mexico""  
- Same logic as idx_7, correct.  
- Score: 1  

**idx_9**  
response: ""philadelphia""  
target: ""philadelphia,commonwealthofpennsylvania""  
- City alone is sufficient, matches target.  
- Score: 1  

**idx_10**  
response: ""alaska""  
target: ""yukonterritory(canada)andalaska(usa)andprovinceofbritishcolumbia(canada)""  
- Target includes 3 locations: Yukon Territory, Alaska, British Columbia  
- Response includes only ""Alaska""  
- Multiple addresses in target, all must be matched. Missing Yukon and British Columbia.  
- Score: 0  

**idx_11**  
response: ""newyorkcity""  
target: ""newyork,newyork""  
- Response gives ""newyorkcity"", target gives ""new york city, new york"" (state). City corresponds exactly.  
- Score: 1  

**idx_12**  
response: ""charlottesville""  
target: ""albemarlecounty,virginia""  
- Target is county + state. Response is city. Are these the same entity?  
- Albemarle County contains Charlottesville, but they are not the same entity.  
- Response points to a city inside the target's county. Does this count as ""same entity""?  
- Criteria says ""semantics approximately the same or point to the same entity."" Here city and county are related but different entities. “Charlottesville” is an independent city sometimes politically separate from Albemarle County in Virginia. So they are not the same, and response does not mention county.  
- Province alone is insufficient, and city different from county.  
- Score: 0  

---

### Final scoring in JSON:

```json
{
    ""idx_0"": 0,
    ""idx_1"": 0,
    ""idx_2"": 0,
    ""idx_3"": 1,
    ""idx_4"": 1,
    ""idx_5"": 1,
    ""idx_6"": 0,
    ""idx_7"": 1,
    ""idx_8"": 1,
    ""idx_9"": 1,
    ""idx_10"": 0,
    ""idx_11"": 1,
    ""idx_12"": 0
}
```
","yucatán,mexico",yucatán,1.0,key_match,1.0,"Let's analyze each item based on the criterion:
> It is sufficient if the semantics are approximately the same as the reference answer or if they point to the same entity.

Here, the responses are single words identifying a type: ""natural,"" ""cultural,"" or ""mixed.""

**Step-by-step analysis:**

- idx_0: response = ""natural"", target = ""natural""  
  They match exactly → score 1

- idx_1: response = ""cultural"", target = ""cultural""  
  They match exactly → score 1

- idx_2: response = ""natural"", target = ""natural""  
  They match exactly → score 1

- idx_3: response = ""natural"", target = ""natural""  
  They match exactly → score 1

- idx_4: response = ""cultural"", target = ""cultural""  
  They match exactly → score 1

- idx_5: response = ""cultural"", target = ""natural""  
  Different categories → score 0

- idx_6: response = ""cultural"", target = ""cultural""  
  They match exactly → score 1

- idx_7: response = ""cultural"", target = ""cultural""  
  They match exactly → score 1

- idx_8: response = ""cultural"", target = ""cultural""  
  They match exactly → score 1

- idx_9: response = ""cultural"", target = ""cultural""  
  They match exactly → score 1

- idx_10: response = ""mixed"", target = ""natural""  
  Different categories; mixed is a different entity from natural → score 0

- idx_11: response = ""cultural"", target = ""cultural""  
  They match exactly → score 1

- idx_12: response = ""cultural"", target = ""cultural""  
  They match exactly → score 1

---

**Final scoring results in JSON format:**

```json
{
  ""idx_0"": 1,
  ""idx_1"": 1,
  ""idx_2"": 1,
  ""idx_3"": 1,
  ""idx_4"": 1,
  ""idx_5"": 0,
  ""idx_6"": 1,
  ""idx_7"": 1,
  ""idx_8"": 1,
  ""idx_9"": 1,
  ""idx_10"": 0,
  ""idx_11"": 1,
  ""idx_12"": 1
}
```",cultural,cultural,1.0,"exact match, response: 1988, target: 1988",1988,1988
,,"eltajin,pre-hispaniccity",El Tajin,0.0,"number not convertable, response: None, target: 240.0",240,NULL,1.0,"Let's analyze each idx item step by step.

**idx_0 to idx_4**  
- Response: ""canada""  
- Target: ""canada""  
- They are identical in semantics (same entity). Score = 1

**idx_5 to idx_8**  
- Response: ""mexico""  
- Target: ""mexico""  
- Identical. Score = 1

**idx_9**  
- Response: ""usa""  
- Target: ""unitedstatesofamerica""  
- Semantics are approximately the same (USA = United States of America). Score = 1

**idx_10**  
- Response: ""usa""  
- Target: ""canada,unitedstatesofamerica""  
- The target answer includes ""canada"" and ""unitedstatesofamerica"" (two entities). Response only has ""usa"" (equivalent to United States of America). Since the response points only one of the two entities, not both, it is incomplete relative to the target. According to the criterion, the semantics should point to the same entity/entities. The response only covers part of the target.  
- Therefore response is partially correct but partial answers do not get partial credit as per the scoring rules (0 or 1 only).  
- Score = 0

**idx_11**  
- Response: ""usa""  
- Target: ""unitedstatesofamerica""  
- Same semantics. Score = 1

**idx_12**  
- Response: ""usa""  
- Target: ""unitedstatesofamerica""  
- Same semantics. Score = 1

---

### Final scores:
```json
{
  ""idx_0"": 1,
  ""idx_1"": 1,
  ""idx_2"": 1,
  ""idx_3"": 1,
  ""idx_4"": 1,
  ""idx_5"": 1,
  ""idx_6"": 1,
  ""idx_7"": 1,
  ""idx_8"": 1,
  ""idx_9"": 1,
  ""idx_10"": 0,
  ""idx_11"": 1,
  ""idx_12"": 1
}
```",mexico,mexico,1.0,"Let's analyze each pair according to the provided grading criteria:

Criteria recap:  
- Semantics approximately the same or pointing to the same entity suffices.  
- If multiple locations are listed, all must correspond (main city/county is enough, province alone is not sufficient).  

---

**idx_0**  
response: ""alberta""  
target: ""countyofnewell,alberta""  
- Response gives only the province (alberta), target gives a specific county (countyofnewell) within Alberta.  
- According to criteria, province alone is insufficient if target includes more specific location (county). Here province only -> insufficient.  
- Score: 0  

**idx_1**  
response: ""alberta""  
target: ""fortmacleod,alberta""  
- Same as idx_0. Target is city/region + province; response only province = insufficient.  
- Score: 0  

**idx_2**  
response: ""alberta""  
target: ""albertaandnorthwestterritories,canada""  
- Target includes two entities: ""alberta"" and ""northwest territories"". Response includes only one of them (""alberta"").  
- Because multiple addresses included in target, all must correspond. Missing ""northwest territories"".  
- Score: 0  

**idx_3**  
response: ""britishcolumbia,alberta""  
target: ""albertaandbritishcolumbia""  
- Both specify the same two provinces, just reverse order and with different conjunction. Semantics match.  
- Score: 1  

**idx_4**  
response: ""québeccity""  
target: ""cityofquebec""  
- Semantics directly correspond. Correct.  
- Score: 1  

**idx_5**  
response: ""mexicocity""  
target: ""mexicocity""  
- Identical  
- Score: 1  

**idx_6**  
response: ""chiapas""  
target: ""palenque,chiapas,mexico""  
- Target is a city (Palenque) in Chiapas in Mexico; response gives only state (chiapas). The city is more specific, response only state.  
- Is province/state alone sufficient for a specific city? No. Therefore response is insufficient.  
- Score: 0  

**idx_7**  
response: ""yucatán""  
target: ""yucatán,mexico""  
- Response gives ""yucatán"" (state), target gives ""yucatán,mexico"". Province alone is sufficient here because target includes province+country, and per criteria, province suffices to point to the same entity.  
- Score: 1  

**idx_8**  
response: ""veracruz""  
target: ""veracruz,mexico""  
- Same logic as idx_7, correct.  
- Score: 1  

**idx_9**  
response: ""philadelphia""  
target: ""philadelphia,commonwealthofpennsylvania""  
- City alone is sufficient, matches target.  
- Score: 1  

**idx_10**  
response: ""alaska""  
target: ""yukonterritory(canada)andalaska(usa)andprovinceofbritishcolumbia(canada)""  
- Target includes 3 locations: Yukon Territory, Alaska, British Columbia  
- Response includes only ""Alaska""  
- Multiple addresses in target, all must be matched. Missing Yukon and British Columbia.  
- Score: 0  

**idx_11**  
response: ""newyorkcity""  
target: ""newyork,newyork""  
- Response gives ""newyorkcity"", target gives ""new york city, new york"" (state). City corresponds exactly.  
- Score: 1  

**idx_12**  
response: ""charlottesville""  
target: ""albemarlecounty,virginia""  
- Target is county + state. Response is city. Are these the same entity?  
- Albemarle County contains Charlottesville, but they are not the same entity.  
- Response points to a city inside the target's county. Does this count as ""same entity""?  
- Criteria says ""semantics approximately the same or point to the same entity."" Here city and county are related but different entities. “Charlottesville” is an independent city sometimes politically separate from Albemarle County in Virginia. So they are not the same, and response does not mention county.  
- Province alone is insufficient, and city different from county.  
- Score: 0  

---

### Final scoring in JSON:

```json
{
    ""idx_0"": 0,
    ""idx_1"": 0,
    ""idx_2"": 0,
    ""idx_3"": 1,
    ""idx_4"": 1,
    ""idx_5"": 1,
    ""idx_6"": 0,
    ""idx_7"": 1,
    ""idx_8"": 1,
    ""idx_9"": 1,
    ""idx_10"": 0,
    ""idx_11"": 1,
    ""idx_12"": 0
}
```
","veracruz,mexico",veracruz,1.0,key_match,1.0,"Let's analyze each item based on the criterion:
> It is sufficient if the semantics are approximately the same as the reference answer or if they point to the same entity.

Here, the responses are single words identifying a type: ""natural,"" ""cultural,"" or ""mixed.""

**Step-by-step analysis:**

- idx_0: response = ""natural"", target = ""natural""  
  They match exactly → score 1

- idx_1: response = ""cultural"", target = ""cultural""  
  They match exactly → score 1

- idx_2: response = ""natural"", target = ""natural""  
  They match exactly → score 1

- idx_3: response = ""natural"", target = ""natural""  
  They match exactly → score 1

- idx_4: response = ""cultural"", target = ""cultural""  
  They match exactly → score 1

- idx_5: response = ""cultural"", target = ""natural""  
  Different categories → score 0

- idx_6: response = ""cultural"", target = ""cultural""  
  They match exactly → score 1

- idx_7: response = ""cultural"", target = ""cultural""  
  They match exactly → score 1

- idx_8: response = ""cultural"", target = ""cultural""  
  They match exactly → score 1

- idx_9: response = ""cultural"", target = ""cultural""  
  They match exactly → score 1

- idx_10: response = ""mixed"", target = ""natural""  
  Different categories; mixed is a different entity from natural → score 0

- idx_11: response = ""cultural"", target = ""cultural""  
  They match exactly → score 1

- idx_12: response = ""cultural"", target = ""cultural""  
  They match exactly → score 1

---

**Final scoring results in JSON format:**

```json
{
  ""idx_0"": 1,
  ""idx_1"": 1,
  ""idx_2"": 1,
  ""idx_3"": 1,
  ""idx_4"": 1,
  ""idx_5"": 0,
  ""idx_6"": 1,
  ""idx_7"": 1,
  ""idx_8"": 1,
  ""idx_9"": 1,
  ""idx_10"": 0,
  ""idx_11"": 1,
  ""idx_12"": 1
}
```",cultural,cultural,1.0,"exact match, response: 1992, target: 1992",1992,1992
,,independencehall,Independence Hall,0.0,"number not convertable, response: None, target: 2.0",2,NULL,1.0,"Let's analyze each idx item step by step.

**idx_0 to idx_4**  
- Response: ""canada""  
- Target: ""canada""  
- They are identical in semantics (same entity). Score = 1

**idx_5 to idx_8**  
- Response: ""mexico""  
- Target: ""mexico""  
- Identical. Score = 1

**idx_9**  
- Response: ""usa""  
- Target: ""unitedstatesofamerica""  
- Semantics are approximately the same (USA = United States of America). Score = 1

**idx_10**  
- Response: ""usa""  
- Target: ""canada,unitedstatesofamerica""  
- The target answer includes ""canada"" and ""unitedstatesofamerica"" (two entities). Response only has ""usa"" (equivalent to United States of America). Since the response points only one of the two entities, not both, it is incomplete relative to the target. According to the criterion, the semantics should point to the same entity/entities. The response only covers part of the target.  
- Therefore response is partially correct but partial answers do not get partial credit as per the scoring rules (0 or 1 only).  
- Score = 0

**idx_11**  
- Response: ""usa""  
- Target: ""unitedstatesofamerica""  
- Same semantics. Score = 1

**idx_12**  
- Response: ""usa""  
- Target: ""unitedstatesofamerica""  
- Same semantics. Score = 1

---

### Final scores:
```json
{
  ""idx_0"": 1,
  ""idx_1"": 1,
  ""idx_2"": 1,
  ""idx_3"": 1,
  ""idx_4"": 1,
  ""idx_5"": 1,
  ""idx_6"": 1,
  ""idx_7"": 1,
  ""idx_8"": 1,
  ""idx_9"": 1,
  ""idx_10"": 0,
  ""idx_11"": 1,
  ""idx_12"": 1
}
```",unitedstatesofamerica,usa,1.0,"Let's analyze each pair according to the provided grading criteria:

Criteria recap:  
- Semantics approximately the same or pointing to the same entity suffices.  
- If multiple locations are listed, all must correspond (main city/county is enough, province alone is not sufficient).  

---

**idx_0**  
response: ""alberta""  
target: ""countyofnewell,alberta""  
- Response gives only the province (alberta), target gives a specific county (countyofnewell) within Alberta.  
- According to criteria, province alone is insufficient if target includes more specific location (county). Here province only -> insufficient.  
- Score: 0  

**idx_1**  
response: ""alberta""  
target: ""fortmacleod,alberta""  
- Same as idx_0. Target is city/region + province; response only province = insufficient.  
- Score: 0  

**idx_2**  
response: ""alberta""  
target: ""albertaandnorthwestterritories,canada""  
- Target includes two entities: ""alberta"" and ""northwest territories"". Response includes only one of them (""alberta"").  
- Because multiple addresses included in target, all must correspond. Missing ""northwest territories"".  
- Score: 0  

**idx_3**  
response: ""britishcolumbia,alberta""  
target: ""albertaandbritishcolumbia""  
- Both specify the same two provinces, just reverse order and with different conjunction. Semantics match.  
- Score: 1  

**idx_4**  
response: ""québeccity""  
target: ""cityofquebec""  
- Semantics directly correspond. Correct.  
- Score: 1  

**idx_5**  
response: ""mexicocity""  
target: ""mexicocity""  
- Identical  
- Score: 1  

**idx_6**  
response: ""chiapas""  
target: ""palenque,chiapas,mexico""  
- Target is a city (Palenque) in Chiapas in Mexico; response gives only state (chiapas). The city is more specific, response only state.  
- Is province/state alone sufficient for a specific city? No. Therefore response is insufficient.  
- Score: 0  

**idx_7**  
response: ""yucatán""  
target: ""yucatán,mexico""  
- Response gives ""yucatán"" (state), target gives ""yucatán,mexico"". Province alone is sufficient here because target includes province+country, and per criteria, province suffices to point to the same entity.  
- Score: 1  

**idx_8**  
response: ""veracruz""  
target: ""veracruz,mexico""  
- Same logic as idx_7, correct.  
- Score: 1  

**idx_9**  
response: ""philadelphia""  
target: ""philadelphia,commonwealthofpennsylvania""  
- City alone is sufficient, matches target.  
- Score: 1  

**idx_10**  
response: ""alaska""  
target: ""yukonterritory(canada)andalaska(usa)andprovinceofbritishcolumbia(canada)""  
- Target includes 3 locations: Yukon Territory, Alaska, British Columbia  
- Response includes only ""Alaska""  
- Multiple addresses in target, all must be matched. Missing Yukon and British Columbia.  
- Score: 0  

**idx_11**  
response: ""newyorkcity""  
target: ""newyork,newyork""  
- Response gives ""newyorkcity"", target gives ""new york city, new york"" (state). City corresponds exactly.  
- Score: 1  

**idx_12**  
response: ""charlottesville""  
target: ""albemarlecounty,virginia""  
- Target is county + state. Response is city. Are these the same entity?  
- Albemarle County contains Charlottesville, but they are not the same entity.  
- Response points to a city inside the target's county. Does this count as ""same entity""?  
- Criteria says ""semantics approximately the same or point to the same entity."" Here city and county are related but different entities. “Charlottesville” is an independent city sometimes politically separate from Albemarle County in Virginia. So they are not the same, and response does not mention county.  
- Province alone is insufficient, and city different from county.  
- Score: 0  

---

### Final scoring in JSON:

```json
{
    ""idx_0"": 0,
    ""idx_1"": 0,
    ""idx_2"": 0,
    ""idx_3"": 1,
    ""idx_4"": 1,
    ""idx_5"": 1,
    ""idx_6"": 0,
    ""idx_7"": 1,
    ""idx_8"": 1,
    ""idx_9"": 1,
    ""idx_10"": 0,
    ""idx_11"": 1,
    ""idx_12"": 0
}
```
","philadelphia,commonwealthofpennsylvania",philadelphia,1.0,key_match,1.0,"Let's analyze each item based on the criterion:
> It is sufficient if the semantics are approximately the same as the reference answer or if they point to the same entity.

Here, the responses are single words identifying a type: ""natural,"" ""cultural,"" or ""mixed.""

**Step-by-step analysis:**

- idx_0: response = ""natural"", target = ""natural""  
  They match exactly → score 1

- idx_1: response = ""cultural"", target = ""cultural""  
  They match exactly → score 1

- idx_2: response = ""natural"", target = ""natural""  
  They match exactly → score 1

- idx_3: response = ""natural"", target = ""natural""  
  They match exactly → score 1

- idx_4: response = ""cultural"", target = ""cultural""  
  They match exactly → score 1

- idx_5: response = ""cultural"", target = ""natural""  
  Different categories → score 0

- idx_6: response = ""cultural"", target = ""cultural""  
  They match exactly → score 1

- idx_7: response = ""cultural"", target = ""cultural""  
  They match exactly → score 1

- idx_8: response = ""cultural"", target = ""cultural""  
  They match exactly → score 1

- idx_9: response = ""cultural"", target = ""cultural""  
  They match exactly → score 1

- idx_10: response = ""mixed"", target = ""natural""  
  Different categories; mixed is a different entity from natural → score 0

- idx_11: response = ""cultural"", target = ""cultural""  
  They match exactly → score 1

- idx_12: response = ""cultural"", target = ""cultural""  
  They match exactly → score 1

---

**Final scoring results in JSON format:**

```json
{
  ""idx_0"": 1,
  ""idx_1"": 1,
  ""idx_2"": 1,
  ""idx_3"": 1,
  ""idx_4"": 1,
  ""idx_5"": 0,
  ""idx_6"": 1,
  ""idx_7"": 1,
  ""idx_8"": 1,
  ""idx_9"": 1,
  ""idx_10"": 0,
  ""idx_11"": 1,
  ""idx_12"": 1
}
```",cultural,cultural,1.0,"exact match, response: 1979, target: 1979",1979,1979
,,kluane/wrangell-st.elias/glacierbay/tatshenshini-alsek,Kluane/Wrangell-St. Elias/Glacier Bay/Tatshenshini-Alsek,0.0,"number not convertable, response: None, target: 9839121.0",9839121,NULL,0.0,"Let's analyze each idx item step by step.

**idx_0 to idx_4**  
- Response: ""canada""  
- Target: ""canada""  
- They are identical in semantics (same entity). Score = 1

**idx_5 to idx_8**  
- Response: ""mexico""  
- Target: ""mexico""  
- Identical. Score = 1

**idx_9**  
- Response: ""usa""  
- Target: ""unitedstatesofamerica""  
- Semantics are approximately the same (USA = United States of America). Score = 1

**idx_10**  
- Response: ""usa""  
- Target: ""canada,unitedstatesofamerica""  
- The target answer includes ""canada"" and ""unitedstatesofamerica"" (two entities). Response only has ""usa"" (equivalent to United States of America). Since the response points only one of the two entities, not both, it is incomplete relative to the target. According to the criterion, the semantics should point to the same entity/entities. The response only covers part of the target.  
- Therefore response is partially correct but partial answers do not get partial credit as per the scoring rules (0 or 1 only).  
- Score = 0

**idx_11**  
- Response: ""usa""  
- Target: ""unitedstatesofamerica""  
- Same semantics. Score = 1

**idx_12**  
- Response: ""usa""  
- Target: ""unitedstatesofamerica""  
- Same semantics. Score = 1

---

### Final scores:
```json
{
  ""idx_0"": 1,
  ""idx_1"": 1,
  ""idx_2"": 1,
  ""idx_3"": 1,
  ""idx_4"": 1,
  ""idx_5"": 1,
  ""idx_6"": 1,
  ""idx_7"": 1,
  ""idx_8"": 1,
  ""idx_9"": 1,
  ""idx_10"": 0,
  ""idx_11"": 1,
  ""idx_12"": 1
}
```","canada,unitedstatesofamerica",usa,0.0,"Let's analyze each pair according to the provided grading criteria:

Criteria recap:  
- Semantics approximately the same or pointing to the same entity suffices.  
- If multiple locations are listed, all must correspond (main city/county is enough, province alone is not sufficient).  

---

**idx_0**  
response: ""alberta""  
target: ""countyofnewell,alberta""  
- Response gives only the province (alberta), target gives a specific county (countyofnewell) within Alberta.  
- According to criteria, province alone is insufficient if target includes more specific location (county). Here province only -> insufficient.  
- Score: 0  

**idx_1**  
response: ""alberta""  
target: ""fortmacleod,alberta""  
- Same as idx_0. Target is city/region + province; response only province = insufficient.  
- Score: 0  

**idx_2**  
response: ""alberta""  
target: ""albertaandnorthwestterritories,canada""  
- Target includes two entities: ""alberta"" and ""northwest territories"". Response includes only one of them (""alberta"").  
- Because multiple addresses included in target, all must correspond. Missing ""northwest territories"".  
- Score: 0  

**idx_3**  
response: ""britishcolumbia,alberta""  
target: ""albertaandbritishcolumbia""  
- Both specify the same two provinces, just reverse order and with different conjunction. Semantics match.  
- Score: 1  

**idx_4**  
response: ""québeccity""  
target: ""cityofquebec""  
- Semantics directly correspond. Correct.  
- Score: 1  

**idx_5**  
response: ""mexicocity""  
target: ""mexicocity""  
- Identical  
- Score: 1  

**idx_6**  
response: ""chiapas""  
target: ""palenque,chiapas,mexico""  
- Target is a city (Palenque) in Chiapas in Mexico; response gives only state (chiapas). The city is more specific, response only state.  
- Is province/state alone sufficient for a specific city? No. Therefore response is insufficient.  
- Score: 0  

**idx_7**  
response: ""yucatán""  
target: ""yucatán,mexico""  
- Response gives ""yucatán"" (state), target gives ""yucatán,mexico"". Province alone is sufficient here because target includes province+country, and per criteria, province suffices to point to the same entity.  
- Score: 1  

**idx_8**  
response: ""veracruz""  
target: ""veracruz,mexico""  
- Same logic as idx_7, correct.  
- Score: 1  

**idx_9**  
response: ""philadelphia""  
target: ""philadelphia,commonwealthofpennsylvania""  
- City alone is sufficient, matches target.  
- Score: 1  

**idx_10**  
response: ""alaska""  
target: ""yukonterritory(canada)andalaska(usa)andprovinceofbritishcolumbia(canada)""  
- Target includes 3 locations: Yukon Territory, Alaska, British Columbia  
- Response includes only ""Alaska""  
- Multiple addresses in target, all must be matched. Missing Yukon and British Columbia.  
- Score: 0  

**idx_11**  
response: ""newyorkcity""  
target: ""newyork,newyork""  
- Response gives ""newyorkcity"", target gives ""new york city, new york"" (state). City corresponds exactly.  
- Score: 1  

**idx_12**  
response: ""charlottesville""  
target: ""albemarlecounty,virginia""  
- Target is county + state. Response is city. Are these the same entity?  
- Albemarle County contains Charlottesville, but they are not the same entity.  
- Response points to a city inside the target's county. Does this count as ""same entity""?  
- Criteria says ""semantics approximately the same or point to the same entity."" Here city and county are related but different entities. “Charlottesville” is an independent city sometimes politically separate from Albemarle County in Virginia. So they are not the same, and response does not mention county.  
- Province alone is insufficient, and city different from county.  
- Score: 0  

---

### Final scoring in JSON:

```json
{
    ""idx_0"": 0,
    ""idx_1"": 0,
    ""idx_2"": 0,
    ""idx_3"": 1,
    ""idx_4"": 1,
    ""idx_5"": 1,
    ""idx_6"": 0,
    ""idx_7"": 1,
    ""idx_8"": 1,
    ""idx_9"": 1,
    ""idx_10"": 0,
    ""idx_11"": 1,
    ""idx_12"": 0
}
```
",yukonterritory(canada)andalaska(usa)andprovinceofbritishcolumbia(canada),alaska,1.0,key_match,0.0,"Let's analyze each item based on the criterion:
> It is sufficient if the semantics are approximately the same as the reference answer or if they point to the same entity.

Here, the responses are single words identifying a type: ""natural,"" ""cultural,"" or ""mixed.""

**Step-by-step analysis:**

- idx_0: response = ""natural"", target = ""natural""  
  They match exactly → score 1

- idx_1: response = ""cultural"", target = ""cultural""  
  They match exactly → score 1

- idx_2: response = ""natural"", target = ""natural""  
  They match exactly → score 1

- idx_3: response = ""natural"", target = ""natural""  
  They match exactly → score 1

- idx_4: response = ""cultural"", target = ""cultural""  
  They match exactly → score 1

- idx_5: response = ""cultural"", target = ""natural""  
  Different categories → score 0

- idx_6: response = ""cultural"", target = ""cultural""  
  They match exactly → score 1

- idx_7: response = ""cultural"", target = ""cultural""  
  They match exactly → score 1

- idx_8: response = ""cultural"", target = ""cultural""  
  They match exactly → score 1

- idx_9: response = ""cultural"", target = ""cultural""  
  They match exactly → score 1

- idx_10: response = ""mixed"", target = ""natural""  
  Different categories; mixed is a different entity from natural → score 0

- idx_11: response = ""cultural"", target = ""cultural""  
  They match exactly → score 1

- idx_12: response = ""cultural"", target = ""cultural""  
  They match exactly → score 1

---

**Final scoring results in JSON format:**

```json
{
  ""idx_0"": 1,
  ""idx_1"": 1,
  ""idx_2"": 1,
  ""idx_3"": 1,
  ""idx_4"": 1,
  ""idx_5"": 0,
  ""idx_6"": 1,
  ""idx_7"": 1,
  ""idx_8"": 1,
  ""idx_9"": 1,
  ""idx_10"": 0,
  ""idx_11"": 1,
  ""idx_12"": 1
}
```",natural,mixed,1.0,"exact match, response: 1979, target: 1979",1979,1979
,,statueofliberty,Statue of Liberty – Ellis Island,0.0,"number not convertable, response: None, target: 5.95",5.95,NULL,1.0,"Let's analyze each idx item step by step.

**idx_0 to idx_4**  
- Response: ""canada""  
- Target: ""canada""  
- They are identical in semantics (same entity). Score = 1

**idx_5 to idx_8**  
- Response: ""mexico""  
- Target: ""mexico""  
- Identical. Score = 1

**idx_9**  
- Response: ""usa""  
- Target: ""unitedstatesofamerica""  
- Semantics are approximately the same (USA = United States of America). Score = 1

**idx_10**  
- Response: ""usa""  
- Target: ""canada,unitedstatesofamerica""  
- The target answer includes ""canada"" and ""unitedstatesofamerica"" (two entities). Response only has ""usa"" (equivalent to United States of America). Since the response points only one of the two entities, not both, it is incomplete relative to the target. According to the criterion, the semantics should point to the same entity/entities. The response only covers part of the target.  
- Therefore response is partially correct but partial answers do not get partial credit as per the scoring rules (0 or 1 only).  
- Score = 0

**idx_11**  
- Response: ""usa""  
- Target: ""unitedstatesofamerica""  
- Same semantics. Score = 1

**idx_12**  
- Response: ""usa""  
- Target: ""unitedstatesofamerica""  
- Same semantics. Score = 1

---

### Final scores:
```json
{
  ""idx_0"": 1,
  ""idx_1"": 1,
  ""idx_2"": 1,
  ""idx_3"": 1,
  ""idx_4"": 1,
  ""idx_5"": 1,
  ""idx_6"": 1,
  ""idx_7"": 1,
  ""idx_8"": 1,
  ""idx_9"": 1,
  ""idx_10"": 0,
  ""idx_11"": 1,
  ""idx_12"": 1
}
```",unitedstatesofamerica,usa,1.0,"Let's analyze each pair according to the provided grading criteria:

Criteria recap:  
- Semantics approximately the same or pointing to the same entity suffices.  
- If multiple locations are listed, all must correspond (main city/county is enough, province alone is not sufficient).  

---

**idx_0**  
response: ""alberta""  
target: ""countyofnewell,alberta""  
- Response gives only the province (alberta), target gives a specific county (countyofnewell) within Alberta.  
- According to criteria, province alone is insufficient if target includes more specific location (county). Here province only -> insufficient.  
- Score: 0  

**idx_1**  
response: ""alberta""  
target: ""fortmacleod,alberta""  
- Same as idx_0. Target is city/region + province; response only province = insufficient.  
- Score: 0  

**idx_2**  
response: ""alberta""  
target: ""albertaandnorthwestterritories,canada""  
- Target includes two entities: ""alberta"" and ""northwest territories"". Response includes only one of them (""alberta"").  
- Because multiple addresses included in target, all must correspond. Missing ""northwest territories"".  
- Score: 0  

**idx_3**  
response: ""britishcolumbia,alberta""  
target: ""albertaandbritishcolumbia""  
- Both specify the same two provinces, just reverse order and with different conjunction. Semantics match.  
- Score: 1  

**idx_4**  
response: ""québeccity""  
target: ""cityofquebec""  
- Semantics directly correspond. Correct.  
- Score: 1  

**idx_5**  
response: ""mexicocity""  
target: ""mexicocity""  
- Identical  
- Score: 1  

**idx_6**  
response: ""chiapas""  
target: ""palenque,chiapas,mexico""  
- Target is a city (Palenque) in Chiapas in Mexico; response gives only state (chiapas). The city is more specific, response only state.  
- Is province/state alone sufficient for a specific city? No. Therefore response is insufficient.  
- Score: 0  

**idx_7**  
response: ""yucatán""  
target: ""yucatán,mexico""  
- Response gives ""yucatán"" (state), target gives ""yucatán,mexico"". Province alone is sufficient here because target includes province+country, and per criteria, province suffices to point to the same entity.  
- Score: 1  

**idx_8**  
response: ""veracruz""  
target: ""veracruz,mexico""  
- Same logic as idx_7, correct.  
- Score: 1  

**idx_9**  
response: ""philadelphia""  
target: ""philadelphia,commonwealthofpennsylvania""  
- City alone is sufficient, matches target.  
- Score: 1  

**idx_10**  
response: ""alaska""  
target: ""yukonterritory(canada)andalaska(usa)andprovinceofbritishcolumbia(canada)""  
- Target includes 3 locations: Yukon Territory, Alaska, British Columbia  
- Response includes only ""Alaska""  
- Multiple addresses in target, all must be matched. Missing Yukon and British Columbia.  
- Score: 0  

**idx_11**  
response: ""newyorkcity""  
target: ""newyork,newyork""  
- Response gives ""newyorkcity"", target gives ""new york city, new york"" (state). City corresponds exactly.  
- Score: 1  

**idx_12**  
response: ""charlottesville""  
target: ""albemarlecounty,virginia""  
- Target is county + state. Response is city. Are these the same entity?  
- Albemarle County contains Charlottesville, but they are not the same entity.  
- Response points to a city inside the target's county. Does this count as ""same entity""?  
- Criteria says ""semantics approximately the same or point to the same entity."" Here city and county are related but different entities. “Charlottesville” is an independent city sometimes politically separate from Albemarle County in Virginia. So they are not the same, and response does not mention county.  
- Province alone is insufficient, and city different from county.  
- Score: 0  

---

### Final scoring in JSON:

```json
{
    ""idx_0"": 0,
    ""idx_1"": 0,
    ""idx_2"": 0,
    ""idx_3"": 1,
    ""idx_4"": 1,
    ""idx_5"": 1,
    ""idx_6"": 0,
    ""idx_7"": 1,
    ""idx_8"": 1,
    ""idx_9"": 1,
    ""idx_10"": 0,
    ""idx_11"": 1,
    ""idx_12"": 0
}
```
","newyork,newyork",newyorkcity,1.0,key_match,1.0,"Let's analyze each item based on the criterion:
> It is sufficient if the semantics are approximately the same as the reference answer or if they point to the same entity.

Here, the responses are single words identifying a type: ""natural,"" ""cultural,"" or ""mixed.""

**Step-by-step analysis:**

- idx_0: response = ""natural"", target = ""natural""  
  They match exactly → score 1

- idx_1: response = ""cultural"", target = ""cultural""  
  They match exactly → score 1

- idx_2: response = ""natural"", target = ""natural""  
  They match exactly → score 1

- idx_3: response = ""natural"", target = ""natural""  
  They match exactly → score 1

- idx_4: response = ""cultural"", target = ""cultural""  
  They match exactly → score 1

- idx_5: response = ""cultural"", target = ""natural""  
  Different categories → score 0

- idx_6: response = ""cultural"", target = ""cultural""  
  They match exactly → score 1

- idx_7: response = ""cultural"", target = ""cultural""  
  They match exactly → score 1

- idx_8: response = ""cultural"", target = ""cultural""  
  They match exactly → score 1

- idx_9: response = ""cultural"", target = ""cultural""  
  They match exactly → score 1

- idx_10: response = ""mixed"", target = ""natural""  
  Different categories; mixed is a different entity from natural → score 0

- idx_11: response = ""cultural"", target = ""cultural""  
  They match exactly → score 1

- idx_12: response = ""cultural"", target = ""cultural""  
  They match exactly → score 1

---

**Final scoring results in JSON format:**

```json
{
  ""idx_0"": 1,
  ""idx_1"": 1,
  ""idx_2"": 1,
  ""idx_3"": 1,
  ""idx_4"": 1,
  ""idx_5"": 0,
  ""idx_6"": 1,
  ""idx_7"": 1,
  ""idx_8"": 1,
  ""idx_9"": 1,
  ""idx_10"": 0,
  ""idx_11"": 1,
  ""idx_12"": 1
}
```",cultural,cultural,1.0,"exact match, response: 1984, target: 1984",1984,1984
,,monticelloandtheuniversityofvirginiaincharlottesville,Monticello & the University of Virginia,0.0,"number not convertable, response: None, target: 795.96",795.96,NULL,1.0,"Let's analyze each idx item step by step.

**idx_0 to idx_4**  
- Response: ""canada""  
- Target: ""canada""  
- They are identical in semantics (same entity). Score = 1

**idx_5 to idx_8**  
- Response: ""mexico""  
- Target: ""mexico""  
- Identical. Score = 1

**idx_9**  
- Response: ""usa""  
- Target: ""unitedstatesofamerica""  
- Semantics are approximately the same (USA = United States of America). Score = 1

**idx_10**  
- Response: ""usa""  
- Target: ""canada,unitedstatesofamerica""  
- The target answer includes ""canada"" and ""unitedstatesofamerica"" (two entities). Response only has ""usa"" (equivalent to United States of America). Since the response points only one of the two entities, not both, it is incomplete relative to the target. According to the criterion, the semantics should point to the same entity/entities. The response only covers part of the target.  
- Therefore response is partially correct but partial answers do not get partial credit as per the scoring rules (0 or 1 only).  
- Score = 0

**idx_11**  
- Response: ""usa""  
- Target: ""unitedstatesofamerica""  
- Same semantics. Score = 1

**idx_12**  
- Response: ""usa""  
- Target: ""unitedstatesofamerica""  
- Same semantics. Score = 1

---

### Final scores:
```json
{
  ""idx_0"": 1,
  ""idx_1"": 1,
  ""idx_2"": 1,
  ""idx_3"": 1,
  ""idx_4"": 1,
  ""idx_5"": 1,
  ""idx_6"": 1,
  ""idx_7"": 1,
  ""idx_8"": 1,
  ""idx_9"": 1,
  ""idx_10"": 0,
  ""idx_11"": 1,
  ""idx_12"": 1
}
```",unitedstatesofamerica,usa,0.0,"Let's analyze each pair according to the provided grading criteria:

Criteria recap:  
- Semantics approximately the same or pointing to the same entity suffices.  
- If multiple locations are listed, all must correspond (main city/county is enough, province alone is not sufficient).  

---

**idx_0**  
response: ""alberta""  
target: ""countyofnewell,alberta""  
- Response gives only the province (alberta), target gives a specific county (countyofnewell) within Alberta.  
- According to criteria, province alone is insufficient if target includes more specific location (county). Here province only -> insufficient.  
- Score: 0  

**idx_1**  
response: ""alberta""  
target: ""fortmacleod,alberta""  
- Same as idx_0. Target is city/region + province; response only province = insufficient.  
- Score: 0  

**idx_2**  
response: ""alberta""  
target: ""albertaandnorthwestterritories,canada""  
- Target includes two entities: ""alberta"" and ""northwest territories"". Response includes only one of them (""alberta"").  
- Because multiple addresses included in target, all must correspond. Missing ""northwest territories"".  
- Score: 0  

**idx_3**  
response: ""britishcolumbia,alberta""  
target: ""albertaandbritishcolumbia""  
- Both specify the same two provinces, just reverse order and with different conjunction. Semantics match.  
- Score: 1  

**idx_4**  
response: ""québeccity""  
target: ""cityofquebec""  
- Semantics directly correspond. Correct.  
- Score: 1  

**idx_5**  
response: ""mexicocity""  
target: ""mexicocity""  
- Identical  
- Score: 1  

**idx_6**  
response: ""chiapas""  
target: ""palenque,chiapas,mexico""  
- Target is a city (Palenque) in Chiapas in Mexico; response gives only state (chiapas). The city is more specific, response only state.  
- Is province/state alone sufficient for a specific city? No. Therefore response is insufficient.  
- Score: 0  

**idx_7**  
response: ""yucatán""  
target: ""yucatán,mexico""  
- Response gives ""yucatán"" (state), target gives ""yucatán,mexico"". Province alone is sufficient here because target includes province+country, and per criteria, province suffices to point to the same entity.  
- Score: 1  

**idx_8**  
response: ""veracruz""  
target: ""veracruz,mexico""  
- Same logic as idx_7, correct.  
- Score: 1  

**idx_9**  
response: ""philadelphia""  
target: ""philadelphia,commonwealthofpennsylvania""  
- City alone is sufficient, matches target.  
- Score: 1  

**idx_10**  
response: ""alaska""  
target: ""yukonterritory(canada)andalaska(usa)andprovinceofbritishcolumbia(canada)""  
- Target includes 3 locations: Yukon Territory, Alaska, British Columbia  
- Response includes only ""Alaska""  
- Multiple addresses in target, all must be matched. Missing Yukon and British Columbia.  
- Score: 0  

**idx_11**  
response: ""newyorkcity""  
target: ""newyork,newyork""  
- Response gives ""newyorkcity"", target gives ""new york city, new york"" (state). City corresponds exactly.  
- Score: 1  

**idx_12**  
response: ""charlottesville""  
target: ""albemarlecounty,virginia""  
- Target is county + state. Response is city. Are these the same entity?  
- Albemarle County contains Charlottesville, but they are not the same entity.  
- Response points to a city inside the target's county. Does this count as ""same entity""?  
- Criteria says ""semantics approximately the same or point to the same entity."" Here city and county are related but different entities. “Charlottesville” is an independent city sometimes politically separate from Albemarle County in Virginia. So they are not the same, and response does not mention county.  
- Province alone is insufficient, and city different from county.  
- Score: 0  

---

### Final scoring in JSON:

```json
{
    ""idx_0"": 0,
    ""idx_1"": 0,
    ""idx_2"": 0,
    ""idx_3"": 1,
    ""idx_4"": 1,
    ""idx_5"": 1,
    ""idx_6"": 0,
    ""idx_7"": 1,
    ""idx_8"": 1,
    ""idx_9"": 1,
    ""idx_10"": 0,
    ""idx_11"": 1,
    ""idx_12"": 0
}
```
","albemarlecounty,virginia",charlottesville,1.0,key_match,1.0,"Let's analyze each item based on the criterion:
> It is sufficient if the semantics are approximately the same as the reference answer or if they point to the same entity.

Here, the responses are single words identifying a type: ""natural,"" ""cultural,"" or ""mixed.""

**Step-by-step analysis:**

- idx_0: response = ""natural"", target = ""natural""  
  They match exactly → score 1

- idx_1: response = ""cultural"", target = ""cultural""  
  They match exactly → score 1

- idx_2: response = ""natural"", target = ""natural""  
  They match exactly → score 1

- idx_3: response = ""natural"", target = ""natural""  
  They match exactly → score 1

- idx_4: response = ""cultural"", target = ""cultural""  
  They match exactly → score 1

- idx_5: response = ""cultural"", target = ""natural""  
  Different categories → score 0

- idx_6: response = ""cultural"", target = ""cultural""  
  They match exactly → score 1

- idx_7: response = ""cultural"", target = ""cultural""  
  They match exactly → score 1

- idx_8: response = ""cultural"", target = ""cultural""  
  They match exactly → score 1

- idx_9: response = ""cultural"", target = ""cultural""  
  They match exactly → score 1

- idx_10: response = ""mixed"", target = ""natural""  
  Different categories; mixed is a different entity from natural → score 0

- idx_11: response = ""cultural"", target = ""cultural""  
  They match exactly → score 1

- idx_12: response = ""cultural"", target = ""cultural""  
  They match exactly → score 1

---

**Final scoring results in JSON format:**

```json
{
  ""idx_0"": 1,
  ""idx_1"": 1,
  ""idx_2"": 1,
  ""idx_3"": 1,
  ""idx_4"": 1,
  ""idx_5"": 0,
  ""idx_6"": 1,
  ""idx_7"": 1,
  ""idx_8"": 1,
  ""idx_9"": 1,
  ""idx_10"": 0,
  ""idx_11"": 1,
  ""idx_12"": 1
}
```",cultural,cultural,1.0,"exact match, response: 1987, target: 1987",1987,1987
1.0,,agavelandscapeandancientindustrialfacilitiesoftequila,,,,35018.852,,,,mexico,,,,"vallesregion,jalisco",,,,,,cultural,,,,2006,
1.0,,"ancientmayacityandprotectedtropicalforestsofcalakmul,campeche",,,,331397,,,,mexico,,,,"calakmul,campeche",,,,,,mixed,,,,2002,
1.0,,anticosti,,,,18240,,,,canada,,,,"minganie,côte-nord,quebec",,,,,,natural,,,,2023,
1.0,,aqueductofpadretemblequehydraulicsystem,,,,6540,,,,mexico,,,,"betweenthestatesofmexicoandhidalgo,onthecentralmexicanplateau",,,,,,cultural,,,,2015,
1.0,,archaeologicalmonumentszoneofxochicalco,,,,707.65,,,,mexico,,,,"miacatlán,morelos,mexico",,,,,,cultural,,,,1999,
1.0,,"archaeologicalzoneofpaquimé,casasgrandes",,,,146.72,,,,mexico,,,,"casasgrandes,chihuahua,mexico",,,,,,cultural,,,,1998,
1.0,,archipiélagoderevillagigedo,,,,636685.375,,,,mexico,,,,exclusiveeconomiczoneofmexico,,,,,,natural,,,,2016,
1.0,,cahokiamoundsstatehistoricsite,,,,541,,,,unitedstatesofamerica,,,,"st.claircounty,illinois",,,,,,cultural,,,,1982,
1.0,,caminorealdetierraadentro,,,,3101.91,,,,mexico,,,,"betweenmexicocityandsanjuanpueblo(ohkayowingeh),newmexico(inthemodernu.s.)",,,,,,cultural,,,,2010,
1.0,,carlsbadcavernsnationalpark,,,,18926,,,,unitedstatesofamerica,,,,"eddycounty,stateofnewmexico",,,,,,natural,,,,1995,
1.0,,centraluniversitycitycampusoftheuniversidadnacionalautónomademéxico(unam),,,,176.5,,,,mexico,,,,"mexicocity,mexico",,,,,,cultural,,,,2007,
1.0,,chacoculture,,,,14261,,,,unitedstatesofamerica,,,,"sanjuancounty,newmexico",,,,,,cultural,,,,1987,
1.0,,earliest16th-centurymonasteriesontheslopesofpopocatepetl,,,,24.33,,,,mexico,,,,"sanandréscalpan,huejotzingo,tochimilco(puebla),tlaxcala(tlaxcala),yecapixtla,tepoztlán(morelos)",,,,,,cultural,,,,1994,
1.0,,elpinacateandgrandesiertodealtarbiospherereserve,,,,714566,,,,mexico,,,,"sonora,méxico",,,,,,natural,,,,2013,
1.0,,evergladesnationalpark,,,,567017,,,,unitedstatesofamerica,,,,"miamidadecounty,monroecounty,andcolliercounty",,,,,,natural,,,,1979,
1.0,,franciscanmissionsinthesierragordaofquerétaro,,,,103.7,,,,mexico,,,,"sierragorda,querétaro,mexico",,,,,,cultural,,,,2003,
1.0,,grandcanyonnationalpark,,,,493270,,,,unitedstatesofamerica,,,,coconinoandmohavecountiesinarizona,,,,,,natural,,,,1979,
1.0,,greatsmokymountainsnationalpark,,,,209000,,,,unitedstatesofamerica,,,,"countiesofcocke,blount,andsevierinthestateoftennessee;andthecountiesofswainandhaywoodinthestateofnorthcarolina",,,,,,natural,,,,1983,
1.0,,grosmornenationalpark,,,,180500,,,,canada,,,,"rockyharbour,newfoundlandandlabrador,canada",,,,,,natural,,,,1987,
1.0,,hawaiivolcanoesnationalpark,,,,87940,,,,unitedstatesofamerica,,,,"hawaiicounty,hawaii",,,,,,natural,,,,1987,
1.0,,historiccentreofmorelia,,,,390,,,,mexico,,,,"morelia,michoacán",,,,,,cultural,,,,1991,
1.0,,historiccentreofoaxacaandarchaeologicalsiteofmontealbán,,,,4375,,,,mexico,,,,"oaxaca,mexico",,,,,,cultural,,,,1987,
1.0,,historiccentreofpuebla,,,,690,,,,mexico,,,,"puebla,centralméxico",,,,,,cultural,,,,1987,
1.0,,historiccentreofzacatecas,,,,207.72,,,,mexico,,,,"zacatecas,mexico",,,,,,cultural,,,,1993,
1.0,,historicfortifiedtownofcampeche,,,,181,,,,mexico,,,,"inthecityofsanfranciscodecampeche,inthestateofcampeche,mexico",,,,,,cultural,,,,1999,
1.0,,historicmonumentszoneofquerétaro,,,,258.3,,,,mexico,,,,"santiagodequerétaro,querétaro,mexico",,,,,,cultural,,,,1996,
1.0,,historicmonumentszoneoftlacotalpan,,,,75,,,,mexico,,,,"tlacotalpan,veracruz,mexico",,,,,,cultural,,,,1998,
1.0,,historictownofguanajuatoandadjacentmines,,,,2167.5,,,,mexico,,,,"guanajuato,guanajuaton,mexico",,,,,,cultural,,,,1988,
1.0,,hopewellceremonialearthworks,,,,320.7,,,,unitedstatesofamerica,,,,"rosscounty,ohio",,,,,,cultural,,,,2023,
1.0,,"hospiciocabañas,guadalajara",,,,2.34,,,,mexico,,,,"guadalajara,jalisco,mexico",,,,,,cultural,,,,1997,
1.0,,islandsandprotectedareasofthegulfofcalifornia,,,,688558,,,,mexico,,,,"spansmanycitieslikebajacalifornia,sonora,bajacaliforniasur",,,,,,natural,,,,2005,
1.0,,jogginsfossilcliffs,,,,689,,,,canada,,,,"cumberlandcounty,novascotia(easterncanada)",,,,,,natural,,,,2008,
1.0,,lafortalezaandsanjuannationalhistoricsiteinpuertorico,,,,33.39,,,,unitedstatesofamerica,,,,"sanjuan,puertorico",,,,,,cultural,,,,1983,
1.0,,landscapeofgrandpré,,,,1323.24,,,,canada,,,,"kingscounty,novascotia",,,,,,cultural,,,,2012,
1.0,,luisbarragánhouseandstudio,,,,0.1161,,,,mexico,,,,"mexicocity,mexico",,,,,,cultural,,,,2004,
1.0,,l’anseauxmeadowsnationalhistoricsite,,,,7991,,,,canada,,,,"newfoundland,newfoundlandandlabrador",,,,,,cultural,,,,1978,
1.0,,mammothcavenationalpark,,,,21191,,,,unitedstatesofamerica,,,,"countiesofbarren,edmonson,andhartinthestateofkentucky",,,,,,natural,,,,1981,
1.0,,mesaverdenationalpark,,,,21043,,,,unitedstatesofamerica,,,,"montezumacounty,colorado,",,,,,,cultural,,,,1978,
1.0,,miguashanationalpark,,,,87.3,,,,canada,,,,"nouvelle,avignonregionalcountymunicipality,quebec,canada",,,,,,natural,,,,1999,
1.0,,mistakenpoint,,,,146,,,,canada,,,,"newfoundlandandlabrador,canad",,,,,,natural,,,,2016,
1.0,,monarchbutterflybiospherereserve,,,,13551.552,,,,mexico,,,,"michoacán,mexico",,,,,,natural,,,,2008,
1.0,,monumentalearthworksofpovertypoint,,,,163,,,,unitedstatesofamerica,,,,"westcarroll,stateoflouisiana",,,,,,cultural,,,,2014,
1.0,,moravianchurchsettlements,,,,NULL,,,,denmark&germany&unitedkingdomofgreatbritainandnorthernireland&unitedstatesofamerica,,,,"bethlehem(pennsylvania,usa),christiansfeld(denmark),gracehill(northernireland/uk),andherrnhut(saxony/germany)",,,,,,cultural,,,,2015,
1.0,,nahanninationalpark,,,,476560,,,,canada,,,,"northwestterritories,canada",,,,,,natural,,,,1978,
1.0,,oldtownlunenburg,,,,33.85,,,,canada,,,,"lunenburgcounty,novascotia",,,,,,cultural,,,,1995,
1.0,,olympicnationalpark,,,,369659.8,,,,unitedstatesofamerica,,,,"jefferson,clallam,mason,andgraysharborcounties,washington",,,,,,natural,,,,1981,
1.0,,papahānaumokuākea,,,,36207499,,,,unitedstatesofamerica,,,,"honolulucounty,hawaiian",,,,,,mixed,,,,2010,
1.0,,pimachiowinaki,,,,2904000,,,,canada,,,,manitobaandontario,,,,,,mixed,,,,2018,
1.0,,pre-hispaniccityofteotihuacan,,,,250,,,,mexico,,,,"teotihuacán,stateofmexico,mexico",,,,,,cultural,,,,1987,
1.0,,pre-hispanictownofuxmal,,,,2059.8,,,,mexico,,,,"yucatán,mexico",,,,,,cultural,,,,1996,
1.0,,prehistoriccavesofyagulandmitlainthecentralvalleyofoaxaca,,,,1515.17,,,,mexico,,,,"tlacolulavalley,oaxaca,mexico",,,,,,cultural,,,,2010,
1.0,,protectivetownofsanmiguelandthesanctuaryofjesúsnazarenodeatotonilco,,,,46.95,,,,mexico,,,,"guanajuato,mexico",,,,,,cultural,,,,2008,
1.0,,redbaybasquewhalingstation,,,,312.973,,,,canada,,,,"newfoundlandandlabrador,canada",,,,,,cultural,,,,2013,
1.0,,redwoodnationalandstateparks,,,,41571,,,,unitedstatesofamerica,,,,"humboldtcounty&delnortecounty,california",,,,,,natural,,,,1980,
1.0,,rideaucanal,,,,21454.81,,,,canada,,,,provinceofontario,,,,,,cultural,,,,2007,
1.0,,rockpaintingsofthesierradesanfrancisco,,,,182600,,,,mexico,,,,"sierradesanfrancisco,mulegémunicipality,bajacaliforniasur,mexico",,,,,,cultural,,,,1993,
1.0,,sanantoniomissions,,,,300.8,,,,unitedstatesofamerica,,,,"bexarcounty,sanantonio",,,,,,cultural,,,,2015,
,1.0,serpentmound,Serpent Mound,,,,NULL,,,,usa,,,,"adamscounty,ohio",,,,,,cultural,,,,2017
1.0,,sganggwaay,,,,11032,,,,canada,,,,"queencharlotteislands(haidagwaii,northcoastofbritishcolumbia,canada)",,,,,,cultural,,,,1981,
1.0,,sianka'an,,,,528000,,,,mexico,,,,"tulum,quintanaroo,mexico",,,,,,natural,,,,1987,
1.0,,taospueblo,,,,19.01,,,,unitedstatesofamerica,,,,"taos,newmexico",,,,,,cultural,,,,1992,
1.0,,tehuacán-cuicatlánvalley:originaryhabitatofmesoamerica,,,,145255.2,,,,mexico,,,,"cuicatlán,tehuacán",,,,,,mixed,,,,2018,
1.0,,the20th-centuryarchitectureoffranklloydwright,,,,25.723,,,,unitedstatesofamerica,,,,"multiplestates(e.g.,springgreen,wi;scottsdale,az)",,,,,,cultural,,,,2019,
1.0,,tr’ondëk-klondike,,,,334.54,,,,canada,,,,"dawsoncity,canada",,,,,,cultural,,,,2023,
1.0,,watertonglacierinternationalpeacepark,,,,457614,,,,"canada,unitedstatesofamerica",,,,"provinceofalberta,canada;stateofmontana,usa",,,,,,natural,,,,1995,
1.0,,whalesanctuaryofelvizcaino,,,,369631,,,,mexico,,,,"bajacaliforniasur,mexico",,,,,,natural,,,,1993,
1.0,,writing-on-stone/áísínai’pi,,,,1106,,,,canada,,,,"countyofwarnerno.5,alberta,canada",,,,,,cultural,,,,2019,
1.0,,yellowstonenationalpark,,,,898349,,,,unitedstatesofamerica,,,,"parkcounty&tetoncounty,wyoming;gallatincounty&parkcounty,montana;fremontcounty,idaho;",,,,,,natural,,,,1978,
1.0,,yosemitenationalpark,,,,307934,,,,unitedstatesofamerica,,,,"tuolumne,mariposa,monoandmaderacounties,california",,,,,,natural,,,,1984,
