exist_flag_gt,exist_flag_response,nameoftheheritagesite,nameoftheheritagesite_before_map,area_number_near,area_number_near_eval_msg,area_query,area_response,country_llm_judge,country_llm_judge_eval_msg,country_query,country_response,location_llm_judge,location_llm_judge_eval_msg,location_query,location_response,nameoftheheritagesite_exact_match,nameoftheheritagesite_exact_match_eval_msg,typeofheritage_llm_judge,typeofheritage_llm_judge_eval_msg,typeofheritage_query,typeofheritage_response,yearofrecognition_exact_match,yearofrecognition_exact_match_eval_msg,yearofrecognition_query,yearofrecognition_response
,,l’anseauxmeadowsnationalhistoricsite,L'Anse aux Meadows NHM,0.0,"number not convertable, response: None, target: 7991.0",7991,NULL,1.0,"Let's analyze each item in detail according to the given criterion:

Criterion summary:  
- The response should be semantically approximately the same as the target.  
- It is sufficient if they point to the same entity.  
- No need for exact word match.

---

**idx_0**  
- Response: ""canada""  
- Target: ""canada""  
- Analysis: Exactly the same. Score = 1

**idx_1**  
- Response: ""canada""  
- Target: ""canada""  
- Analysis: Exactly the same. Score = 1

**idx_2**  
- Response: ""canada""  
- Target: ""canada""  
- Analysis: Exactly the same. Score = 1

**idx_3**  
- Response: ""usa""  
- Target: ""unitedstatesofamerica""  
- Analysis: ""usa"" and ""unitedstatesofamerica"" refer to the same entity. According to the criterion, this is sufficient. Score = 1

**idx_4**  
- Response: ""usa""  
- Target: ""unitedstatesofamerica""  
- Same as above. Score = 1

**idx_5**  
- Response: ""usa""  
- Target: ""unitedstatesofamerica""  
- Same as above. Score = 1

**idx_6**  
- Response: ""usa""  
- Target: ""unitedstatesofamerica""  
- Same as above. Score = 1

---

Final scores:

```json
{
  ""idx_0"": 1,
  ""idx_1"": 1,
  ""idx_2"": 1,
  ""idx_3"": 1,
  ""idx_4"": 1,
  ""idx_5"": 1,
  ""idx_6"": 1
}
```",canada,canada,1.0,"Let's analyze each idx item carefully according to the grading criteria:

---

### idx_0  
- Response: ""happyvalley-goosebay""  
- Target: ""newfoundland,newfoundlandandlabrador""  
Analysis:  
- The response is a city (Happy Valley-Goose Bay) in the province of Newfoundland and Labrador.  
- The target only specifies the province ""newfoundlandandlabrador"".  
- The criteria say that providing only the province is not enough; the main city/county of the location is needed. Here, response provides a city, but the target is only the province. Since response points to the city, it is more specific than the target.  
- Does the response point to the same entity or approximate semantics? The response city is indeed in the target province. Both point to the same geographical area, but at different granularities. The criteria do not require exact match in granularity, just approximate semantics or pointing to the same entity. Happy Valley-Goose Bay is within Newfoundland and Labrador, so they correspond.  
=> score: 1

---

### idx_1  
- Response: ""nahanninationalpark""  
- Target: ""northwestterritories,canada""  
Analysis:  
- The response is Nahanni National Park, which is located in the Northwest Territories, Canada.  
- The target is the territory and country.  
- The criteria accept roughly equivalent semantics or pointing to the same entity, and that main city/county is needed if a specific location is involved. Here, the response is a national park within the target territory, and so corresponds well.  
=> score: 1

---

### idx_2  
- Response: ""alberta""  
- Target: ""countyofnewell,alberta""  
Analysis:  
- The response provides only the province ""alberta"".  
- The target provides a county and province. The criteria say that only province is not enough for a specific location. The target is county in province, so to match it, the response should provide county or equivalent.  
- Here, response only provides ""alberta"" (province), which is less specific than the target. According to the criteria, this is insufficient as only province is not enough.  
=> score: 0

---

### idx_3  
- Response: ""philadelphia""  
- Target: ""philadelphia,commonwealthofpennsylvania""  
Analysis:  
- Response gives ""philadelphia"" (city).  
- Target gives city and state.  
- The city alone is acceptable since city matches main city/county of location. Province/state is not required if city is given.  
- So, response corresponds well to target.  
=> score: 1

---

### idx_4  
- Response: ""collinsville""  
- Target: ""st.claircounty,illinois""  
Analysis:  
- Response gives ""collinsville"" (a city/town).  
- Target gives county and state.  
- Checking if Collinsville is within St. Clair County, Illinois: Collinsville is a city in St. Clair County, Illinois.  
- Response provides city which is sufficient.  
=> score: 1

---

### idx_5  
- Response: ""chacocanyon""  
- Target: ""sanjuancounty,newmexico""  
Analysis:  
- Response: Chaco Canyon - a specific location  
- Target: county and state  
- Is Chaco Canyon in San Juan County, New Mexico? Yes, Chaco Canyon is located in San Juan County, NM.  
- Response provides a specific location within the county. According to criteria, this is sufficient.  
=> score:1

---

### idx_6  
- Response: ""marietta""  
- Target: ""rosscounty,ohio""  
Analysis:  
- Response city: Marietta  
- Target: Ross County, Ohio  
- Marietta is the county seat of Washington County, Ohio, not Ross County.  
- Marietta is NOT in Ross County.  
- Thus, the response and target do not correspond to the same place or entity.  
- This fails the requirement.  
=> score: 0

---

## Final Scores:

```json
{
    ""idx_0"": 1,
    ""idx_1"": 1,
    ""idx_2"": 0,
    ""idx_3"": 1,
    ""idx_4"": 1,
    ""idx_5"": 1,
    ""idx_6"": 0
}
```","newfoundland,newfoundlandandlabrador",happyvalley-goosebay,1.0,key_match,1.0,"Let's analyze each item according to the criterion:

Criterion: ""It is sufficient if the semantics are approximately the same as the reference answer or if they point to the same entity. There is no need for a word-for-word correspondence.""

---

**idx_0**  
Response: ""cultural""  
Target: ""cultural""  
Analysis: Exact match, semantics are the same.  
Score: 1

**idx_1**  
Response: ""natural""  
Target: ""natural""  
Analysis: Exact match, semantics are the same.  
Score: 1

**idx_2**  
Response: ""natural""  
Target: ""natural""  
Analysis: Exact match, semantics are the same.  
Score: 1

**idx_3**  
Response: ""cultural""  
Target: ""cultural""  
Analysis: Exact match, semantics are the same.  
Score: 1

**idx_4**  
Response: ""cultural""  
Target: ""cultural""  
Analysis: Exact match, semantics are the same.  
Score: 1

**idx_5**  
Response: ""cultural""  
Target: ""cultural""  
Analysis: Exact match, semantics are the same.  
Score: 1

**idx_6**  
Response: ""cultural""  
Target: ""cultural""  
Analysis: Exact match, semantics are the same.  
Score: 1

---

Final scoring results:

```json
{
    ""idx_0"": 1,
    ""idx_1"": 1,
    ""idx_2"": 1,
    ""idx_3"": 1,
    ""idx_4"": 1,
    ""idx_5"": 1,
    ""idx_6"": 1
}
```",cultural,cultural,1.0,"exact match, response: 1978, target: 1978",1978,1978
,,nahanninationalpark,Nahanni National Park,0.0,"number not convertable, response: None, target: 476560.0",476560,NULL,1.0,"Let's analyze each item in detail according to the given criterion:

Criterion summary:  
- The response should be semantically approximately the same as the target.  
- It is sufficient if they point to the same entity.  
- No need for exact word match.

---

**idx_0**  
- Response: ""canada""  
- Target: ""canada""  
- Analysis: Exactly the same. Score = 1

**idx_1**  
- Response: ""canada""  
- Target: ""canada""  
- Analysis: Exactly the same. Score = 1

**idx_2**  
- Response: ""canada""  
- Target: ""canada""  
- Analysis: Exactly the same. Score = 1

**idx_3**  
- Response: ""usa""  
- Target: ""unitedstatesofamerica""  
- Analysis: ""usa"" and ""unitedstatesofamerica"" refer to the same entity. According to the criterion, this is sufficient. Score = 1

**idx_4**  
- Response: ""usa""  
- Target: ""unitedstatesofamerica""  
- Same as above. Score = 1

**idx_5**  
- Response: ""usa""  
- Target: ""unitedstatesofamerica""  
- Same as above. Score = 1

**idx_6**  
- Response: ""usa""  
- Target: ""unitedstatesofamerica""  
- Same as above. Score = 1

---

Final scores:

```json
{
  ""idx_0"": 1,
  ""idx_1"": 1,
  ""idx_2"": 1,
  ""idx_3"": 1,
  ""idx_4"": 1,
  ""idx_5"": 1,
  ""idx_6"": 1
}
```",canada,canada,1.0,"Let's analyze each idx item carefully according to the grading criteria:

---

### idx_0  
- Response: ""happyvalley-goosebay""  
- Target: ""newfoundland,newfoundlandandlabrador""  
Analysis:  
- The response is a city (Happy Valley-Goose Bay) in the province of Newfoundland and Labrador.  
- The target only specifies the province ""newfoundlandandlabrador"".  
- The criteria say that providing only the province is not enough; the main city/county of the location is needed. Here, response provides a city, but the target is only the province. Since response points to the city, it is more specific than the target.  
- Does the response point to the same entity or approximate semantics? The response city is indeed in the target province. Both point to the same geographical area, but at different granularities. The criteria do not require exact match in granularity, just approximate semantics or pointing to the same entity. Happy Valley-Goose Bay is within Newfoundland and Labrador, so they correspond.  
=> score: 1

---

### idx_1  
- Response: ""nahanninationalpark""  
- Target: ""northwestterritories,canada""  
Analysis:  
- The response is Nahanni National Park, which is located in the Northwest Territories, Canada.  
- The target is the territory and country.  
- The criteria accept roughly equivalent semantics or pointing to the same entity, and that main city/county is needed if a specific location is involved. Here, the response is a national park within the target territory, and so corresponds well.  
=> score: 1

---

### idx_2  
- Response: ""alberta""  
- Target: ""countyofnewell,alberta""  
Analysis:  
- The response provides only the province ""alberta"".  
- The target provides a county and province. The criteria say that only province is not enough for a specific location. The target is county in province, so to match it, the response should provide county or equivalent.  
- Here, response only provides ""alberta"" (province), which is less specific than the target. According to the criteria, this is insufficient as only province is not enough.  
=> score: 0

---

### idx_3  
- Response: ""philadelphia""  
- Target: ""philadelphia,commonwealthofpennsylvania""  
Analysis:  
- Response gives ""philadelphia"" (city).  
- Target gives city and state.  
- The city alone is acceptable since city matches main city/county of location. Province/state is not required if city is given.  
- So, response corresponds well to target.  
=> score: 1

---

### idx_4  
- Response: ""collinsville""  
- Target: ""st.claircounty,illinois""  
Analysis:  
- Response gives ""collinsville"" (a city/town).  
- Target gives county and state.  
- Checking if Collinsville is within St. Clair County, Illinois: Collinsville is a city in St. Clair County, Illinois.  
- Response provides city which is sufficient.  
=> score: 1

---

### idx_5  
- Response: ""chacocanyon""  
- Target: ""sanjuancounty,newmexico""  
Analysis:  
- Response: Chaco Canyon - a specific location  
- Target: county and state  
- Is Chaco Canyon in San Juan County, New Mexico? Yes, Chaco Canyon is located in San Juan County, NM.  
- Response provides a specific location within the county. According to criteria, this is sufficient.  
=> score:1

---

### idx_6  
- Response: ""marietta""  
- Target: ""rosscounty,ohio""  
Analysis:  
- Response city: Marietta  
- Target: Ross County, Ohio  
- Marietta is the county seat of Washington County, Ohio, not Ross County.  
- Marietta is NOT in Ross County.  
- Thus, the response and target do not correspond to the same place or entity.  
- This fails the requirement.  
=> score: 0

---

## Final Scores:

```json
{
    ""idx_0"": 1,
    ""idx_1"": 1,
    ""idx_2"": 0,
    ""idx_3"": 1,
    ""idx_4"": 1,
    ""idx_5"": 1,
    ""idx_6"": 0
}
```","northwestterritories,canada",nahanninationalpark,1.0,key_match,1.0,"Let's analyze each item according to the criterion:

Criterion: ""It is sufficient if the semantics are approximately the same as the reference answer or if they point to the same entity. There is no need for a word-for-word correspondence.""

---

**idx_0**  
Response: ""cultural""  
Target: ""cultural""  
Analysis: Exact match, semantics are the same.  
Score: 1

**idx_1**  
Response: ""natural""  
Target: ""natural""  
Analysis: Exact match, semantics are the same.  
Score: 1

**idx_2**  
Response: ""natural""  
Target: ""natural""  
Analysis: Exact match, semantics are the same.  
Score: 1

**idx_3**  
Response: ""cultural""  
Target: ""cultural""  
Analysis: Exact match, semantics are the same.  
Score: 1

**idx_4**  
Response: ""cultural""  
Target: ""cultural""  
Analysis: Exact match, semantics are the same.  
Score: 1

**idx_5**  
Response: ""cultural""  
Target: ""cultural""  
Analysis: Exact match, semantics are the same.  
Score: 1

**idx_6**  
Response: ""cultural""  
Target: ""cultural""  
Analysis: Exact match, semantics are the same.  
Score: 1

---

Final scoring results:

```json
{
    ""idx_0"": 1,
    ""idx_1"": 1,
    ""idx_2"": 1,
    ""idx_3"": 1,
    ""idx_4"": 1,
    ""idx_5"": 1,
    ""idx_6"": 1
}
```",natural,natural,1.0,"exact match, response: 1978, target: 1978",1978,1978
,,dinosaurprovincialpark,Dinosaur Provincial Park,0.0,"number not convertable, response: None, target: 7825.0",7825,NULL,1.0,"Let's analyze each item in detail according to the given criterion:

Criterion summary:  
- The response should be semantically approximately the same as the target.  
- It is sufficient if they point to the same entity.  
- No need for exact word match.

---

**idx_0**  
- Response: ""canada""  
- Target: ""canada""  
- Analysis: Exactly the same. Score = 1

**idx_1**  
- Response: ""canada""  
- Target: ""canada""  
- Analysis: Exactly the same. Score = 1

**idx_2**  
- Response: ""canada""  
- Target: ""canada""  
- Analysis: Exactly the same. Score = 1

**idx_3**  
- Response: ""usa""  
- Target: ""unitedstatesofamerica""  
- Analysis: ""usa"" and ""unitedstatesofamerica"" refer to the same entity. According to the criterion, this is sufficient. Score = 1

**idx_4**  
- Response: ""usa""  
- Target: ""unitedstatesofamerica""  
- Same as above. Score = 1

**idx_5**  
- Response: ""usa""  
- Target: ""unitedstatesofamerica""  
- Same as above. Score = 1

**idx_6**  
- Response: ""usa""  
- Target: ""unitedstatesofamerica""  
- Same as above. Score = 1

---

Final scores:

```json
{
  ""idx_0"": 1,
  ""idx_1"": 1,
  ""idx_2"": 1,
  ""idx_3"": 1,
  ""idx_4"": 1,
  ""idx_5"": 1,
  ""idx_6"": 1
}
```",canada,canada,0.0,"Let's analyze each idx item carefully according to the grading criteria:

---

### idx_0  
- Response: ""happyvalley-goosebay""  
- Target: ""newfoundland,newfoundlandandlabrador""  
Analysis:  
- The response is a city (Happy Valley-Goose Bay) in the province of Newfoundland and Labrador.  
- The target only specifies the province ""newfoundlandandlabrador"".  
- The criteria say that providing only the province is not enough; the main city/county of the location is needed. Here, response provides a city, but the target is only the province. Since response points to the city, it is more specific than the target.  
- Does the response point to the same entity or approximate semantics? The response city is indeed in the target province. Both point to the same geographical area, but at different granularities. The criteria do not require exact match in granularity, just approximate semantics or pointing to the same entity. Happy Valley-Goose Bay is within Newfoundland and Labrador, so they correspond.  
=> score: 1

---

### idx_1  
- Response: ""nahanninationalpark""  
- Target: ""northwestterritories,canada""  
Analysis:  
- The response is Nahanni National Park, which is located in the Northwest Territories, Canada.  
- The target is the territory and country.  
- The criteria accept roughly equivalent semantics or pointing to the same entity, and that main city/county is needed if a specific location is involved. Here, the response is a national park within the target territory, and so corresponds well.  
=> score: 1

---

### idx_2  
- Response: ""alberta""  
- Target: ""countyofnewell,alberta""  
Analysis:  
- The response provides only the province ""alberta"".  
- The target provides a county and province. The criteria say that only province is not enough for a specific location. The target is county in province, so to match it, the response should provide county or equivalent.  
- Here, response only provides ""alberta"" (province), which is less specific than the target. According to the criteria, this is insufficient as only province is not enough.  
=> score: 0

---

### idx_3  
- Response: ""philadelphia""  
- Target: ""philadelphia,commonwealthofpennsylvania""  
Analysis:  
- Response gives ""philadelphia"" (city).  
- Target gives city and state.  
- The city alone is acceptable since city matches main city/county of location. Province/state is not required if city is given.  
- So, response corresponds well to target.  
=> score: 1

---

### idx_4  
- Response: ""collinsville""  
- Target: ""st.claircounty,illinois""  
Analysis:  
- Response gives ""collinsville"" (a city/town).  
- Target gives county and state.  
- Checking if Collinsville is within St. Clair County, Illinois: Collinsville is a city in St. Clair County, Illinois.  
- Response provides city which is sufficient.  
=> score: 1

---

### idx_5  
- Response: ""chacocanyon""  
- Target: ""sanjuancounty,newmexico""  
Analysis:  
- Response: Chaco Canyon - a specific location  
- Target: county and state  
- Is Chaco Canyon in San Juan County, New Mexico? Yes, Chaco Canyon is located in San Juan County, NM.  
- Response provides a specific location within the county. According to criteria, this is sufficient.  
=> score:1

---

### idx_6  
- Response: ""marietta""  
- Target: ""rosscounty,ohio""  
Analysis:  
- Response city: Marietta  
- Target: Ross County, Ohio  
- Marietta is the county seat of Washington County, Ohio, not Ross County.  
- Marietta is NOT in Ross County.  
- Thus, the response and target do not correspond to the same place or entity.  
- This fails the requirement.  
=> score: 0

---

## Final Scores:

```json
{
    ""idx_0"": 1,
    ""idx_1"": 1,
    ""idx_2"": 0,
    ""idx_3"": 1,
    ""idx_4"": 1,
    ""idx_5"": 1,
    ""idx_6"": 0
}
```","countyofnewell,alberta",alberta,1.0,key_match,1.0,"Let's analyze each item according to the criterion:

Criterion: ""It is sufficient if the semantics are approximately the same as the reference answer or if they point to the same entity. There is no need for a word-for-word correspondence.""

---

**idx_0**  
Response: ""cultural""  
Target: ""cultural""  
Analysis: Exact match, semantics are the same.  
Score: 1

**idx_1**  
Response: ""natural""  
Target: ""natural""  
Analysis: Exact match, semantics are the same.  
Score: 1

**idx_2**  
Response: ""natural""  
Target: ""natural""  
Analysis: Exact match, semantics are the same.  
Score: 1

**idx_3**  
Response: ""cultural""  
Target: ""cultural""  
Analysis: Exact match, semantics are the same.  
Score: 1

**idx_4**  
Response: ""cultural""  
Target: ""cultural""  
Analysis: Exact match, semantics are the same.  
Score: 1

**idx_5**  
Response: ""cultural""  
Target: ""cultural""  
Analysis: Exact match, semantics are the same.  
Score: 1

**idx_6**  
Response: ""cultural""  
Target: ""cultural""  
Analysis: Exact match, semantics are the same.  
Score: 1

---

Final scoring results:

```json
{
    ""idx_0"": 1,
    ""idx_1"": 1,
    ""idx_2"": 1,
    ""idx_3"": 1,
    ""idx_4"": 1,
    ""idx_5"": 1,
    ""idx_6"": 1
}
```",natural,natural,1.0,"exact match, response: 1979, target: 1979",1979,1979
,,independencehall,Independence Hall,0.0,"number not convertable, response: None, target: 2.0",2,NULL,1.0,"Let's analyze each item in detail according to the given criterion:

Criterion summary:  
- The response should be semantically approximately the same as the target.  
- It is sufficient if they point to the same entity.  
- No need for exact word match.

---

**idx_0**  
- Response: ""canada""  
- Target: ""canada""  
- Analysis: Exactly the same. Score = 1

**idx_1**  
- Response: ""canada""  
- Target: ""canada""  
- Analysis: Exactly the same. Score = 1

**idx_2**  
- Response: ""canada""  
- Target: ""canada""  
- Analysis: Exactly the same. Score = 1

**idx_3**  
- Response: ""usa""  
- Target: ""unitedstatesofamerica""  
- Analysis: ""usa"" and ""unitedstatesofamerica"" refer to the same entity. According to the criterion, this is sufficient. Score = 1

**idx_4**  
- Response: ""usa""  
- Target: ""unitedstatesofamerica""  
- Same as above. Score = 1

**idx_5**  
- Response: ""usa""  
- Target: ""unitedstatesofamerica""  
- Same as above. Score = 1

**idx_6**  
- Response: ""usa""  
- Target: ""unitedstatesofamerica""  
- Same as above. Score = 1

---

Final scores:

```json
{
  ""idx_0"": 1,
  ""idx_1"": 1,
  ""idx_2"": 1,
  ""idx_3"": 1,
  ""idx_4"": 1,
  ""idx_5"": 1,
  ""idx_6"": 1
}
```",unitedstatesofamerica,usa,1.0,"Let's analyze each idx item carefully according to the grading criteria:

---

### idx_0  
- Response: ""happyvalley-goosebay""  
- Target: ""newfoundland,newfoundlandandlabrador""  
Analysis:  
- The response is a city (Happy Valley-Goose Bay) in the province of Newfoundland and Labrador.  
- The target only specifies the province ""newfoundlandandlabrador"".  
- The criteria say that providing only the province is not enough; the main city/county of the location is needed. Here, response provides a city, but the target is only the province. Since response points to the city, it is more specific than the target.  
- Does the response point to the same entity or approximate semantics? The response city is indeed in the target province. Both point to the same geographical area, but at different granularities. The criteria do not require exact match in granularity, just approximate semantics or pointing to the same entity. Happy Valley-Goose Bay is within Newfoundland and Labrador, so they correspond.  
=> score: 1

---

### idx_1  
- Response: ""nahanninationalpark""  
- Target: ""northwestterritories,canada""  
Analysis:  
- The response is Nahanni National Park, which is located in the Northwest Territories, Canada.  
- The target is the territory and country.  
- The criteria accept roughly equivalent semantics or pointing to the same entity, and that main city/county is needed if a specific location is involved. Here, the response is a national park within the target territory, and so corresponds well.  
=> score: 1

---

### idx_2  
- Response: ""alberta""  
- Target: ""countyofnewell,alberta""  
Analysis:  
- The response provides only the province ""alberta"".  
- The target provides a county and province. The criteria say that only province is not enough for a specific location. The target is county in province, so to match it, the response should provide county or equivalent.  
- Here, response only provides ""alberta"" (province), which is less specific than the target. According to the criteria, this is insufficient as only province is not enough.  
=> score: 0

---

### idx_3  
- Response: ""philadelphia""  
- Target: ""philadelphia,commonwealthofpennsylvania""  
Analysis:  
- Response gives ""philadelphia"" (city).  
- Target gives city and state.  
- The city alone is acceptable since city matches main city/county of location. Province/state is not required if city is given.  
- So, response corresponds well to target.  
=> score: 1

---

### idx_4  
- Response: ""collinsville""  
- Target: ""st.claircounty,illinois""  
Analysis:  
- Response gives ""collinsville"" (a city/town).  
- Target gives county and state.  
- Checking if Collinsville is within St. Clair County, Illinois: Collinsville is a city in St. Clair County, Illinois.  
- Response provides city which is sufficient.  
=> score: 1

---

### idx_5  
- Response: ""chacocanyon""  
- Target: ""sanjuancounty,newmexico""  
Analysis:  
- Response: Chaco Canyon - a specific location  
- Target: county and state  
- Is Chaco Canyon in San Juan County, New Mexico? Yes, Chaco Canyon is located in San Juan County, NM.  
- Response provides a specific location within the county. According to criteria, this is sufficient.  
=> score:1

---

### idx_6  
- Response: ""marietta""  
- Target: ""rosscounty,ohio""  
Analysis:  
- Response city: Marietta  
- Target: Ross County, Ohio  
- Marietta is the county seat of Washington County, Ohio, not Ross County.  
- Marietta is NOT in Ross County.  
- Thus, the response and target do not correspond to the same place or entity.  
- This fails the requirement.  
=> score: 0

---

## Final Scores:

```json
{
    ""idx_0"": 1,
    ""idx_1"": 1,
    ""idx_2"": 0,
    ""idx_3"": 1,
    ""idx_4"": 1,
    ""idx_5"": 1,
    ""idx_6"": 0
}
```","philadelphia,commonwealthofpennsylvania",philadelphia,1.0,key_match,1.0,"Let's analyze each item according to the criterion:

Criterion: ""It is sufficient if the semantics are approximately the same as the reference answer or if they point to the same entity. There is no need for a word-for-word correspondence.""

---

**idx_0**  
Response: ""cultural""  
Target: ""cultural""  
Analysis: Exact match, semantics are the same.  
Score: 1

**idx_1**  
Response: ""natural""  
Target: ""natural""  
Analysis: Exact match, semantics are the same.  
Score: 1

**idx_2**  
Response: ""natural""  
Target: ""natural""  
Analysis: Exact match, semantics are the same.  
Score: 1

**idx_3**  
Response: ""cultural""  
Target: ""cultural""  
Analysis: Exact match, semantics are the same.  
Score: 1

**idx_4**  
Response: ""cultural""  
Target: ""cultural""  
Analysis: Exact match, semantics are the same.  
Score: 1

**idx_5**  
Response: ""cultural""  
Target: ""cultural""  
Analysis: Exact match, semantics are the same.  
Score: 1

**idx_6**  
Response: ""cultural""  
Target: ""cultural""  
Analysis: Exact match, semantics are the same.  
Score: 1

---

Final scoring results:

```json
{
    ""idx_0"": 1,
    ""idx_1"": 1,
    ""idx_2"": 1,
    ""idx_3"": 1,
    ""idx_4"": 1,
    ""idx_5"": 1,
    ""idx_6"": 1
}
```",cultural,cultural,1.0,"exact match, response: 1979, target: 1979",1979,1979
,,cahokiamoundsstatehistoricsite,Cahokia Mounds,0.0,"number not convertable, response: None, target: 541.0",541,NULL,1.0,"Let's analyze each item in detail according to the given criterion:

Criterion summary:  
- The response should be semantically approximately the same as the target.  
- It is sufficient if they point to the same entity.  
- No need for exact word match.

---

**idx_0**  
- Response: ""canada""  
- Target: ""canada""  
- Analysis: Exactly the same. Score = 1

**idx_1**  
- Response: ""canada""  
- Target: ""canada""  
- Analysis: Exactly the same. Score = 1

**idx_2**  
- Response: ""canada""  
- Target: ""canada""  
- Analysis: Exactly the same. Score = 1

**idx_3**  
- Response: ""usa""  
- Target: ""unitedstatesofamerica""  
- Analysis: ""usa"" and ""unitedstatesofamerica"" refer to the same entity. According to the criterion, this is sufficient. Score = 1

**idx_4**  
- Response: ""usa""  
- Target: ""unitedstatesofamerica""  
- Same as above. Score = 1

**idx_5**  
- Response: ""usa""  
- Target: ""unitedstatesofamerica""  
- Same as above. Score = 1

**idx_6**  
- Response: ""usa""  
- Target: ""unitedstatesofamerica""  
- Same as above. Score = 1

---

Final scores:

```json
{
  ""idx_0"": 1,
  ""idx_1"": 1,
  ""idx_2"": 1,
  ""idx_3"": 1,
  ""idx_4"": 1,
  ""idx_5"": 1,
  ""idx_6"": 1
}
```",unitedstatesofamerica,usa,1.0,"Let's analyze each idx item carefully according to the grading criteria:

---

### idx_0  
- Response: ""happyvalley-goosebay""  
- Target: ""newfoundland,newfoundlandandlabrador""  
Analysis:  
- The response is a city (Happy Valley-Goose Bay) in the province of Newfoundland and Labrador.  
- The target only specifies the province ""newfoundlandandlabrador"".  
- The criteria say that providing only the province is not enough; the main city/county of the location is needed. Here, response provides a city, but the target is only the province. Since response points to the city, it is more specific than the target.  
- Does the response point to the same entity or approximate semantics? The response city is indeed in the target province. Both point to the same geographical area, but at different granularities. The criteria do not require exact match in granularity, just approximate semantics or pointing to the same entity. Happy Valley-Goose Bay is within Newfoundland and Labrador, so they correspond.  
=> score: 1

---

### idx_1  
- Response: ""nahanninationalpark""  
- Target: ""northwestterritories,canada""  
Analysis:  
- The response is Nahanni National Park, which is located in the Northwest Territories, Canada.  
- The target is the territory and country.  
- The criteria accept roughly equivalent semantics or pointing to the same entity, and that main city/county is needed if a specific location is involved. Here, the response is a national park within the target territory, and so corresponds well.  
=> score: 1

---

### idx_2  
- Response: ""alberta""  
- Target: ""countyofnewell,alberta""  
Analysis:  
- The response provides only the province ""alberta"".  
- The target provides a county and province. The criteria say that only province is not enough for a specific location. The target is county in province, so to match it, the response should provide county or equivalent.  
- Here, response only provides ""alberta"" (province), which is less specific than the target. According to the criteria, this is insufficient as only province is not enough.  
=> score: 0

---

### idx_3  
- Response: ""philadelphia""  
- Target: ""philadelphia,commonwealthofpennsylvania""  
Analysis:  
- Response gives ""philadelphia"" (city).  
- Target gives city and state.  
- The city alone is acceptable since city matches main city/county of location. Province/state is not required if city is given.  
- So, response corresponds well to target.  
=> score: 1

---

### idx_4  
- Response: ""collinsville""  
- Target: ""st.claircounty,illinois""  
Analysis:  
- Response gives ""collinsville"" (a city/town).  
- Target gives county and state.  
- Checking if Collinsville is within St. Clair County, Illinois: Collinsville is a city in St. Clair County, Illinois.  
- Response provides city which is sufficient.  
=> score: 1

---

### idx_5  
- Response: ""chacocanyon""  
- Target: ""sanjuancounty,newmexico""  
Analysis:  
- Response: Chaco Canyon - a specific location  
- Target: county and state  
- Is Chaco Canyon in San Juan County, New Mexico? Yes, Chaco Canyon is located in San Juan County, NM.  
- Response provides a specific location within the county. According to criteria, this is sufficient.  
=> score:1

---

### idx_6  
- Response: ""marietta""  
- Target: ""rosscounty,ohio""  
Analysis:  
- Response city: Marietta  
- Target: Ross County, Ohio  
- Marietta is the county seat of Washington County, Ohio, not Ross County.  
- Marietta is NOT in Ross County.  
- Thus, the response and target do not correspond to the same place or entity.  
- This fails the requirement.  
=> score: 0

---

## Final Scores:

```json
{
    ""idx_0"": 1,
    ""idx_1"": 1,
    ""idx_2"": 0,
    ""idx_3"": 1,
    ""idx_4"": 1,
    ""idx_5"": 1,
    ""idx_6"": 0
}
```","st.claircounty,illinois",collinsville,1.0,key_match,1.0,"Let's analyze each item according to the criterion:

Criterion: ""It is sufficient if the semantics are approximately the same as the reference answer or if they point to the same entity. There is no need for a word-for-word correspondence.""

---

**idx_0**  
Response: ""cultural""  
Target: ""cultural""  
Analysis: Exact match, semantics are the same.  
Score: 1

**idx_1**  
Response: ""natural""  
Target: ""natural""  
Analysis: Exact match, semantics are the same.  
Score: 1

**idx_2**  
Response: ""natural""  
Target: ""natural""  
Analysis: Exact match, semantics are the same.  
Score: 1

**idx_3**  
Response: ""cultural""  
Target: ""cultural""  
Analysis: Exact match, semantics are the same.  
Score: 1

**idx_4**  
Response: ""cultural""  
Target: ""cultural""  
Analysis: Exact match, semantics are the same.  
Score: 1

**idx_5**  
Response: ""cultural""  
Target: ""cultural""  
Analysis: Exact match, semantics are the same.  
Score: 1

**idx_6**  
Response: ""cultural""  
Target: ""cultural""  
Analysis: Exact match, semantics are the same.  
Score: 1

---

Final scoring results:

```json
{
    ""idx_0"": 1,
    ""idx_1"": 1,
    ""idx_2"": 1,
    ""idx_3"": 1,
    ""idx_4"": 1,
    ""idx_5"": 1,
    ""idx_6"": 1
}
```",cultural,cultural,1.0,"exact match, response: 1982, target: 1982",1982,1982
,,chacoculture,Chaco Culture,0.0,"number not convertable, response: None, target: 14261.0",14261,NULL,1.0,"Let's analyze each item in detail according to the given criterion:

Criterion summary:  
- The response should be semantically approximately the same as the target.  
- It is sufficient if they point to the same entity.  
- No need for exact word match.

---

**idx_0**  
- Response: ""canada""  
- Target: ""canada""  
- Analysis: Exactly the same. Score = 1

**idx_1**  
- Response: ""canada""  
- Target: ""canada""  
- Analysis: Exactly the same. Score = 1

**idx_2**  
- Response: ""canada""  
- Target: ""canada""  
- Analysis: Exactly the same. Score = 1

**idx_3**  
- Response: ""usa""  
- Target: ""unitedstatesofamerica""  
- Analysis: ""usa"" and ""unitedstatesofamerica"" refer to the same entity. According to the criterion, this is sufficient. Score = 1

**idx_4**  
- Response: ""usa""  
- Target: ""unitedstatesofamerica""  
- Same as above. Score = 1

**idx_5**  
- Response: ""usa""  
- Target: ""unitedstatesofamerica""  
- Same as above. Score = 1

**idx_6**  
- Response: ""usa""  
- Target: ""unitedstatesofamerica""  
- Same as above. Score = 1

---

Final scores:

```json
{
  ""idx_0"": 1,
  ""idx_1"": 1,
  ""idx_2"": 1,
  ""idx_3"": 1,
  ""idx_4"": 1,
  ""idx_5"": 1,
  ""idx_6"": 1
}
```",unitedstatesofamerica,usa,1.0,"Let's analyze each idx item carefully according to the grading criteria:

---

### idx_0  
- Response: ""happyvalley-goosebay""  
- Target: ""newfoundland,newfoundlandandlabrador""  
Analysis:  
- The response is a city (Happy Valley-Goose Bay) in the province of Newfoundland and Labrador.  
- The target only specifies the province ""newfoundlandandlabrador"".  
- The criteria say that providing only the province is not enough; the main city/county of the location is needed. Here, response provides a city, but the target is only the province. Since response points to the city, it is more specific than the target.  
- Does the response point to the same entity or approximate semantics? The response city is indeed in the target province. Both point to the same geographical area, but at different granularities. The criteria do not require exact match in granularity, just approximate semantics or pointing to the same entity. Happy Valley-Goose Bay is within Newfoundland and Labrador, so they correspond.  
=> score: 1

---

### idx_1  
- Response: ""nahanninationalpark""  
- Target: ""northwestterritories,canada""  
Analysis:  
- The response is Nahanni National Park, which is located in the Northwest Territories, Canada.  
- The target is the territory and country.  
- The criteria accept roughly equivalent semantics or pointing to the same entity, and that main city/county is needed if a specific location is involved. Here, the response is a national park within the target territory, and so corresponds well.  
=> score: 1

---

### idx_2  
- Response: ""alberta""  
- Target: ""countyofnewell,alberta""  
Analysis:  
- The response provides only the province ""alberta"".  
- The target provides a county and province. The criteria say that only province is not enough for a specific location. The target is county in province, so to match it, the response should provide county or equivalent.  
- Here, response only provides ""alberta"" (province), which is less specific than the target. According to the criteria, this is insufficient as only province is not enough.  
=> score: 0

---

### idx_3  
- Response: ""philadelphia""  
- Target: ""philadelphia,commonwealthofpennsylvania""  
Analysis:  
- Response gives ""philadelphia"" (city).  
- Target gives city and state.  
- The city alone is acceptable since city matches main city/county of location. Province/state is not required if city is given.  
- So, response corresponds well to target.  
=> score: 1

---

### idx_4  
- Response: ""collinsville""  
- Target: ""st.claircounty,illinois""  
Analysis:  
- Response gives ""collinsville"" (a city/town).  
- Target gives county and state.  
- Checking if Collinsville is within St. Clair County, Illinois: Collinsville is a city in St. Clair County, Illinois.  
- Response provides city which is sufficient.  
=> score: 1

---

### idx_5  
- Response: ""chacocanyon""  
- Target: ""sanjuancounty,newmexico""  
Analysis:  
- Response: Chaco Canyon - a specific location  
- Target: county and state  
- Is Chaco Canyon in San Juan County, New Mexico? Yes, Chaco Canyon is located in San Juan County, NM.  
- Response provides a specific location within the county. According to criteria, this is sufficient.  
=> score:1

---

### idx_6  
- Response: ""marietta""  
- Target: ""rosscounty,ohio""  
Analysis:  
- Response city: Marietta  
- Target: Ross County, Ohio  
- Marietta is the county seat of Washington County, Ohio, not Ross County.  
- Marietta is NOT in Ross County.  
- Thus, the response and target do not correspond to the same place or entity.  
- This fails the requirement.  
=> score: 0

---

## Final Scores:

```json
{
    ""idx_0"": 1,
    ""idx_1"": 1,
    ""idx_2"": 0,
    ""idx_3"": 1,
    ""idx_4"": 1,
    ""idx_5"": 1,
    ""idx_6"": 0
}
```","sanjuancounty,newmexico",chacocanyon,1.0,key_match,1.0,"Let's analyze each item according to the criterion:

Criterion: ""It is sufficient if the semantics are approximately the same as the reference answer or if they point to the same entity. There is no need for a word-for-word correspondence.""

---

**idx_0**  
Response: ""cultural""  
Target: ""cultural""  
Analysis: Exact match, semantics are the same.  
Score: 1

**idx_1**  
Response: ""natural""  
Target: ""natural""  
Analysis: Exact match, semantics are the same.  
Score: 1

**idx_2**  
Response: ""natural""  
Target: ""natural""  
Analysis: Exact match, semantics are the same.  
Score: 1

**idx_3**  
Response: ""cultural""  
Target: ""cultural""  
Analysis: Exact match, semantics are the same.  
Score: 1

**idx_4**  
Response: ""cultural""  
Target: ""cultural""  
Analysis: Exact match, semantics are the same.  
Score: 1

**idx_5**  
Response: ""cultural""  
Target: ""cultural""  
Analysis: Exact match, semantics are the same.  
Score: 1

**idx_6**  
Response: ""cultural""  
Target: ""cultural""  
Analysis: Exact match, semantics are the same.  
Score: 1

---

Final scoring results:

```json
{
    ""idx_0"": 1,
    ""idx_1"": 1,
    ""idx_2"": 1,
    ""idx_3"": 1,
    ""idx_4"": 1,
    ""idx_5"": 1,
    ""idx_6"": 1
}
```",cultural,cultural,1.0,"exact match, response: 1987, target: 1987",1987,1987
,,hopewellceremonialearthworks,Hopewell Ceremonial Earthworks,0.0,"number not convertable, response: None, target: 320.7",320.7,NULL,1.0,"Let's analyze each item in detail according to the given criterion:

Criterion summary:  
- The response should be semantically approximately the same as the target.  
- It is sufficient if they point to the same entity.  
- No need for exact word match.

---

**idx_0**  
- Response: ""canada""  
- Target: ""canada""  
- Analysis: Exactly the same. Score = 1

**idx_1**  
- Response: ""canada""  
- Target: ""canada""  
- Analysis: Exactly the same. Score = 1

**idx_2**  
- Response: ""canada""  
- Target: ""canada""  
- Analysis: Exactly the same. Score = 1

**idx_3**  
- Response: ""usa""  
- Target: ""unitedstatesofamerica""  
- Analysis: ""usa"" and ""unitedstatesofamerica"" refer to the same entity. According to the criterion, this is sufficient. Score = 1

**idx_4**  
- Response: ""usa""  
- Target: ""unitedstatesofamerica""  
- Same as above. Score = 1

**idx_5**  
- Response: ""usa""  
- Target: ""unitedstatesofamerica""  
- Same as above. Score = 1

**idx_6**  
- Response: ""usa""  
- Target: ""unitedstatesofamerica""  
- Same as above. Score = 1

---

Final scores:

```json
{
  ""idx_0"": 1,
  ""idx_1"": 1,
  ""idx_2"": 1,
  ""idx_3"": 1,
  ""idx_4"": 1,
  ""idx_5"": 1,
  ""idx_6"": 1
}
```",unitedstatesofamerica,usa,0.0,"Let's analyze each idx item carefully according to the grading criteria:

---

### idx_0  
- Response: ""happyvalley-goosebay""  
- Target: ""newfoundland,newfoundlandandlabrador""  
Analysis:  
- The response is a city (Happy Valley-Goose Bay) in the province of Newfoundland and Labrador.  
- The target only specifies the province ""newfoundlandandlabrador"".  
- The criteria say that providing only the province is not enough; the main city/county of the location is needed. Here, response provides a city, but the target is only the province. Since response points to the city, it is more specific than the target.  
- Does the response point to the same entity or approximate semantics? The response city is indeed in the target province. Both point to the same geographical area, but at different granularities. The criteria do not require exact match in granularity, just approximate semantics or pointing to the same entity. Happy Valley-Goose Bay is within Newfoundland and Labrador, so they correspond.  
=> score: 1

---

### idx_1  
- Response: ""nahanninationalpark""  
- Target: ""northwestterritories,canada""  
Analysis:  
- The response is Nahanni National Park, which is located in the Northwest Territories, Canada.  
- The target is the territory and country.  
- The criteria accept roughly equivalent semantics or pointing to the same entity, and that main city/county is needed if a specific location is involved. Here, the response is a national park within the target territory, and so corresponds well.  
=> score: 1

---

### idx_2  
- Response: ""alberta""  
- Target: ""countyofnewell,alberta""  
Analysis:  
- The response provides only the province ""alberta"".  
- The target provides a county and province. The criteria say that only province is not enough for a specific location. The target is county in province, so to match it, the response should provide county or equivalent.  
- Here, response only provides ""alberta"" (province), which is less specific than the target. According to the criteria, this is insufficient as only province is not enough.  
=> score: 0

---

### idx_3  
- Response: ""philadelphia""  
- Target: ""philadelphia,commonwealthofpennsylvania""  
Analysis:  
- Response gives ""philadelphia"" (city).  
- Target gives city and state.  
- The city alone is acceptable since city matches main city/county of location. Province/state is not required if city is given.  
- So, response corresponds well to target.  
=> score: 1

---

### idx_4  
- Response: ""collinsville""  
- Target: ""st.claircounty,illinois""  
Analysis:  
- Response gives ""collinsville"" (a city/town).  
- Target gives county and state.  
- Checking if Collinsville is within St. Clair County, Illinois: Collinsville is a city in St. Clair County, Illinois.  
- Response provides city which is sufficient.  
=> score: 1

---

### idx_5  
- Response: ""chacocanyon""  
- Target: ""sanjuancounty,newmexico""  
Analysis:  
- Response: Chaco Canyon - a specific location  
- Target: county and state  
- Is Chaco Canyon in San Juan County, New Mexico? Yes, Chaco Canyon is located in San Juan County, NM.  
- Response provides a specific location within the county. According to criteria, this is sufficient.  
=> score:1

---

### idx_6  
- Response: ""marietta""  
- Target: ""rosscounty,ohio""  
Analysis:  
- Response city: Marietta  
- Target: Ross County, Ohio  
- Marietta is the county seat of Washington County, Ohio, not Ross County.  
- Marietta is NOT in Ross County.  
- Thus, the response and target do not correspond to the same place or entity.  
- This fails the requirement.  
=> score: 0

---

## Final Scores:

```json
{
    ""idx_0"": 1,
    ""idx_1"": 1,
    ""idx_2"": 0,
    ""idx_3"": 1,
    ""idx_4"": 1,
    ""idx_5"": 1,
    ""idx_6"": 0
}
```","rosscounty,ohio",marietta,1.0,key_match,1.0,"Let's analyze each item according to the criterion:

Criterion: ""It is sufficient if the semantics are approximately the same as the reference answer or if they point to the same entity. There is no need for a word-for-word correspondence.""

---

**idx_0**  
Response: ""cultural""  
Target: ""cultural""  
Analysis: Exact match, semantics are the same.  
Score: 1

**idx_1**  
Response: ""natural""  
Target: ""natural""  
Analysis: Exact match, semantics are the same.  
Score: 1

**idx_2**  
Response: ""natural""  
Target: ""natural""  
Analysis: Exact match, semantics are the same.  
Score: 1

**idx_3**  
Response: ""cultural""  
Target: ""cultural""  
Analysis: Exact match, semantics are the same.  
Score: 1

**idx_4**  
Response: ""cultural""  
Target: ""cultural""  
Analysis: Exact match, semantics are the same.  
Score: 1

**idx_5**  
Response: ""cultural""  
Target: ""cultural""  
Analysis: Exact match, semantics are the same.  
Score: 1

**idx_6**  
Response: ""cultural""  
Target: ""cultural""  
Analysis: Exact match, semantics are the same.  
Score: 1

---

Final scoring results:

```json
{
    ""idx_0"": 1,
    ""idx_1"": 1,
    ""idx_2"": 1,
    ""idx_3"": 1,
    ""idx_4"": 1,
    ""idx_5"": 1,
    ""idx_6"": 1
}
```",cultural,cultural,1.0,"exact match, response: 2023, target: 2023",2023,2023
1.0,,agavelandscapeandancientindustrialfacilitiesoftequila,,,,35018.852,,,,mexico,,,,"vallesregion,jalisco",,,,,,cultural,,,,2006,
1.0,,"ancientmayacityandprotectedtropicalforestsofcalakmul,campeche",,,,331397,,,,mexico,,,,"calakmul,campeche",,,,,,mixed,,,,2002,
1.0,,anticosti,,,,18240,,,,canada,,,,"minganie,côte-nord,quebec",,,,,,natural,,,,2023,
1.0,,aqueductofpadretemblequehydraulicsystem,,,,6540,,,,mexico,,,,"betweenthestatesofmexicoandhidalgo,onthecentralmexicanplateau",,,,,,cultural,,,,2015,
1.0,,archaeologicalmonumentszoneofxochicalco,,,,707.65,,,,mexico,,,,"miacatlán,morelos,mexico",,,,,,cultural,,,,1999,
1.0,,"archaeologicalzoneofpaquimé,casasgrandes",,,,146.72,,,,mexico,,,,"casasgrandes,chihuahua,mexico",,,,,,cultural,,,,1998,
1.0,,archipiélagoderevillagigedo,,,,636685.375,,,,mexico,,,,exclusiveeconomiczoneofmexico,,,,,,natural,,,,2016,
1.0,,caminorealdetierraadentro,,,,3101.91,,,,mexico,,,,"betweenmexicocityandsanjuanpueblo(ohkayowingeh),newmexico(inthemodernu.s.)",,,,,,cultural,,,,2010,
1.0,,canadianrockymountainparks,,,,2360000,,,,canada,,,,albertaandbritishcolumbia,,,,,,natural,,,,1984,
1.0,,carlsbadcavernsnationalpark,,,,18926,,,,unitedstatesofamerica,,,,"eddycounty,stateofnewmexico",,,,,,natural,,,,1995,
1.0,,centraluniversitycitycampusoftheuniversidadnacionalautónomademéxico(unam),,,,176.5,,,,mexico,,,,"mexicocity,mexico",,,,,,cultural,,,,2007,
1.0,,earliest16th-centurymonasteriesontheslopesofpopocatepetl,,,,24.33,,,,mexico,,,,"sanandréscalpan,huejotzingo,tochimilco(puebla),tlaxcala(tlaxcala),yecapixtla,tepoztlán(morelos)",,,,,,cultural,,,,1994,
1.0,,elpinacateandgrandesiertodealtarbiospherereserve,,,,714566,,,,mexico,,,,"sonora,méxico",,,,,,natural,,,,2013,
1.0,,"eltajin,pre-hispaniccity",,,,240,,,,mexico,,,,"veracruz,mexico",,,,,,cultural,,,,1992,
1.0,,evergladesnationalpark,,,,567017,,,,unitedstatesofamerica,,,,"miamidadecounty,monroecounty,andcolliercounty",,,,,,natural,,,,1979,
1.0,,franciscanmissionsinthesierragordaofquerétaro,,,,103.7,,,,mexico,,,,"sierragorda,querétaro,mexico",,,,,,cultural,,,,2003,
1.0,,grandcanyonnationalpark,,,,493270,,,,unitedstatesofamerica,,,,coconinoandmohavecountiesinarizona,,,,,,natural,,,,1979,
1.0,,greatsmokymountainsnationalpark,,,,209000,,,,unitedstatesofamerica,,,,"countiesofcocke,blount,andsevierinthestateoftennessee;andthecountiesofswainandhaywoodinthestateofnorthcarolina",,,,,,natural,,,,1983,
1.0,,grosmornenationalpark,,,,180500,,,,canada,,,,"rockyharbour,newfoundlandandlabrador,canada",,,,,,natural,,,,1987,
1.0,,hawaiivolcanoesnationalpark,,,,87940,,,,unitedstatesofamerica,,,,"hawaiicounty,hawaii",,,,,,natural,,,,1987,
1.0,,head-smashed-inbuffalojump,,,,3626,,,,canada,,,,"fortmacleod,alberta",,,,,,cultural,,,,1981,
1.0,,historiccentreofmexicocityandxochimilco,,,,3010.86,,,,mexico,,,,mexicocity,,,,,,natural,,,,1987,
1.0,,historiccentreofmorelia,,,,390,,,,mexico,,,,"morelia,michoacán",,,,,,cultural,,,,1991,
1.0,,historiccentreofoaxacaandarchaeologicalsiteofmontealbán,,,,4375,,,,mexico,,,,"oaxaca,mexico",,,,,,cultural,,,,1987,
1.0,,historiccentreofpuebla,,,,690,,,,mexico,,,,"puebla,centralméxico",,,,,,cultural,,,,1987,
1.0,,historiccentreofzacatecas,,,,207.72,,,,mexico,,,,"zacatecas,mexico",,,,,,cultural,,,,1993,
1.0,,historicdistrictofoldquébec,,,,135,,,,canada,,,,cityofquebec,,,,,,cultural,,,,1985,
1.0,,historicfortifiedtownofcampeche,,,,181,,,,mexico,,,,"inthecityofsanfranciscodecampeche,inthestateofcampeche,mexico",,,,,,cultural,,,,1999,
1.0,,historicmonumentszoneofquerétaro,,,,258.3,,,,mexico,,,,"santiagodequerétaro,querétaro,mexico",,,,,,cultural,,,,1996,
1.0,,historicmonumentszoneoftlacotalpan,,,,75,,,,mexico,,,,"tlacotalpan,veracruz,mexico",,,,,,cultural,,,,1998,
1.0,,historictownofguanajuatoandadjacentmines,,,,2167.5,,,,mexico,,,,"guanajuato,guanajuaton,mexico",,,,,,cultural,,,,1988,
1.0,,"hospiciocabañas,guadalajara",,,,2.34,,,,mexico,,,,"guadalajara,jalisco,mexico",,,,,,cultural,,,,1997,
1.0,,islandsandprotectedareasofthegulfofcalifornia,,,,688558,,,,mexico,,,,"spansmanycitieslikebajacalifornia,sonora,bajacaliforniasur",,,,,,natural,,,,2005,
1.0,,jogginsfossilcliffs,,,,689,,,,canada,,,,"cumberlandcounty,novascotia(easterncanada)",,,,,,natural,,,,2008,
1.0,,kluane/wrangell-st.elias/glacierbay/tatshenshini-alsek,,,,9839121,,,,"canada,unitedstatesofamerica",,,,yukonterritory(canada)andalaska(usa)andprovinceofbritishcolumbia(canada),,,,,,natural,,,,1979,
1.0,,lafortalezaandsanjuannationalhistoricsiteinpuertorico,,,,33.39,,,,unitedstatesofamerica,,,,"sanjuan,puertorico",,,,,,cultural,,,,1983,
1.0,,landscapeofgrandpré,,,,1323.24,,,,canada,,,,"kingscounty,novascotia",,,,,,cultural,,,,2012,
1.0,,luisbarragánhouseandstudio,,,,0.1161,,,,mexico,,,,"mexicocity,mexico",,,,,,cultural,,,,2004,
1.0,,mammothcavenationalpark,,,,21191,,,,unitedstatesofamerica,,,,"countiesofbarren,edmonson,andhartinthestateofkentucky",,,,,,natural,,,,1981,
1.0,,mesaverdenationalpark,,,,21043,,,,unitedstatesofamerica,,,,"montezumacounty,colorado,",,,,,,cultural,,,,1978,
1.0,,miguashanationalpark,,,,87.3,,,,canada,,,,"nouvelle,avignonregionalcountymunicipality,quebec,canada",,,,,,natural,,,,1999,
1.0,,mistakenpoint,,,,146,,,,canada,,,,"newfoundlandandlabrador,canad",,,,,,natural,,,,2016,
1.0,,monarchbutterflybiospherereserve,,,,13551.552,,,,mexico,,,,"michoacán,mexico",,,,,,natural,,,,2008,
1.0,,monticelloandtheuniversityofvirginiaincharlottesville,,,,795.96,,,,unitedstatesofamerica,,,,"albemarlecounty,virginia",,,,,,cultural,,,,1987,
1.0,,monumentalearthworksofpovertypoint,,,,163,,,,unitedstatesofamerica,,,,"westcarroll,stateoflouisiana",,,,,,cultural,,,,2014,
1.0,,moravianchurchsettlements,,,,NULL,,,,denmark&germany&unitedkingdomofgreatbritainandnorthernireland&unitedstatesofamerica,,,,"bethlehem(pennsylvania,usa),christiansfeld(denmark),gracehill(northernireland/uk),andherrnhut(saxony/germany)",,,,,,cultural,,,,2015,
1.0,,oldtownlunenburg,,,,33.85,,,,canada,,,,"lunenburgcounty,novascotia",,,,,,cultural,,,,1995,
1.0,,olympicnationalpark,,,,369659.8,,,,unitedstatesofamerica,,,,"jefferson,clallam,mason,andgraysharborcounties,washington",,,,,,natural,,,,1981,
1.0,,papahānaumokuākea,,,,36207499,,,,unitedstatesofamerica,,,,"honolulucounty,hawaiian",,,,,,mixed,,,,2010,
1.0,,pimachiowinaki,,,,2904000,,,,canada,,,,manitobaandontario,,,,,,mixed,,,,2018,
1.0,,pre-hispaniccityandnationalparkofpalenque,,,,1772,,,,mexico,,,,"palenque,chiapas,mexico",,,,,,cultural,,,,1987,
1.0,,pre-hispaniccityofchichen-itza,,,,1000,,,,mexico,,,,"yucatán,mexico",,,,,,cultural,,,,1988,
1.0,,pre-hispaniccityofteotihuacan,,,,250,,,,mexico,,,,"teotihuacán,stateofmexico,mexico",,,,,,cultural,,,,1987,
1.0,,pre-hispanictownofuxmal,,,,2059.8,,,,mexico,,,,"yucatán,mexico",,,,,,cultural,,,,1996,
1.0,,prehistoriccavesofyagulandmitlainthecentralvalleyofoaxaca,,,,1515.17,,,,mexico,,,,"tlacolulavalley,oaxaca,mexico",,,,,,cultural,,,,2010,
1.0,,protectivetownofsanmiguelandthesanctuaryofjesúsnazarenodeatotonilco,,,,46.95,,,,mexico,,,,"guanajuato,mexico",,,,,,cultural,,,,2008,
1.0,,redbaybasquewhalingstation,,,,312.973,,,,canada,,,,"newfoundlandandlabrador,canada",,,,,,cultural,,,,2013,
1.0,,redwoodnationalandstateparks,,,,41571,,,,unitedstatesofamerica,,,,"humboldtcounty&delnortecounty,california",,,,,,natural,,,,1980,
1.0,,rideaucanal,,,,21454.81,,,,canada,,,,provinceofontario,,,,,,cultural,,,,2007,
1.0,,rockpaintingsofthesierradesanfrancisco,,,,182600,,,,mexico,,,,"sierradesanfrancisco,mulegémunicipality,bajacaliforniasur,mexico",,,,,,cultural,,,,1993,
1.0,,sanantoniomissions,,,,300.8,,,,unitedstatesofamerica,,,,"bexarcounty,sanantonio",,,,,,cultural,,,,2015,
1.0,,sganggwaay,,,,11032,,,,canada,,,,"queencharlotteislands(haidagwaii,northcoastofbritishcolumbia,canada)",,,,,,cultural,,,,1981,
1.0,,sianka'an,,,,528000,,,,mexico,,,,"tulum,quintanaroo,mexico",,,,,,natural,,,,1987,
1.0,,statueofliberty,,,,5.95,,,,unitedstatesofamerica,,,,"newyork,newyork",,,,,,cultural,,,,1984,
1.0,,taospueblo,,,,19.01,,,,unitedstatesofamerica,,,,"taos,newmexico",,,,,,cultural,,,,1992,
1.0,,tehuacán-cuicatlánvalley:originaryhabitatofmesoamerica,,,,145255.2,,,,mexico,,,,"cuicatlán,tehuacán",,,,,,mixed,,,,2018,
1.0,,the20th-centuryarchitectureoffranklloydwright,,,,25.723,,,,unitedstatesofamerica,,,,"multiplestates(e.g.,springgreen,wi;scottsdale,az)",,,,,,cultural,,,,2019,
1.0,,tr’ondëk-klondike,,,,334.54,,,,canada,,,,"dawsoncity,canada",,,,,,cultural,,,,2023,
1.0,,watertonglacierinternationalpeacepark,,,,457614,,,,"canada,unitedstatesofamerica",,,,"provinceofalberta,canada;stateofmontana,usa",,,,,,natural,,,,1995,
1.0,,whalesanctuaryofelvizcaino,,,,369631,,,,mexico,,,,"bajacaliforniasur,mexico",,,,,,natural,,,,1993,
1.0,,woodbuffalonationalpark,,,,4480000,,,,canada,,,,"albertaandnorthwestterritories,canada",,,,,,natural,,,,1983,
1.0,,writing-on-stone/áísínai’pi,,,,1106,,,,canada,,,,"countyofwarnerno.5,alberta,canada",,,,,,cultural,,,,2019,
1.0,,yellowstonenationalpark,,,,898349,,,,unitedstatesofamerica,,,,"parkcounty&tetoncounty,wyoming;gallatincounty&parkcounty,montana;fremontcounty,idaho;",,,,,,natural,,,,1978,
1.0,,yosemitenationalpark,,,,307934,,,,unitedstatesofamerica,,,,"tuolumne,mariposa,monoandmaderacounties,california",,,,,,natural,,,,1984,
